{
"type": "FeatureCollection",
"name": "NCheyenneRoad",
"crs": { "type": "name", "properties": { "name": "urn:ogc:def:crs:OGC:1.3:CRS84" } },
"features": [
{ "type": "Feature", "properties": { "full_id": "w36952661", "osm_id": "36952661", "osm_type": "way", "turn:lanes:backward": null, "segregated": null, "trailblazed": null, "narrow": null, "power": null, "bridge:structure": null, "ladder": null, "aerialway": null, "natural": null, "fence_type": null, "turn:lanes": null, "turn:lanes:forward": null, "footway": null, "crossing:markings": null, "crossing:island": null, "crossing": null, "motor_vehicle:conditional": null, "source:hgv": null, "hgv": null, "expressway": null, "usage": null, "intermittent": null, "tunnel": null, "mtb:type": null, "railway": null, "old_railway_operator": null, "tiger:CLASSFP": null, "sac_scale": null, "opening_hours": null, "image": null, "hiking": null, "wikipedia": null, "wikidata": null, "tiger:STATEFP": null, "tiger:PLCIDFP": null, "tiger:PLACEFP": null, "tiger:PCINECTA": null, "tiger:PCICBSA": null, "tiger:NAMELSAD": null, "tiger:NAME": null, "tiger:MTFCC": null, "tiger:LSAD": null, "tiger:FUNCSTAT": null, "tiger:CPI": null, "is_in:state": null, "is_in:iso_3166_2": null, "gnis:feature_id": null, "border_type": null, "admin_level": null, "width": null, "wheelchair": null, "trail_visibility": null, "stroller": null, "snowmobile": null, "ski": null, "incline": null, "mtb:scale:imba": null, "barrier": null, "sidewalk": null, "maxspeed:type": null, "layer": null, "bridge": null, "mtb:scale": null, "dog": null, "waterway": "river", "parking:both": null, "service": null, "source:url": null, "boundary": null, "trolley_wire": null, "oneway": null, "cycleway": null, "covered": null, "check_date": null, "horse": null, "foot": null, "bicycle": null, "access": null, "maxspeed": null, "lit": null, "lanes:forward": null, "lanes:backward": null, "lane_markings": null, "tiger:name_type": null, "tiger:name_direction_prefix": null, "tiger:name_base": null, "smoothness": null, "name": "North Cheyenne Creek", "lanes": null, "tracktype": null, "tiger:reviewed": null, "tiger:county": null, "tiger:cfcc": null, "surface": null, "motor_vehicle": null, "highway": null }, "geometry": { "type": "LineString", "coordinates": [ [ -104.9037666, 38.7887472 ], [ -104.9036207, 38.7887673 ], [ -104.9035262, 38.7887673 ], [ -104.9034587, 38.7887732 ], [ -104.9034232, 38.7887673 ], [ -104.9032448, 38.7887338 ], [ -104.9030903, 38.7886469 ], [ -104.9029616, 38.7885331 ], [ -104.9027985, 38.7884796 ], [ -104.9025067, 38.7884127 ], [ -104.9021548, 38.7883592 ], [ -104.90176, 38.7883592 ], [ -104.901614, 38.7883324 ], [ -104.9014252, 38.7882187 ], [ -104.9012965, 38.7881317 ], [ -104.9010046, 38.7880447 ], [ -104.9007729, 38.7878976 ], [ -104.9005927, 38.7877303 ], [ -104.9003523, 38.7875965 ], [ -104.9000948, 38.7875296 ], [ -104.8997773, 38.7874426 ], [ -104.8996056, 38.7873824 ], [ -104.8994683, 38.7872285 ], [ -104.8992966, 38.7871349 ], [ -104.8990305, 38.7871215 ], [ -104.898816, 38.7872218 ], [ -104.8986271, 38.7873757 ], [ -104.8983439, 38.7874092 ], [ -104.8979491, 38.7873021 ], [ -104.8975285, 38.7874225 ], [ -104.8972195, 38.7874426 ], [ -104.896962, 38.7874627 ], [ -104.8968247, 38.7877102 ], [ -104.8968848, 38.7879109 ], [ -104.8969792, 38.7879778 ], [ -104.8972538, 38.7880782 ], [ -104.8973311, 38.7882254 ], [ -104.8973826, 38.7884194 ], [ -104.8973311, 38.78858 ], [ -104.8971852, 38.7886669 ], [ -104.8970994, 38.7886937 ], [ -104.8969964, 38.7886669 ], [ -104.8967989, 38.7885331 ], [ -104.8966874, 38.7884729 ], [ -104.8964814, 38.7884729 ], [ -104.8962925, 38.7885733 ], [ -104.8961895, 38.7888074 ], [ -104.8960865, 38.7890483 ], [ -104.8959406, 38.7892222 ], [ -104.8957346, 38.7892757 ], [ -104.8954686, 38.7893025 ], [ -104.8951853, 38.7893627 ], [ -104.8948506, 38.7894162 ], [ -104.8946446, 38.7894965 ], [ -104.8943957, 38.7896303 ], [ -104.8941811, 38.7897641 ], [ -104.8939408, 38.7898444 ], [ -104.8937005, 38.7899247 ], [ -104.893237, 38.7899447 ], [ -104.8928336, 38.7900518 ], [ -104.8925416, 38.7902169 ], [ -104.8923843, 38.7905013 ], [ -104.892378, 38.7909181 ], [ -104.8923151, 38.7911191 ], [ -104.8921893, 38.7912662 ], [ -104.8919502, 38.7915948 ], [ -104.8918307, 38.791786 ], [ -104.8916105, 38.791835 ], [ -104.8914469, 38.7916977 ], [ -104.8912141, 38.7915016 ], [ -104.8906354, 38.7914231 ], [ -104.8903082, 38.7914624 ], [ -104.8899685, 38.7917419 ], [ -104.8896099, 38.7920263 ], [ -104.8893583, 38.7920704 ], [ -104.8889101, 38.7920951 ], [ -104.8883898, 38.7920058 ], [ -104.8878218, 38.791924 ], [ -104.8871011, 38.7919612 ], [ -104.8867499, 38.7920393 ], [ -104.8863995, 38.7921174 ], [ -104.8860606, 38.7922179 ], [ -104.8855689, 38.7923295 ], [ -104.8854879, 38.7923234 ], [ -104.8852542, 38.7923137 ], [ -104.8848816, 38.7921993 ], [ -104.8844086, 38.7920191 ], [ -104.8843355, 38.7918924 ], [ -104.8841561, 38.7917714 ], [ -104.8837504, 38.7916673 ], [ -104.8834459, 38.7917011 ], [ -104.8831479, 38.7918496 ], [ -104.8831098, 38.7918728 ], [ -104.8829569, 38.7919658 ], [ -104.8828068, 38.7920073 ], [ -104.8827, 38.7920024 ], [ -104.8825142, 38.7919537 ], [ -104.8820464, 38.7917752 ], [ -104.881278, 38.7915854 ], [ -104.8805047, 38.791485 ], [ -104.8799837, 38.7914254 ] ] } },
{ "type": "Feature", "properties": { "full_id": "w36979791", "osm_id": "36979791", "osm_type": "way", "turn:lanes:backward": null, "segregated": null, "trailblazed": null, "narrow": null, "power": null, "bridge:structure": null, "ladder": null, "aerialway": null, "natural": null, "fence_type": null, "turn:lanes": null, "turn:lanes:forward": null, "footway": null, "crossing:markings": null, "crossing:island": null, "crossing": null, "motor_vehicle:conditional": null, "source:hgv": null, "hgv": null, "expressway": null, "usage": null, "intermittent": null, "tunnel": null, "mtb:type": null, "railway": null, "old_railway_operator": null, "tiger:CLASSFP": null, "sac_scale": null, "opening_hours": null, "image": null, "hiking": null, "wikipedia": null, "wikidata": null, "tiger:STATEFP": null, "tiger:PLCIDFP": null, "tiger:PLACEFP": null, "tiger:PCINECTA": null, "tiger:PCICBSA": null, "tiger:NAMELSAD": null, "tiger:NAME": null, "tiger:MTFCC": null, "tiger:LSAD": null, "tiger:FUNCSTAT": null, "tiger:CPI": null, "is_in:state": null, "is_in:iso_3166_2": null, "gnis:feature_id": null, "border_type": null, "admin_level": null, "width": null, "wheelchair": null, "trail_visibility": null, "stroller": null, "snowmobile": null, "ski": null, "incline": null, "mtb:scale:imba": null, "barrier": null, "sidewalk": null, "maxspeed:type": null, "layer": null, "bridge": null, "mtb:scale": null, "dog": null, "waterway": "stream", "parking:both": null, "service": null, "source:url": null, "boundary": null, "trolley_wire": null, "oneway": null, "cycleway": null, "covered": null, "check_date": null, "horse": null, "foot": null, "bicycle": null, "access": null, "maxspeed": null, "lit": null, "lanes:forward": null, "lanes:backward": null, "lane_markings": null, "tiger:name_type": null, "tiger:name_direction_prefix": null, "tiger:name_base": null, "smoothness": null, "name": "North Cheyenne Creek", "lanes": null, "tracktype": null, "tiger:reviewed": null, "tiger:county": null, "tiger:cfcc": null, "surface": null, "motor_vehicle": null, "highway": null }, "geometry": { "type": "LineString", "coordinates": [ [ -104.8768736, 38.7918048 ], [ -104.876833, 38.7918756 ], [ -104.8766455, 38.7920059 ], [ -104.8764725, 38.7920791 ], [ -104.8760818, 38.7921756 ], [ -104.8757719, 38.7922266 ], [ -104.8755004, 38.792265 ], [ -104.8752473, 38.7921961 ], [ -104.8750474, 38.7921217 ], [ -104.8749359, 38.7920156 ], [ -104.8748598, 38.791811 ], [ -104.8748315, 38.7916995 ], [ -104.874778, 38.7915351 ], [ -104.8746587, 38.7914084 ], [ -104.8745439, 38.791234 ], [ -104.8743815, 38.7910514 ], [ -104.8742943, 38.7909477 ], [ -104.8741342, 38.7908772 ], [ -104.8740818, 38.7908475 ], [ -104.8740386, 38.7907838 ], [ -104.8739807, 38.7906648 ], [ -104.8739371, 38.790541 ], [ -104.8738558, 38.7903035 ], [ -104.8737574, 38.7902245 ], [ -104.8734474, 38.7899779 ], [ -104.8733149, 38.7898821 ], [ -104.8731508, 38.7898065 ], [ -104.8728614, 38.7897961 ], [ -104.8726263, 38.789825 ], [ -104.8723279, 38.7899761 ], [ -104.8721668, 38.7900889 ], [ -104.8717765, 38.7902624 ], [ -104.8714484, 38.7905077 ], [ -104.8711255, 38.7906361 ], [ -104.8707451, 38.7907779 ], [ -104.8705201, 38.7909148 ], [ -104.8702173, 38.7910346 ], [ -104.8699417, 38.7911422 ], [ -104.8695926, 38.7911969 ], [ -104.8693243, 38.7912278 ], [ -104.8689783, 38.7912418 ], [ -104.8688415, 38.7912452 ], [ -104.8686781, 38.7912492 ], [ -104.8683605, 38.7912425 ], [ -104.8681545, 38.7913361 ], [ -104.8678284, 38.7914164 ], [ -104.8675022, 38.79149 ], [ -104.8672276, 38.7915234 ], [ -104.8669872, 38.7914699 ], [ -104.8667212, 38.7914565 ], [ -104.8664808, 38.7914833 ], [ -104.8662491, 38.7914632 ], [ -104.8661289, 38.7913896 ], [ -104.8660002, 38.7913027 ], [ -104.8659058, 38.7912291 ], [ -104.8657942, 38.7911956 ], [ -104.8656054, 38.7912157 ], [ -104.865365, 38.7911689 ], [ -104.8652019, 38.7911287 ], [ -104.865056, 38.7910685 ], [ -104.8647642, 38.7909682 ], [ -104.8645754, 38.7908143 ], [ -104.864378, 38.7906069 ], [ -104.8643093, 38.7905467 ] ] } },
{ "type": "Feature", "properties": { "full_id": "w1080378979", "osm_id": "1080378979", "osm_type": "way", "turn:lanes:backward": null, "segregated": null, "trailblazed": null, "narrow": null, "power": null, "bridge:structure": null, "ladder": null, "aerialway": null, "natural": null, "fence_type": null, "turn:lanes": null, "turn:lanes:forward": null, "footway": null, "crossing:markings": null, "crossing:island": null, "crossing": null, "motor_vehicle:conditional": null, "source:hgv": null, "hgv": null, "expressway": null, "usage": null, "intermittent": null, "tunnel": null, "mtb:type": null, "railway": null, "old_railway_operator": null, "tiger:CLASSFP": null, "sac_scale": null, "opening_hours": null, "image": null, "hiking": null, "wikipedia": null, "wikidata": null, "tiger:STATEFP": null, "tiger:PLCIDFP": null, "tiger:PLACEFP": null, "tiger:PCINECTA": null, "tiger:PCICBSA": null, "tiger:NAMELSAD": null, "tiger:NAME": null, "tiger:MTFCC": null, "tiger:LSAD": null, "tiger:FUNCSTAT": null, "tiger:CPI": null, "is_in:state": null, "is_in:iso_3166_2": null, "gnis:feature_id": null, "border_type": null, "admin_level": null, "width": null, "wheelchair": null, "trail_visibility": null, "stroller": null, "snowmobile": null, "ski": null, "incline": null, "mtb:scale:imba": null, "barrier": null, "sidewalk": null, "maxspeed:type": null, "layer": null, "bridge": null, "mtb:scale": null, "dog": null, "waterway": "stream", "parking:both": null, "service": null, "source:url": null, "boundary": null, "trolley_wire": null, "oneway": null, "cycleway": null, "covered": null, "check_date": null, "horse": null, "foot": null, "bicycle": null, "access": null, "maxspeed": null, "lit": null, "lanes:forward": null, "lanes:backward": null, "lane_markings": null, "tiger:name_type": null, "tiger:name_direction_prefix": null, "tiger:name_base": null, "smoothness": null, "name": "North Cheyenne Creek", "lanes": null, "tracktype": null, "tiger:reviewed": null, "tiger:county": null, "tiger:cfcc": null, "surface": null, "motor_vehicle": null, "highway": null }, "geometry": { "type": "LineString", "coordinates": [ [ -104.8799837, 38.7914254 ], [ -104.8798063, 38.7914219 ], [ -104.8795602, 38.7914405 ], [ -104.8793872, 38.7914599 ], [ -104.8792519, 38.7914469 ], [ -104.8791296, 38.7914339 ], [ -104.8789416, 38.7913966 ], [ -104.8788705, 38.7913597 ], [ -104.8788412, 38.7912203 ], [ -104.8787774, 38.7910904 ], [ -104.8787461, 38.7909386 ], [ -104.8786613, 38.7907808 ], [ -104.878621, 38.7907294 ], [ -104.8785125, 38.7907006 ], [ -104.8784003, 38.79069 ], [ -104.8782772, 38.7907144 ], [ -104.8780513, 38.7908312 ], [ -104.8777573, 38.7910042 ], [ -104.877553, 38.7911402 ], [ -104.8772845, 38.7910961 ], [ -104.8771515, 38.7911637 ], [ -104.8770606, 38.7912893 ], [ -104.8769942, 38.7914924 ], [ -104.8769553, 38.7916629 ], [ -104.876874078862699, 38.791804813754503 ] ] } },
{ "type": "Feature", "properties": { "full_id": "w36978617", "osm_id": "36978617", "osm_type": "way", "turn:lanes:backward": null, "segregated": null, "trailblazed": null, "narrow": null, "power": null, "bridge:structure": null, "ladder": null, "aerialway": null, "natural": null, "fence_type": null, "turn:lanes": null, "turn:lanes:forward": null, "footway": null, "crossing:markings": null, "crossing:island": null, "crossing": null, "motor_vehicle:conditional": "no@(Nov 01-Apr 30 21:00-5:00; May 01-Oct 31 22:00-5:00)", "source:hgv": null, "hgv": null, "expressway": null, "usage": null, "intermittent": null, "tunnel": null, "mtb:type": null, "railway": null, "old_railway_operator": null, "tiger:CLASSFP": null, "sac_scale": null, "opening_hours": null, "image": null, "hiking": null, "wikipedia": null, "wikidata": null, "tiger:STATEFP": null, "tiger:PLCIDFP": null, "tiger:PLACEFP": null, "tiger:PCINECTA": null, "tiger:PCICBSA": null, "tiger:NAMELSAD": null, "tiger:NAME": null, "tiger:MTFCC": null, "tiger:LSAD": null, "tiger:FUNCSTAT": null, "tiger:CPI": null, "is_in:state": null, "is_in:iso_3166_2": null, "gnis:feature_id": null, "border_type": null, "admin_level": null, "width": null, "wheelchair": null, "trail_visibility": null, "stroller": null, "snowmobile": null, "ski": null, "incline": null, "mtb:scale:imba": null, "barrier": null, "sidewalk": null, "maxspeed:type": null, "layer": "1", "bridge": "yes", "mtb:scale": null, "dog": null, "waterway": null, "parking:both": null, "service": null, "source:url": null, "boundary": null, "trolley_wire": null, "oneway": null, "cycleway": null, "covered": null, "check_date": null, "horse": null, "foot": null, "bicycle": null, "access": null, "maxspeed": "20 mph", "lit": null, "lanes:forward": null, "lanes:backward": null, "lane_markings": "no", "tiger:name_type": "Rd", "tiger:name_direction_prefix": "N", "tiger:name_base": "Cheyenne Canyon", "smoothness": null, "name": "North Cheyenne Canyon Road", "lanes": "2", "tracktype": null, "tiger:reviewed": "no", "tiger:county": "El Paso, CO", "tiger:cfcc": "A41", "surface": null, "motor_vehicle": null, "highway": "tertiary" }, "geometry": { "type": "LineString", "coordinates": [ [ -104.8971968, 38.7881747 ], [ -104.8970623, 38.7879412 ] ] } },
{ "type": "Feature", "properties": { "full_id": "w7686537", "osm_id": "7686537", "osm_type": "way", "turn:lanes:backward": null, "segregated": null, "trailblazed": null, "narrow": null, "power": null, "bridge:structure": null, "ladder": null, "aerialway": null, "natural": null, "fence_type": null, "turn:lanes": null, "turn:lanes:forward": null, "footway": null, "crossing:markings": null, "crossing:island": null, "crossing": null, "motor_vehicle:conditional": "no@(Nov 01-Apr 30 21:00-5:00; May 01-Oct 31 22:00-5:00)", "source:hgv": null, "hgv": null, "expressway": null, "usage": null, "intermittent": null, "tunnel": null, "mtb:type": null, "railway": null, "old_railway_operator": null, "tiger:CLASSFP": null, "sac_scale": null, "opening_hours": null, "image": null, "hiking": null, "wikipedia": null, "wikidata": null, "tiger:STATEFP": null, "tiger:PLCIDFP": null, "tiger:PLACEFP": null, "tiger:PCINECTA": null, "tiger:PCICBSA": null, "tiger:NAMELSAD": null, "tiger:NAME": null, "tiger:MTFCC": null, "tiger:LSAD": null, "tiger:FUNCSTAT": null, "tiger:CPI": null, "is_in:state": null, "is_in:iso_3166_2": null, "gnis:feature_id": null, "border_type": null, "admin_level": null, "width": null, "wheelchair": null, "trail_visibility": null, "stroller": null, "snowmobile": null, "ski": null, "incline": null, "mtb:scale:imba": null, "barrier": null, "sidewalk": null, "maxspeed:type": null, "layer": null, "bridge": null, "mtb:scale": null, "dog": null, "waterway": null, "parking:both": null, "service": null, "source:url": null, "boundary": null, "trolley_wire": null, "oneway": null, "cycleway": null, "covered": null, "check_date": null, "horse": null, "foot": null, "bicycle": null, "access": null, "maxspeed": "20 mph", "lit": null, "lanes:forward": null, "lanes:backward": null, "lane_markings": "no", "tiger:name_type": "Rd", "tiger:name_direction_prefix": "N", "tiger:name_base": "Cheyenne Canyon", "smoothness": null, "name": "North Cheyenne Canyon Road", "lanes": "2", "tracktype": null, "tiger:reviewed": "no", "tiger:county": "El Paso, CO", "tiger:cfcc": "A41", "surface": "asphalt", "motor_vehicle": null, "highway": "tertiary" }, "geometry": { "type": "LineString", "coordinates": [ [ -104.8891137, 38.7921278 ], [ -104.8891768, 38.7921533 ], [ -104.8892606, 38.7921785 ], [ -104.8893626, 38.7921916 ], [ -104.8894716, 38.7921856 ], [ -104.8895802, 38.7921728 ], [ -104.8896545, 38.7921472 ], [ -104.889752, 38.7920989 ], [ -104.8898541, 38.7920396 ], [ -104.8901141, 38.7918351 ], [ -104.8902744, 38.7917205 ], [ -104.8904182, 38.7916374 ], [ -104.8905608, 38.7915698 ], [ -104.890641, 38.7915514 ], [ -104.8907218, 38.7915474 ], [ -104.890832, 38.7915598 ], [ -104.8909849, 38.7915873 ], [ -104.891146, 38.7916437 ], [ -104.8912321, 38.7916974 ], [ -104.8913007, 38.7917629 ], [ -104.8914627, 38.7919924 ], [ -104.8915191, 38.7920444 ], [ -104.891583, 38.7920786 ], [ -104.8916517, 38.7920971 ], [ -104.8917213, 38.7920974 ], [ -104.8917937, 38.7920801 ], [ -104.8918569, 38.7920483 ], [ -104.8919202, 38.7919891 ], [ -104.8921376, 38.7916453 ], [ -104.8922001, 38.7915638 ], [ -104.8922636, 38.7914968 ], [ -104.8923353, 38.7914057 ], [ -104.8923939, 38.791325 ], [ -104.8924313, 38.7912564 ], [ -104.8924612, 38.7911786 ], [ -104.8924914, 38.7911099 ], [ -104.8925101, 38.7910203 ], [ -104.8925296, 38.7907109 ], [ -104.8925418, 38.7906125 ], [ -104.8925694, 38.7904936 ], [ -104.8926154, 38.7903935 ], [ -104.8926764, 38.7903144 ], [ -104.8927534, 38.7902437 ], [ -104.8928333, 38.7901944 ], [ -104.8929524, 38.7901448 ], [ -104.8930652, 38.790112 ], [ -104.8931854, 38.7900858 ], [ -104.893305, 38.790067 ], [ -104.893663, 38.7900434 ], [ -104.8937859, 38.7900239 ], [ -104.8939147, 38.7899931 ], [ -104.8940165, 38.7899574 ], [ -104.894209, 38.789862 ], [ -104.894736, 38.789642 ], [ -104.8949079, 38.7895865 ], [ -104.8950675, 38.7895378 ], [ -104.8951155, 38.7895232 ], [ -104.8952012, 38.7895 ], [ -104.8953249, 38.7894669 ], [ -104.8957052, 38.789398 ], [ -104.8958539, 38.7893598 ], [ -104.8959545, 38.7893227 ], [ -104.8960322, 38.7892812 ], [ -104.8960981, 38.7892344 ], [ -104.8961511, 38.7891748 ], [ -104.8963344, 38.7889281 ], [ -104.8963957, 38.7888593 ], [ -104.8964625, 38.7887998 ], [ -104.8965349, 38.7887434 ], [ -104.896622, 38.7886907 ], [ -104.8967087, 38.7886577 ], [ -104.8968321, 38.7886341 ] ] } },
{ "type": "Feature", "properties": { "full_id": "w7681040", "osm_id": "7681040", "osm_type": "way", "turn:lanes:backward": null, "segregated": null, "trailblazed": null, "narrow": null, "power": null, "bridge:structure": null, "ladder": null, "aerialway": null, "natural": null, "fence_type": null, "turn:lanes": null, "turn:lanes:forward": null, "footway": null, "crossing:markings": null, "crossing:island": null, "crossing": null, "motor_vehicle:conditional": "no@(Nov 01-Apr 30 21:00-5:00; May 01-Oct 31 22:00-5:00)", "source:hgv": null, "hgv": null, "expressway": null, "usage": null, "intermittent": null, "tunnel": null, "mtb:type": null, "railway": null, "old_railway_operator": null, "tiger:CLASSFP": null, "sac_scale": null, "opening_hours": null, "image": null, "hiking": null, "wikipedia": null, "wikidata": null, "tiger:STATEFP": null, "tiger:PLCIDFP": null, "tiger:PLACEFP": null, "tiger:PCINECTA": null, "tiger:PCICBSA": null, "tiger:NAMELSAD": null, "tiger:NAME": null, "tiger:MTFCC": null, "tiger:LSAD": null, "tiger:FUNCSTAT": null, "tiger:CPI": null, "is_in:state": null, "is_in:iso_3166_2": null, "gnis:feature_id": null, "border_type": null, "admin_level": null, "width": null, "wheelchair": null, "trail_visibility": null, "stroller": null, "snowmobile": null, "ski": null, "incline": null, "mtb:scale:imba": null, "barrier": null, "sidewalk": null, "maxspeed:type": null, "layer": null, "bridge": null, "mtb:scale": null, "dog": null, "waterway": null, "parking:both": null, "service": null, "source:url": null, "boundary": null, "trolley_wire": null, "oneway": null, "cycleway": null, "covered": null, "check_date": null, "horse": null, "foot": "yes", "bicycle": null, "access": "yes", "maxspeed": "20 mph", "lit": null, "lanes:forward": null, "lanes:backward": null, "lane_markings": "no", "tiger:name_type": "Rd", "tiger:name_direction_prefix": "N", "tiger:name_base": "Gold Camp;Cheyenne Canyon", "smoothness": null, "name": "North Cheyenne Canyon Road", "lanes": "2", "tracktype": null, "tiger:reviewed": "no", "tiger:county": "El Paso, CO", "tiger:cfcc": "A41", "surface": "asphalt", "motor_vehicle": "yes", "highway": "tertiary" }, "geometry": { "type": "LineString", "coordinates": [ [ -104.8970623, 38.7879412 ], [ -104.8970226, 38.7878227 ], [ -104.8970184, 38.7877609 ], [ -104.8970282, 38.7877086 ], [ -104.8970531, 38.7876581 ], [ -104.8970936, 38.7876204 ], [ -104.8971606, 38.7875818 ], [ -104.8972314, 38.787563 ], [ -104.8974335, 38.7875467 ], [ -104.8975198, 38.7875358 ], [ -104.897715, 38.7875026 ], [ -104.8978365, 38.7874869 ], [ -104.8980321, 38.7874908 ], [ -104.8981715, 38.7875051 ], [ -104.8983564, 38.7875383 ], [ -104.8984409, 38.7875483 ], [ -104.8985327, 38.787543 ], [ -104.8986073, 38.7875335 ], [ -104.8986847, 38.7875094 ], [ -104.8989069, 38.7873815 ], [ -104.8989739, 38.7873424 ], [ -104.8990402, 38.7873203 ], [ -104.8991105, 38.7873075 ], [ -104.8991776, 38.7873049 ], [ -104.8992623, 38.7873188 ], [ -104.8993283, 38.7873438 ], [ -104.8993739, 38.787369 ], [ -104.8995001, 38.7874543 ], [ -104.9001192, 38.7878589 ], [ -104.9001939, 38.7878971 ], [ -104.9002837, 38.7879377 ], [ -104.9003484, 38.7879584 ], [ -104.9003877, 38.7879709 ], [ -104.9005148, 38.7880075 ], [ -104.9005755, 38.7880247 ], [ -104.9009789, 38.7881518 ], [ -104.9011069, 38.7882073 ], [ -104.901235, 38.7882696 ], [ -104.9014955, 38.7884267 ], [ -104.9015956, 38.7884693 ], [ -104.9016882, 38.7885158 ], [ -104.9017949, 38.7885271 ], [ -104.902127, 38.7885752 ], [ -104.9021741, 38.788582 ], [ -104.9022308, 38.7885904 ], [ -104.9024419, 38.7886272 ], [ -104.9024817, 38.7886342 ], [ -104.902689, 38.7886802 ], [ -104.9027194, 38.788687 ], [ -104.902758, 38.7887006 ], [ -104.9027987, 38.788715 ], [ -104.9028564, 38.7887612 ], [ -104.902864, 38.7887934 ], [ -104.9028612, 38.7888195 ], [ -104.902835, 38.7888533 ], [ -104.9027925, 38.7888741 ], [ -104.9027379, 38.7888844 ], [ -104.9026604, 38.7888853 ], [ -104.9024731, 38.7888671 ], [ -104.9023074, 38.7888409 ], [ -104.9021029, 38.7887877 ], [ -104.901947, 38.7887606 ], [ -104.9018182, 38.7887472 ], [ -104.9017717, 38.7887472 ], [ -104.9017449, 38.7887546 ], [ -104.9017235, 38.7887691 ], [ -104.9016881, 38.7887934 ], [ -104.9016809, 38.7888275 ], [ -104.9016927, 38.788849 ], [ -104.9017159, 38.7888695 ], [ -104.9017656, 38.7888875 ], [ -104.9018146, 38.788892 ], [ -104.9018955, 38.7888944 ], [ -104.9020064, 38.7888948 ], [ -104.9020933, 38.7889112 ], [ -104.9021873, 38.7889479 ], [ -104.9025155, 38.7890901 ], [ -104.902625, 38.7891286 ], [ -104.9031599, 38.7892894 ], [ -104.9032409, 38.7893036 ], [ -104.9033072, 38.7893034 ], [ -104.9033697, 38.7892932 ], [ -104.90343, 38.7892715 ], [ -104.9034837, 38.7892421 ], [ -104.9035364, 38.7891989 ], [ -104.9036711, 38.7890933 ], [ -104.9037446, 38.7890395 ], [ -104.9037886, 38.7889918 ], [ -104.9038696, 38.7889747 ], [ -104.9039675, 38.7889619 ], [ -104.9040564, 38.7889613 ], [ -104.9041367, 38.788969 ], [ -104.9042246, 38.7889881 ], [ -104.9042942, 38.7890217 ], [ -104.9043509, 38.7890687 ], [ -104.9044107, 38.7891311 ], [ -104.904577, 38.7893835 ], [ -104.9046364, 38.7894583 ], [ -104.9047044, 38.7895254 ], [ -104.9047649, 38.7895665 ], [ -104.9048476, 38.7896303 ], [ -104.9050707, 38.7897569 ], [ -104.9053003, 38.7898596 ], [ -104.9054179, 38.7899042 ], [ -104.9055261, 38.7899294 ], [ -104.9056609, 38.7899493 ], [ -104.9057898, 38.7899594 ], [ -104.9059672, 38.7899586 ], [ -104.9061174, 38.7899512 ], [ -104.9063365, 38.7899328 ], [ -104.9064256, 38.7899298 ], [ -104.9065248, 38.7899544 ], [ -104.9065851, 38.7899935 ], [ -104.9066095, 38.790074 ], [ -104.9065663, 38.7901442 ], [ -104.9064585, 38.790202 ], [ -104.9061423, 38.7903287 ], [ -104.9058419, 38.7904604 ], [ -104.9057319, 38.7905064 ], [ -104.9056005, 38.7905356 ], [ -104.9053028, 38.7906151 ], [ -104.9051767, 38.7906736 ], [ -104.9050077, 38.7907949 ], [ -104.9049085, 38.7908492 ], [ -104.9047904, 38.7908785 ], [ -104.9046912, 38.7908764 ], [ -104.904592, 38.790843 ], [ -104.9045088, 38.7907865 ], [ -104.9044203, 38.7906924 ], [ -104.9043077, 38.7905315 ], [ -104.9041414, 38.7903558 ], [ -104.9040636, 38.7902994 ], [ -104.9039912, 38.7902806 ], [ -104.9039385, 38.7902822 ], [ -104.903857, 38.7902848 ], [ -104.9038096, 38.7902914 ], [ -104.9037412, 38.7902917 ] ] } },
{ "type": "Feature", "properties": { "full_id": "w980740266", "osm_id": "980740266", "osm_type": "way", "turn:lanes:backward": null, "segregated": null, "trailblazed": null, "narrow": null, "power": null, "bridge:structure": null, "ladder": null, "aerialway": null, "natural": null, "fence_type": null, "turn:lanes": null, "turn:lanes:forward": null, "footway": null, "crossing:markings": null, "crossing:island": null, "crossing": null, "motor_vehicle:conditional": "no@(Nov 01-Apr 30 21:00-5:00; May 01-Oct 31 22:00-5:00)", "source:hgv": null, "hgv": null, "expressway": null, "usage": null, "intermittent": null, "tunnel": null, "mtb:type": null, "railway": null, "old_railway_operator": null, "tiger:CLASSFP": null, "sac_scale": null, "opening_hours": null, "image": null, "hiking": null, "wikipedia": null, "wikidata": null, "tiger:STATEFP": null, "tiger:PLCIDFP": null, "tiger:PLACEFP": null, "tiger:PCINECTA": null, "tiger:PCICBSA": null, "tiger:NAMELSAD": null, "tiger:NAME": null, "tiger:MTFCC": null, "tiger:LSAD": null, "tiger:FUNCSTAT": null, "tiger:CPI": null, "is_in:state": null, "is_in:iso_3166_2": null, "gnis:feature_id": null, "border_type": null, "admin_level": null, "width": null, "wheelchair": null, "trail_visibility": null, "stroller": null, "snowmobile": null, "ski": null, "incline": null, "mtb:scale:imba": null, "barrier": null, "sidewalk": null, "maxspeed:type": null, "layer": "1", "bridge": "yes", "mtb:scale": null, "dog": null, "waterway": null, "parking:both": null, "service": null, "source:url": null, "boundary": null, "trolley_wire": null, "oneway": null, "cycleway": null, "covered": null, "check_date": null, "horse": null, "foot": null, "bicycle": null, "access": null, "maxspeed": "20 mph", "lit": "no", "lanes:forward": null, "lanes:backward": null, "lane_markings": "no", "tiger:name_type": "Rd", "tiger:name_direction_prefix": "N", "tiger:name_base": "Cheyenne Canyon", "smoothness": "excellent", "name": "North Cheyenne Canyon Road", "lanes": "2", "tracktype": null, "tiger:reviewed": "no", "tiger:county": "El Paso, CO", "tiger:cfcc": "A41", "surface": "asphalt", "motor_vehicle": null, "highway": "tertiary" }, "geometry": { "type": "LineString", "coordinates": [ [ -104.8889687, 38.7920037 ], [ -104.8891137, 38.7921278 ] ] } },
{ "type": "Feature", "properties": { "full_id": "w36978742", "osm_id": "36978742", "osm_type": "way", "turn:lanes:backward": null, "segregated": null, "trailblazed": null, "narrow": null, "power": null, "bridge:structure": null, "ladder": null, "aerialway": null, "natural": null, "fence_type": null, "turn:lanes": null, "turn:lanes:forward": null, "footway": null, "crossing:markings": null, "crossing:island": null, "crossing": null, "motor_vehicle:conditional": "no@(Nov 01-Apr 30 21:00-5:00; May 01-Oct 31 22:00-5:00)", "source:hgv": null, "hgv": null, "expressway": null, "usage": null, "intermittent": null, "tunnel": null, "mtb:type": null, "railway": null, "old_railway_operator": null, "tiger:CLASSFP": null, "sac_scale": null, "opening_hours": null, "image": null, "hiking": null, "wikipedia": null, "wikidata": null, "tiger:STATEFP": null, "tiger:PLCIDFP": null, "tiger:PLACEFP": null, "tiger:PCINECTA": null, "tiger:PCICBSA": null, "tiger:NAMELSAD": null, "tiger:NAME": null, "tiger:MTFCC": null, "tiger:LSAD": null, "tiger:FUNCSTAT": null, "tiger:CPI": null, "is_in:state": null, "is_in:iso_3166_2": null, "gnis:feature_id": null, "border_type": null, "admin_level": null, "width": null, "wheelchair": null, "trail_visibility": null, "stroller": null, "snowmobile": null, "ski": null, "incline": null, "mtb:scale:imba": null, "barrier": null, "sidewalk": null, "maxspeed:type": null, "layer": null, "bridge": null, "mtb:scale": null, "dog": null, "waterway": null, "parking:both": null, "service": null, "source:url": null, "boundary": null, "trolley_wire": null, "oneway": null, "cycleway": null, "covered": null, "check_date": null, "horse": null, "foot": null, "bicycle": null, "access": null, "maxspeed": "20 mph", "lit": null, "lanes:forward": null, "lanes:backward": null, "lane_markings": "no", "tiger:name_type": "Rd", "tiger:name_direction_prefix": "N", "tiger:name_base": "Cheyenne Canyon", "smoothness": null, "name": "North Cheyenne Canyon Road", "lanes": "2", "tracktype": null, "tiger:reviewed": "no", "tiger:county": "El Paso, CO", "tiger:cfcc": "A41", "surface": "asphalt", "motor_vehicle": null, "highway": "tertiary" }, "geometry": { "type": "LineString", "coordinates": [ [ -104.8970075, 38.7886119 ], [ -104.897104, 38.7885971 ], [ -104.8971644, 38.7885771 ], [ -104.8972109, 38.7885398 ], [ -104.8972395, 38.7884886 ], [ -104.8972538, 38.7884194 ], [ -104.8972538, 38.7883664 ], [ -104.8972367, 38.788299 ], [ -104.8971968, 38.7881747 ] ] } },
{ "type": "Feature", "properties": { "full_id": "w36978741", "osm_id": "36978741", "osm_type": "way", "turn:lanes:backward": null, "segregated": null, "trailblazed": null, "narrow": null, "power": null, "bridge:structure": null, "ladder": null, "aerialway": null, "natural": null, "fence_type": null, "turn:lanes": null, "turn:lanes:forward": null, "footway": null, "crossing:markings": null, "crossing:island": null, "crossing": null, "motor_vehicle:conditional": "no@(Nov 01-Apr 30 21:00-5:00; May 01-Oct 31 22:00-5:00)", "source:hgv": null, "hgv": null, "expressway": null, "usage": null, "intermittent": null, "tunnel": null, "mtb:type": null, "railway": null, "old_railway_operator": null, "tiger:CLASSFP": null, "sac_scale": null, "opening_hours": null, "image": null, "hiking": null, "wikipedia": null, "wikidata": null, "tiger:STATEFP": null, "tiger:PLCIDFP": null, "tiger:PLACEFP": null, "tiger:PCINECTA": null, "tiger:PCICBSA": null, "tiger:NAMELSAD": null, "tiger:NAME": null, "tiger:MTFCC": null, "tiger:LSAD": null, "tiger:FUNCSTAT": null, "tiger:CPI": null, "is_in:state": null, "is_in:iso_3166_2": null, "gnis:feature_id": null, "border_type": null, "admin_level": null, "width": null, "wheelchair": null, "trail_visibility": null, "stroller": null, "snowmobile": null, "ski": null, "incline": null, "mtb:scale:imba": null, "barrier": null, "sidewalk": null, "maxspeed:type": null, "layer": "1", "bridge": "yes", "mtb:scale": null, "dog": null, "waterway": null, "parking:both": null, "service": null, "source:url": null, "boundary": null, "trolley_wire": null, "oneway": null, "cycleway": null, "covered": null, "check_date": null, "horse": null, "foot": null, "bicycle": null, "access": null, "maxspeed": "20 mph", "lit": null, "lanes:forward": null, "lanes:backward": null, "lane_markings": "no", "tiger:name_type": "Rd", "tiger:name_direction_prefix": "N", "tiger:name_base": "Cheyenne Canyon", "smoothness": null, "name": "North Cheyenne Canyon Road", "lanes": "2", "tracktype": null, "tiger:reviewed": "no", "tiger:county": "El Paso, CO", "tiger:cfcc": "A41", "surface": "asphalt", "motor_vehicle": null, "highway": "tertiary" }, "geometry": { "type": "LineString", "coordinates": [ [ -104.8968321, 38.7886341 ], [ -104.8970075, 38.7886119 ] ] } },
{ "type": "Feature", "properties": { "full_id": "w913912509", "osm_id": "913912509", "osm_type": "way", "turn:lanes:backward": null, "segregated": null, "trailblazed": null, "narrow": null, "power": null, "bridge:structure": null, "ladder": null, "aerialway": null, "natural": null, "fence_type": null, "turn:lanes": null, "turn:lanes:forward": null, "footway": null, "crossing:markings": null, "crossing:island": null, "crossing": null, "motor_vehicle:conditional": "no@(Nov 01-Apr 30 21:00-5:00; May 01-Oct 31 22:00-5:00)", "source:hgv": null, "hgv": null, "expressway": null, "usage": null, "intermittent": null, "tunnel": null, "mtb:type": null, "railway": null, "old_railway_operator": null, "tiger:CLASSFP": null, "sac_scale": null, "opening_hours": null, "image": null, "hiking": null, "wikipedia": null, "wikidata": null, "tiger:STATEFP": null, "tiger:PLCIDFP": null, "tiger:PLACEFP": null, "tiger:PCINECTA": null, "tiger:PCICBSA": null, "tiger:NAMELSAD": null, "tiger:NAME": null, "tiger:MTFCC": null, "tiger:LSAD": null, "tiger:FUNCSTAT": null, "tiger:CPI": null, "is_in:state": null, "is_in:iso_3166_2": null, "gnis:feature_id": null, "border_type": null, "admin_level": null, "width": null, "wheelchair": null, "trail_visibility": null, "stroller": null, "snowmobile": null, "ski": null, "incline": null, "mtb:scale:imba": null, "barrier": null, "sidewalk": null, "maxspeed:type": null, "layer": "1", "bridge": "yes", "mtb:scale": null, "dog": null, "waterway": null, "parking:both": null, "service": null, "source:url": null, "boundary": null, "trolley_wire": null, "oneway": null, "cycleway": null, "covered": null, "check_date": null, "horse": null, "foot": null, "bicycle": null, "access": null, "maxspeed": "20 mph", "lit": null, "lanes:forward": null, "lanes:backward": null, "lane_markings": "no", "tiger:name_type": "Rd", "tiger:name_direction_prefix": "N", "tiger:name_base": "Cheyenne Canyon", "smoothness": null, "name": "North Cheyenne Canyon Road", "lanes": "2", "tracktype": null, "tiger:reviewed": "no", "tiger:county": "El Paso, CO", "tiger:cfcc": "A41", "surface": null, "motor_vehicle": null, "highway": "tertiary" }, "geometry": { "type": "LineString", "coordinates": [ [ -104.8773917, 38.7911506 ], [ -104.8774899, 38.791093 ] ] } },
{ "type": "Feature", "properties": { "full_id": "w1284452391", "osm_id": "1284452391", "osm_type": "way", "turn:lanes:backward": null, "segregated": null, "trailblazed": null, "narrow": null, "power": null, "bridge:structure": null, "ladder": null, "aerialway": null, "natural": null, "fence_type": null, "turn:lanes": null, "turn:lanes:forward": null, "footway": null, "crossing:markings": null, "crossing:island": null, "crossing": null, "motor_vehicle:conditional": "no@(Nov 01-Apr 30 21:00-5:00; May 01-Oct 31 22:00-5:00)", "source:hgv": null, "hgv": null, "expressway": null, "usage": null, "intermittent": null, "tunnel": null, "mtb:type": null, "railway": null, "old_railway_operator": null, "tiger:CLASSFP": null, "sac_scale": null, "opening_hours": null, "image": null, "hiking": null, "wikipedia": null, "wikidata": null, "tiger:STATEFP": null, "tiger:PLCIDFP": null, "tiger:PLACEFP": null, "tiger:PCINECTA": null, "tiger:PCICBSA": null, "tiger:NAMELSAD": null, "tiger:NAME": null, "tiger:MTFCC": null, "tiger:LSAD": null, "tiger:FUNCSTAT": null, "tiger:CPI": null, "is_in:state": null, "is_in:iso_3166_2": null, "gnis:feature_id": null, "border_type": null, "admin_level": null, "width": null, "wheelchair": null, "trail_visibility": null, "stroller": null, "snowmobile": null, "ski": null, "incline": null, "mtb:scale:imba": null, "barrier": null, "sidewalk": null, "maxspeed:type": null, "layer": null, "bridge": null, "mtb:scale": null, "dog": null, "waterway": null, "parking:both": null, "service": null, "source:url": null, "boundary": null, "trolley_wire": null, "oneway": "no", "cycleway": null, "covered": null, "check_date": null, "horse": null, "foot": null, "bicycle": null, "access": null, "maxspeed": "20 mph", "lit": "no", "lanes:forward": null, "lanes:backward": null, "lane_markings": "no", "tiger:name_type": "Rd", "tiger:name_direction_prefix": "N", "tiger:name_base": "Cheyenne Canyon", "smoothness": "good", "name": "North Cheyenne Canyon Road", "lanes": "2", "tracktype": null, "tiger:reviewed": "no", "tiger:county": "El Paso, CO", "tiger:cfcc": "A41", "surface": "asphalt", "motor_vehicle": null, "highway": "tertiary" }, "geometry": { "type": "LineString", "coordinates": [ [ -104.864350765416091, 38.790912977143165 ], [ -104.864350765416091, 38.79091112475033 ], [ -104.864445828494866, 38.790977810862223 ], [ -104.864726264577172, 38.791087101855162 ], [ -104.86499481777463, 38.791201949836662 ], [ -104.8652878, 38.7912749 ], [ -104.865537, 38.791351 ], [ -104.8656228, 38.7913844 ], [ -104.8658165, 38.7914595 ], [ -104.8659572, 38.7915141 ], [ -104.8661545, 38.7915907 ], [ -104.8662391, 38.7916201 ], [ -104.8663335, 38.7916422 ], [ -104.8671337, 38.7917667 ], [ -104.8672264, 38.7917703 ], [ -104.8673467, 38.7917643 ], [ -104.8674892, 38.7917509 ], [ -104.8675883, 38.7917381 ], [ -104.8676897, 38.7917187 ], [ -104.8677879, 38.7916859 ], [ -104.8680597, 38.7915822 ], [ -104.8681653, 38.791553 ], [ -104.8683209, 38.7915248 ], [ -104.8685277, 38.7914966 ], [ -104.8687365, 38.7914695 ] ] } },
{ "type": "Feature", "properties": { "full_id": "w913912508", "osm_id": "913912508", "osm_type": "way", "turn:lanes:backward": null, "segregated": null, "trailblazed": null, "narrow": null, "power": null, "bridge:structure": null, "ladder": null, "aerialway": null, "natural": null, "fence_type": null, "turn:lanes": null, "turn:lanes:forward": null, "footway": null, "crossing:markings": null, "crossing:island": null, "crossing": null, "motor_vehicle:conditional": "no@(Nov 01-Apr 30 21:00-5:00; May 01-Oct 31 22:00-5:00)", "source:hgv": null, "hgv": null, "expressway": null, "usage": null, "intermittent": null, "tunnel": null, "mtb:type": null, "railway": null, "old_railway_operator": null, "tiger:CLASSFP": null, "sac_scale": null, "opening_hours": null, "image": null, "hiking": null, "wikipedia": null, "wikidata": null, "tiger:STATEFP": null, "tiger:PLCIDFP": null, "tiger:PLACEFP": null, "tiger:PCINECTA": null, "tiger:PCICBSA": null, "tiger:NAMELSAD": null, "tiger:NAME": null, "tiger:MTFCC": null, "tiger:LSAD": null, "tiger:FUNCSTAT": null, "tiger:CPI": null, "is_in:state": null, "is_in:iso_3166_2": null, "gnis:feature_id": null, "border_type": null, "admin_level": null, "width": null, "wheelchair": null, "trail_visibility": null, "stroller": null, "snowmobile": null, "ski": null, "incline": null, "mtb:scale:imba": null, "barrier": null, "sidewalk": null, "maxspeed:type": null, "layer": null, "bridge": null, "mtb:scale": null, "dog": null, "waterway": null, "parking:both": null, "service": null, "source:url": null, "boundary": null, "trolley_wire": null, "oneway": "no", "cycleway": null, "covered": null, "check_date": null, "horse": null, "foot": null, "bicycle": null, "access": null, "maxspeed": "20 mph", "lit": "no", "lanes:forward": null, "lanes:backward": null, "lane_markings": "no", "tiger:name_type": "Rd", "tiger:name_direction_prefix": "N", "tiger:name_base": "Cheyenne Canyon", "smoothness": "good", "name": "North Cheyenne Canyon Road", "lanes": "2", "tracktype": null, "tiger:reviewed": "no", "tiger:county": "El Paso, CO", "tiger:cfcc": "A41", "surface": "asphalt", "motor_vehicle": null, "highway": "tertiary" }, "geometry": { "type": "LineString", "coordinates": [ [ -104.8687365, 38.7914695 ], [ -104.8690236, 38.791446 ], [ -104.8696086, 38.7914058 ], [ -104.8697307, 38.7913819 ], [ -104.869857, 38.7913511 ], [ -104.8700023, 38.7913016 ], [ -104.8701931, 38.7912247 ], [ -104.8704989, 38.7910891 ], [ -104.8707395, 38.7909832 ], [ -104.8708469, 38.7909324 ], [ -104.8712009, 38.7907696 ], [ -104.8715312, 38.7906105 ], [ -104.8717922, 38.7904707 ], [ -104.8722423, 38.7902017 ], [ -104.8727177, 38.789929 ], [ -104.8727946, 38.7899018 ], [ -104.8728837, 38.7898899 ] ] } },
{ "type": "Feature", "properties": { "full_id": "w1284452390", "osm_id": "1284452390", "osm_type": "way", "turn:lanes:backward": null, "segregated": null, "trailblazed": null, "narrow": null, "power": null, "bridge:structure": null, "ladder": null, "aerialway": null, "natural": null, "fence_type": null, "turn:lanes": null, "turn:lanes:forward": null, "footway": null, "crossing:markings": null, "crossing:island": null, "crossing": null, "motor_vehicle:conditional": "no@(Nov 01-Apr 30 21:00-5:00; May 01-Oct 31 22:00-5:00)", "source:hgv": null, "hgv": null, "expressway": null, "usage": null, "intermittent": null, "tunnel": null, "mtb:type": null, "railway": null, "old_railway_operator": null, "tiger:CLASSFP": null, "sac_scale": null, "opening_hours": null, "image": null, "hiking": null, "wikipedia": null, "wikidata": null, "tiger:STATEFP": null, "tiger:PLCIDFP": null, "tiger:PLACEFP": null, "tiger:PCINECTA": null, "tiger:PCICBSA": null, "tiger:NAMELSAD": null, "tiger:NAME": null, "tiger:MTFCC": null, "tiger:LSAD": null, "tiger:FUNCSTAT": null, "tiger:CPI": null, "is_in:state": null, "is_in:iso_3166_2": null, "gnis:feature_id": null, "border_type": null, "admin_level": null, "width": null, "wheelchair": null, "trail_visibility": null, "stroller": null, "snowmobile": null, "ski": null, "incline": null, "mtb:scale:imba": null, "barrier": null, "sidewalk": null, "maxspeed:type": null, "layer": null, "bridge": null, "mtb:scale": null, "dog": null, "waterway": null, "parking:both": null, "service": null, "source:url": null, "boundary": null, "trolley_wire": null, "oneway": "no", "cycleway": null, "covered": null, "check_date": null, "horse": null, "foot": null, "bicycle": null, "access": null, "maxspeed": "20 mph", "lit": "no", "lanes:forward": null, "lanes:backward": null, "lane_markings": "no", "tiger:name_type": "Rd", "tiger:name_direction_prefix": "N", "tiger:name_base": "Cheyenne Canyon", "smoothness": "good", "name": "North Cheyenne Canyon Road", "lanes": "2", "tracktype": null, "tiger:reviewed": "no", "tiger:county": "El Paso, CO", "tiger:cfcc": "A41", "surface": "asphalt", "motor_vehicle": null, "highway": "tertiary" }, "geometry": { "type": "LineString", "coordinates": [ [ -104.8728837, 38.7898899 ], [ -104.8729611, 38.7898976 ], [ -104.873034, 38.7899141 ], [ -104.8731002, 38.7899399 ], [ -104.8731803, 38.7899793 ], [ -104.8733995, 38.7901199 ], [ -104.873705, 38.7903485 ], [ -104.873759, 38.7903997 ], [ -104.8737977, 38.7904454 ], [ -104.873828, 38.7905069 ], [ -104.8738752, 38.7906562 ], [ -104.8739153, 38.7907648 ], [ -104.8739656, 38.7908841 ], [ -104.8740222, 38.7909892 ], [ -104.8740605, 38.7910385 ], [ -104.8741062, 38.7910971 ], [ -104.8746973, 38.7917263 ], [ -104.874742, 38.7917873 ], [ -104.8747807, 38.7918613 ], [ -104.8748565, 38.7920637 ], [ -104.8749305, 38.7921579 ] ] } },
{ "type": "Feature", "properties": { "full_id": "w1284452389", "osm_id": "1284452389", "osm_type": "way", "turn:lanes:backward": null, "segregated": null, "trailblazed": null, "narrow": null, "power": null, "bridge:structure": null, "ladder": null, "aerialway": null, "natural": null, "fence_type": null, "turn:lanes": null, "turn:lanes:forward": null, "footway": null, "crossing:markings": null, "crossing:island": null, "crossing": null, "motor_vehicle:conditional": "no@(Nov 01-Apr 30 21:00-5:00; May 01-Oct 31 22:00-5:00)", "source:hgv": null, "hgv": null, "expressway": null, "usage": null, "intermittent": null, "tunnel": null, "mtb:type": null, "railway": null, "old_railway_operator": null, "tiger:CLASSFP": null, "sac_scale": null, "opening_hours": null, "image": null, "hiking": null, "wikipedia": null, "wikidata": null, "tiger:STATEFP": null, "tiger:PLCIDFP": null, "tiger:PLACEFP": null, "tiger:PCINECTA": null, "tiger:PCICBSA": null, "tiger:NAMELSAD": null, "tiger:NAME": null, "tiger:MTFCC": null, "tiger:LSAD": null, "tiger:FUNCSTAT": null, "tiger:CPI": null, "is_in:state": null, "is_in:iso_3166_2": null, "gnis:feature_id": null, "border_type": null, "admin_level": null, "width": null, "wheelchair": null, "trail_visibility": null, "stroller": null, "snowmobile": null, "ski": null, "incline": null, "mtb:scale:imba": null, "barrier": null, "sidewalk": null, "maxspeed:type": null, "layer": null, "bridge": null, "mtb:scale": null, "dog": null, "waterway": null, "parking:both": null, "service": null, "source:url": null, "boundary": null, "trolley_wire": null, "oneway": null, "cycleway": null, "covered": null, "check_date": null, "horse": null, "foot": null, "bicycle": null, "access": null, "maxspeed": "20 mph", "lit": "no", "lanes:forward": null, "lanes:backward": null, "lane_markings": "no", "tiger:name_type": "Rd", "tiger:name_direction_prefix": "N", "tiger:name_base": "Cheyenne Canyon", "smoothness": "good", "name": "North Cheyenne Canyon Road", "lanes": "2", "tracktype": null, "tiger:reviewed": "no", "tiger:county": "El Paso, CO", "tiger:cfcc": "A41", "surface": "asphalt", "motor_vehicle": null, "highway": "tertiary" }, "geometry": { "type": "LineString", "coordinates": [ [ -104.8749305, 38.7921579 ], [ -104.8750335, 38.7922476 ], [ -104.8751381, 38.792295 ], [ -104.8752613, 38.7923288 ], [ -104.8754209, 38.7923581 ], [ -104.875542, 38.7923661 ], [ -104.8756581, 38.7923645 ], [ -104.8758036, 38.7923539 ], [ -104.8760129, 38.7923265 ], [ -104.8762663, 38.7922758 ], [ -104.8764909, 38.7922096 ], [ -104.876632, 38.7921596 ], [ -104.8767481, 38.7921058 ], [ -104.8768709, 38.7920363 ], [ -104.876947, 38.7919709 ], [ -104.8769937, 38.7919091 ], [ -104.8770464, 38.7918291 ], [ -104.8770808, 38.7917403 ], [ -104.8771242, 38.791574 ], [ -104.8771852, 38.7913611 ], [ -104.8772985, 38.7912056 ], [ -104.8773917, 38.7911506 ] ] } },
{ "type": "Feature", "properties": { "full_id": "w980740261", "osm_id": "980740261", "osm_type": "way", "turn:lanes:backward": null, "segregated": null, "trailblazed": null, "narrow": null, "power": null, "bridge:structure": null, "ladder": null, "aerialway": null, "natural": null, "fence_type": null, "turn:lanes": null, "turn:lanes:forward": null, "footway": null, "crossing:markings": null, "crossing:island": null, "crossing": null, "motor_vehicle:conditional": "no@(Nov 01-Apr 30 21:00-5:00; May 01-Oct 31 22:00-5:00)", "source:hgv": null, "hgv": null, "expressway": null, "usage": null, "intermittent": null, "tunnel": null, "mtb:type": null, "railway": null, "old_railway_operator": null, "tiger:CLASSFP": null, "sac_scale": null, "opening_hours": null, "image": null, "hiking": null, "wikipedia": null, "wikidata": null, "tiger:STATEFP": null, "tiger:PLCIDFP": null, "tiger:PLACEFP": null, "tiger:PCINECTA": null, "tiger:PCICBSA": null, "tiger:NAMELSAD": null, "tiger:NAME": null, "tiger:MTFCC": null, "tiger:LSAD": null, "tiger:FUNCSTAT": null, "tiger:CPI": null, "is_in:state": null, "is_in:iso_3166_2": null, "gnis:feature_id": null, "border_type": null, "admin_level": null, "width": null, "wheelchair": null, "trail_visibility": null, "stroller": null, "snowmobile": null, "ski": null, "incline": null, "mtb:scale:imba": null, "barrier": null, "sidewalk": null, "maxspeed:type": null, "layer": null, "bridge": null, "mtb:scale": null, "dog": null, "waterway": null, "parking:both": null, "service": null, "source:url": null, "boundary": null, "trolley_wire": null, "oneway": null, "cycleway": null, "covered": null, "check_date": null, "horse": null, "foot": null, "bicycle": null, "access": null, "maxspeed": "20 mph", "lit": null, "lanes:forward": null, "lanes:backward": null, "lane_markings": "no", "tiger:name_type": "Rd", "tiger:name_direction_prefix": "N", "tiger:name_base": "Cheyenne Canyon", "smoothness": null, "name": "North Cheyenne Canyon Road", "lanes": "2", "tracktype": null, "tiger:reviewed": "no", "tiger:county": "El Paso, CO", "tiger:cfcc": "A41", "surface": "asphalt", "motor_vehicle": null, "highway": "tertiary" }, "geometry": { "type": "LineString", "coordinates": [ [ -104.8774899, 38.791093 ], [ -104.8776098, 38.7910231 ], [ -104.8779854, 38.7907611 ], [ -104.8781878, 38.7906502 ], [ -104.8782993, 38.790607 ], [ -104.8784001, 38.7905828 ], [ -104.8784882, 38.7905711 ], [ -104.8785749, 38.7905791 ], [ -104.8786608, 38.7906104 ], [ -104.8787268, 38.7906481 ], [ -104.8787861, 38.7907031 ], [ -104.8788289, 38.7907653 ], [ -104.8788593, 38.7908425 ], [ -104.8789826, 38.7913681 ] ] } },
{ "type": "Feature", "properties": { "full_id": "w980740265", "osm_id": "980740265", "osm_type": "way", "turn:lanes:backward": null, "segregated": null, "trailblazed": null, "narrow": null, "power": null, "bridge:structure": null, "ladder": null, "aerialway": null, "natural": null, "fence_type": null, "turn:lanes": null, "turn:lanes:forward": null, "footway": null, "crossing:markings": null, "crossing:island": null, "crossing": null, "motor_vehicle:conditional": "no@(Nov 01-Apr 30 21:00-5:00; May 01-Oct 31 22:00-5:00)", "source:hgv": null, "hgv": null, "expressway": null, "usage": null, "intermittent": null, "tunnel": null, "mtb:type": null, "railway": null, "old_railway_operator": null, "tiger:CLASSFP": null, "sac_scale": null, "opening_hours": null, "image": null, "hiking": null, "wikipedia": null, "wikidata": null, "tiger:STATEFP": null, "tiger:PLCIDFP": null, "tiger:PLACEFP": null, "tiger:PCINECTA": null, "tiger:PCICBSA": null, "tiger:NAMELSAD": null, "tiger:NAME": null, "tiger:MTFCC": null, "tiger:LSAD": null, "tiger:FUNCSTAT": null, "tiger:CPI": null, "is_in:state": null, "is_in:iso_3166_2": null, "gnis:feature_id": null, "border_type": null, "admin_level": null, "width": null, "wheelchair": null, "trail_visibility": null, "stroller": null, "snowmobile": null, "ski": null, "incline": null, "mtb:scale:imba": null, "barrier": null, "sidewalk": null, "maxspeed:type": null, "layer": null, "bridge": null, "mtb:scale": null, "dog": null, "waterway": null, "parking:both": null, "service": null, "source:url": null, "boundary": null, "trolley_wire": null, "oneway": null, "cycleway": null, "covered": null, "check_date": null, "horse": null, "foot": null, "bicycle": null, "access": null, "maxspeed": "20 mph", "lit": null, "lanes:forward": null, "lanes:backward": null, "lane_markings": "no", "tiger:name_type": "Rd", "tiger:name_direction_prefix": "N", "tiger:name_base": "Cheyenne Canyon", "smoothness": null, "name": "North Cheyenne Canyon Road", "lanes": "2", "tracktype": null, "tiger:reviewed": "no", "tiger:county": "El Paso, CO", "tiger:cfcc": "A41", "surface": "asphalt", "motor_vehicle": null, "highway": "tertiary" }, "geometry": { "type": "LineString", "coordinates": [ [ -104.8844133, 38.7919584 ], [ -104.8847083, 38.7920113 ], [ -104.8848818, 38.7920554 ], [ -104.8853451, 38.7921995 ], [ -104.8854294, 38.792221 ], [ -104.8855212, 38.7922349 ], [ -104.8856154, 38.7922428 ], [ -104.8856945, 38.7922403 ], [ -104.8858021, 38.7922218 ], [ -104.885897, 38.7921967 ], [ -104.8861837, 38.7921085 ], [ -104.8864726, 38.7920089 ], [ -104.8866403, 38.7919464 ], [ -104.8868075, 38.7919033 ], [ -104.8868526, 38.7918918 ], [ -104.887026, 38.7918818 ], [ -104.8872361, 38.7918696 ], [ -104.8879166, 38.7918147 ], [ -104.8881581, 38.7918195 ], [ -104.8883676, 38.791834 ], [ -104.8885273, 38.7918562 ], [ -104.8886761, 38.7918875 ], [ -104.8888277, 38.7919287 ], [ -104.8889687, 38.7920037 ] ] } },
{ "type": "Feature", "properties": { "full_id": "w980740264", "osm_id": "980740264", "osm_type": "way", "turn:lanes:backward": null, "segregated": null, "trailblazed": null, "narrow": null, "power": null, "bridge:structure": null, "ladder": null, "aerialway": null, "natural": null, "fence_type": null, "turn:lanes": null, "turn:lanes:forward": null, "footway": null, "crossing:markings": null, "crossing:island": null, "crossing": null, "motor_vehicle:conditional": "no@(Nov 01-Apr 30 21:00-5:00; May 01-Oct 31 22:00-5:00)", "source:hgv": null, "hgv": null, "expressway": null, "usage": null, "intermittent": null, "tunnel": null, "mtb:type": null, "railway": null, "old_railway_operator": null, "tiger:CLASSFP": null, "sac_scale": null, "opening_hours": null, "image": null, "hiking": null, "wikipedia": null, "wikidata": null, "tiger:STATEFP": null, "tiger:PLCIDFP": null, "tiger:PLACEFP": null, "tiger:PCINECTA": null, "tiger:PCICBSA": null, "tiger:NAMELSAD": null, "tiger:NAME": null, "tiger:MTFCC": null, "tiger:LSAD": null, "tiger:FUNCSTAT": null, "tiger:CPI": null, "is_in:state": null, "is_in:iso_3166_2": null, "gnis:feature_id": null, "border_type": null, "admin_level": null, "width": null, "wheelchair": null, "trail_visibility": null, "stroller": null, "snowmobile": null, "ski": null, "incline": null, "mtb:scale:imba": null, "barrier": null, "sidewalk": null, "maxspeed:type": null, "layer": "1", "bridge": "yes", "mtb:scale": null, "dog": null, "waterway": null, "parking:both": null, "service": null, "source:url": null, "boundary": null, "trolley_wire": null, "oneway": null, "cycleway": null, "covered": null, "check_date": null, "horse": null, "foot": null, "bicycle": null, "access": null, "maxspeed": "20 mph", "lit": null, "lanes:forward": null, "lanes:backward": null, "lane_markings": "no", "tiger:name_type": "Rd", "tiger:name_direction_prefix": "N", "tiger:name_base": "Cheyenne Canyon", "smoothness": null, "name": "North Cheyenne Canyon Road", "lanes": "2", "tracktype": null, "tiger:reviewed": "no", "tiger:county": "El Paso, CO", "tiger:cfcc": "A41", "surface": null, "motor_vehicle": null, "highway": "tertiary" }, "geometry": { "type": "LineString", "coordinates": [ [ -104.8842916, 38.7919438 ], [ -104.8844133, 38.7919584 ] ] } },
{ "type": "Feature", "properties": { "full_id": "w980740263", "osm_id": "980740263", "osm_type": "way", "turn:lanes:backward": null, "segregated": null, "trailblazed": null, "narrow": null, "power": null, "bridge:structure": null, "ladder": null, "aerialway": null, "natural": null, "fence_type": null, "turn:lanes": null, "turn:lanes:forward": null, "footway": null, "crossing:markings": null, "crossing:island": null, "crossing": null, "motor_vehicle:conditional": "no@(Nov 01-Apr 30 21:00-5:00; May 01-Oct 31 22:00-5:00)", "source:hgv": null, "hgv": null, "expressway": null, "usage": null, "intermittent": null, "tunnel": null, "mtb:type": null, "railway": null, "old_railway_operator": null, "tiger:CLASSFP": null, "sac_scale": null, "opening_hours": null, "image": null, "hiking": null, "wikipedia": null, "wikidata": null, "tiger:STATEFP": null, "tiger:PLCIDFP": null, "tiger:PLACEFP": null, "tiger:PCINECTA": null, "tiger:PCICBSA": null, "tiger:NAMELSAD": null, "tiger:NAME": null, "tiger:MTFCC": null, "tiger:LSAD": null, "tiger:FUNCSTAT": null, "tiger:CPI": null, "is_in:state": null, "is_in:iso_3166_2": null, "gnis:feature_id": null, "border_type": null, "admin_level": null, "width": null, "wheelchair": null, "trail_visibility": null, "stroller": null, "snowmobile": null, "ski": null, "incline": null, "mtb:scale:imba": null, "barrier": null, "sidewalk": null, "maxspeed:type": null, "layer": null, "bridge": null, "mtb:scale": null, "dog": null, "waterway": null, "parking:both": null, "service": null, "source:url": null, "boundary": null, "trolley_wire": null, "oneway": "no", "cycleway": null, "covered": null, "check_date": null, "horse": null, "foot": null, "bicycle": null, "access": null, "maxspeed": "20 mph", "lit": null, "lanes:forward": null, "lanes:backward": null, "lane_markings": "no", "tiger:name_type": "Rd", "tiger:name_direction_prefix": "N", "tiger:name_base": "Cheyenne Canyon", "smoothness": null, "name": "North Cheyenne Canyon Road", "lanes": "2", "tracktype": null, "tiger:reviewed": "no", "tiger:county": "El Paso, CO", "tiger:cfcc": "A41", "surface": "asphalt", "motor_vehicle": null, "highway": "tertiary" }, "geometry": { "type": "LineString", "coordinates": [ [ -104.8790096, 38.7914539 ], [ -104.879057, 38.7914938 ], [ -104.8791351, 38.7915336 ], [ -104.879219, 38.7915668 ], [ -104.8793166, 38.7915895 ], [ -104.879403, 38.791596 ], [ -104.8795757, 38.791579 ], [ -104.8798592, 38.7915686 ], [ -104.8799833, 38.7915691 ], [ -104.8806327, 38.7916327 ], [ -104.8808506, 38.7916465 ], [ -104.8810846, 38.7916592 ], [ -104.8811944, 38.7916738 ], [ -104.8813621, 38.7917056 ], [ -104.8815339, 38.7917471 ], [ -104.881855, 38.7918202 ], [ -104.8820112, 38.7918609 ], [ -104.8821277, 38.7918959 ], [ -104.8825282, 38.7920494 ], [ -104.8826408, 38.7920782 ], [ -104.8827425, 38.7920916 ], [ -104.8828343, 38.7920922 ], [ -104.8829278, 38.792078 ], [ -104.8829963, 38.7920558 ], [ -104.883092, 38.792013 ], [ -104.8831539, 38.7919722 ], [ -104.8832457, 38.7919122 ], [ -104.8833698, 38.7918478 ], [ -104.8834541, 38.7918179 ], [ -104.8835526, 38.7917998 ], [ -104.8836291, 38.7917968 ], [ -104.8837302, 38.7918021 ], [ -104.8838406, 38.7918206 ], [ -104.8840706, 38.7918911 ], [ -104.8842916, 38.7919438 ] ] } },
{ "type": "Feature", "properties": { "full_id": "w980740262", "osm_id": "980740262", "osm_type": "way", "turn:lanes:backward": null, "segregated": null, "trailblazed": null, "narrow": null, "power": null, "bridge:structure": null, "ladder": null, "aerialway": null, "natural": null, "fence_type": null, "turn:lanes": null, "turn:lanes:forward": null, "footway": null, "crossing:markings": null, "crossing:island": null, "crossing": null, "motor_vehicle:conditional": "no@(Nov 01-Apr 30 21:00-5:00; May 01-Oct 31 22:00-5:00)", "source:hgv": null, "hgv": null, "expressway": null, "usage": null, "intermittent": null, "tunnel": null, "mtb:type": null, "railway": null, "old_railway_operator": null, "tiger:CLASSFP": null, "sac_scale": null, "opening_hours": null, "image": null, "hiking": null, "wikipedia": null, "wikidata": null, "tiger:STATEFP": null, "tiger:PLCIDFP": null, "tiger:PLACEFP": null, "tiger:PCINECTA": null, "tiger:PCICBSA": null, "tiger:NAMELSAD": null, "tiger:NAME": null, "tiger:MTFCC": null, "tiger:LSAD": null, "tiger:FUNCSTAT": null, "tiger:CPI": null, "is_in:state": null, "is_in:iso_3166_2": null, "gnis:feature_id": null, "border_type": null, "admin_level": null, "width": null, "wheelchair": null, "trail_visibility": null, "stroller": null, "snowmobile": null, "ski": null, "incline": null, "mtb:scale:imba": null, "barrier": null, "sidewalk": null, "maxspeed:type": null, "layer": "1", "bridge": "yes", "mtb:scale": null, "dog": null, "waterway": null, "parking:both": null, "service": null, "source:url": null, "boundary": null, "trolley_wire": null, "oneway": null, "cycleway": null, "covered": null, "check_date": null, "horse": null, "foot": null, "bicycle": null, "access": null, "maxspeed": "20 mph", "lit": null, "lanes:forward": null, "lanes:backward": null, "lane_markings": "no", "tiger:name_type": "Rd", "tiger:name_direction_prefix": "N", "tiger:name_base": "Cheyenne Canyon", "smoothness": null, "name": "North Cheyenne Canyon Road", "lanes": "2", "tracktype": null, "tiger:reviewed": "no", "tiger:county": "El Paso, CO", "tiger:cfcc": "A41", "surface": null, "motor_vehicle": null, "highway": "tertiary" }, "geometry": { "type": "LineString", "coordinates": [ [ -104.8789826, 38.7913681 ], [ -104.8790096, 38.7914539 ] ] } }
]
}
