{
"type": "FeatureCollection",
"name": "sevenBridgesAOI",
"crs": { "type": "name", "properties": { "name": "urn:ogc:def:crs:OGC:1.3:CRS84" } },
"features": [
{ "type": "Feature", "properties": { "full_id": "w36952628", "osm_id": "36952628", "osm_type": "way", "leisure": null, "leaf_type": null, "sorting_name": null, "landuse": null, "heritage": null, "addr:street": null, "addr:state": null, "addr:housenumber": null, "addr:city": null, "supervised": null, "smoothness": null, "parking": null, "park_ride": null, "opening_hours": null, "lit": null, "fee": null, "capacity:women": null, "capacity:parent": null, "capacity:disabled": null, "capacity": null, "access": null, "water": null, "ele": null, "surface": null, "amenity": "parking", "building": null, "natural": null, "source:population": null, "website": null, "population": null, "nist:state_fips": null, "nist:fips_code": null, "border_type": null, "attribution": null, "alt_name": null, "admin_level": null, "wikipedia": null, "wikidata": null, "type": null, "ref:US:USFS:proclaimed_forest_number": null, "protection_title": null, "protected_area": null, "protected": null, "protect_class": null, "ownership": null, "operator:wikipedia": null, "operator:wikidata": null, "operator:type": null, "operator:short": null, "operator": null, "name": null, "gnis:feature_id": null, "boundary": null }, "geometry": { "type": "MultiPolygon", "coordinates": [ [ [ [ -104.9029167, 38.788924 ], [ -104.9027917, 38.7889244 ], [ -104.9029014, 38.788862 ], [ -104.9029467, 38.7888929 ], [ -104.9029167, 38.788924 ] ] ] ] } },
{ "type": "Feature", "properties": { "full_id": "w117082556", "osm_id": "117082556", "osm_type": "way", "leisure": null, "leaf_type": null, "sorting_name": null, "landuse": null, "heritage": null, "addr:street": null, "addr:state": null, "addr:housenumber": null, "addr:city": null, "supervised": "no", "smoothness": "good", "parking": "surface", "park_ride": "no", "opening_hours": "dawn-20:00", "lit": "no", "fee": "no", "capacity:women": "no", "capacity:parent": "no", "capacity:disabled": "4", "capacity": "70", "access": "yes", "water": null, "ele": null, "surface": "asphalt", "amenity": "parking", "building": null, "natural": null, "source:population": null, "website": null, "population": null, "nist:state_fips": null, "nist:fips_code": null, "border_type": null, "attribution": null, "alt_name": null, "admin_level": null, "wikipedia": null, "wikidata": null, "type": null, "ref:US:USFS:proclaimed_forest_number": null, "protection_title": null, "protected_area": null, "protected": null, "protect_class": null, "ownership": null, "operator:wikipedia": null, "operator:wikidata": null, "operator:type": null, "operator:short": null, "operator": null, "name": null, "gnis:feature_id": null, "boundary": null }, "geometry": { "type": "MultiPolygon", "coordinates": [ [ [ [ -104.9042174, 38.7909194 ], [ -104.9042684, 38.7910005 ], [ -104.9040511, 38.7911008 ], [ -104.9039811, 38.7910412 ], [ -104.9039331, 38.7910444 ], [ -104.9038339, 38.7909419 ], [ -104.9037454, 38.7909649 ], [ -104.9035767, 38.7906954 ], [ -104.9034547, 38.7904415 ], [ -104.9036379, 38.7903885 ], [ -104.9037377, 38.7903653 ], [ -104.9038556, 38.7903676 ], [ -104.9039283, 38.7904716 ], [ -104.9039982, 38.7904674 ], [ -104.9041138, 38.790616 ], [ -104.9042388, 38.7907811 ], [ -104.9042174, 38.7909194 ] ] ] ] } },
{ "type": "Feature", "properties": { "full_id": "w36952627", "osm_id": "36952627", "osm_type": "way", "leisure": null, "leaf_type": null, "sorting_name": null, "landuse": null, "heritage": null, "addr:street": null, "addr:state": null, "addr:housenumber": null, "addr:city": null, "supervised": null, "smoothness": null, "parking": null, "park_ride": null, "opening_hours": null, "lit": null, "fee": null, "capacity:women": null, "capacity:parent": null, "capacity:disabled": null, "capacity": null, "access": null, "water": null, "ele": null, "surface": "dirt", "amenity": "parking", "building": null, "natural": null, "source:population": null, "website": null, "population": null, "nist:state_fips": null, "nist:fips_code": null, "border_type": null, "attribution": null, "alt_name": null, "admin_level": null, "wikipedia": null, "wikidata": null, "type": null, "ref:US:USFS:proclaimed_forest_number": null, "protection_title": null, "protected_area": null, "protected": null, "protect_class": null, "ownership": null, "operator:wikipedia": null, "operator:wikidata": null, "operator:type": null, "operator:short": null, "operator": null, "name": null, "gnis:feature_id": null, "boundary": null }, "geometry": { "type": "MultiPolygon", "coordinates": [ [ [ [ -104.9027341, 38.78881 ], [ -104.9026246, 38.7887752 ], [ -104.902413, 38.7887243 ], [ -104.9020879, 38.7886841 ], [ -104.9021192, 38.7886188 ], [ -104.9022798, 38.7886273 ], [ -104.9024367, 38.7886709 ], [ -104.9026554, 38.7887131 ], [ -104.902757, 38.7887571 ], [ -104.902777, 38.7887716 ], [ -104.9027341, 38.78881 ] ] ] ] } },
{ "type": "Feature", "properties": { "full_id": "w36952625", "osm_id": "36952625", "osm_type": "way", "leisure": null, "leaf_type": null, "sorting_name": null, "landuse": null, "heritage": null, "addr:street": null, "addr:state": null, "addr:housenumber": null, "addr:city": null, "supervised": null, "smoothness": null, "parking": null, "park_ride": null, "opening_hours": null, "lit": null, "fee": null, "capacity:women": null, "capacity:parent": null, "capacity:disabled": null, "capacity": null, "access": null, "water": null, "ele": null, "surface": null, "amenity": null, "building": "yes", "natural": null, "source:population": null, "website": null, "population": null, "nist:state_fips": null, "nist:fips_code": null, "border_type": null, "attribution": null, "alt_name": null, "admin_level": null, "wikipedia": null, "wikidata": null, "type": null, "ref:US:USFS:proclaimed_forest_number": null, "protection_title": null, "protected_area": null, "protected": null, "protect_class": null, "ownership": null, "operator:wikipedia": null, "operator:wikidata": null, "operator:type": null, "operator:short": null, "operator": null, "name": null, "gnis:feature_id": null, "boundary": null }, "geometry": { "type": "MultiPolygon", "coordinates": [ [ [ [ -104.9031485, 38.7888815 ], [ -104.9030407, 38.7889919 ], [ -104.9029449, 38.7889351 ], [ -104.9030527, 38.7888247 ], [ -104.9031485, 38.7888815 ] ] ] ] } },
{ "type": "Feature", "properties": { "full_id": "w36978500", "osm_id": "36978500", "osm_type": "way", "leisure": null, "leaf_type": null, "sorting_name": null, "landuse": null, "heritage": null, "addr:street": null, "addr:state": null, "addr:housenumber": null, "addr:city": null, "supervised": null, "smoothness": null, "parking": null, "park_ride": null, "opening_hours": null, "lit": null, "fee": null, "capacity:women": null, "capacity:parent": null, "capacity:disabled": null, "capacity": null, "access": null, "water": null, "ele": null, "surface": "dirt", "amenity": "parking", "building": null, "natural": null, "source:population": null, "website": null, "population": null, "nist:state_fips": null, "nist:fips_code": null, "border_type": null, "attribution": null, "alt_name": null, "admin_level": null, "wikipedia": null, "wikidata": null, "type": null, "ref:US:USFS:proclaimed_forest_number": null, "protection_title": null, "protected_area": null, "protected": null, "protect_class": null, "ownership": null, "operator:wikipedia": null, "operator:wikidata": null, "operator:type": null, "operator:short": null, "operator": null, "name": null, "gnis:feature_id": null, "boundary": null }, "geometry": { "type": "MultiPolygon", "coordinates": [ [ [ [ -104.9029702, 38.7887204 ], [ -104.9027239, 38.7886502 ], [ -104.9024849, 38.7885922 ], [ -104.9023307, 38.7885707 ], [ -104.9023156, 38.7884919 ], [ -104.9025496, 38.7885264 ], [ -104.9027985, 38.78858 ], [ -104.9030045, 38.7886535 ], [ -104.9029702, 38.7887204 ] ] ] ] } },
{ "type": "Feature", "properties": { "full_id": "w963290733", "osm_id": "963290733", "osm_type": "way", "leisure": null, "leaf_type": null, "sorting_name": null, "landuse": "construction", "heritage": null, "addr:street": null, "addr:state": null, "addr:housenumber": null, "addr:city": null, "supervised": null, "smoothness": null, "parking": null, "park_ride": null, "opening_hours": null, "lit": null, "fee": null, "capacity:women": null, "capacity:parent": null, "capacity:disabled": null, "capacity": null, "access": null, "water": null, "ele": null, "surface": null, "amenity": null, "building": null, "natural": null, "source:population": null, "website": null, "population": null, "nist:state_fips": null, "nist:fips_code": null, "border_type": null, "attribution": null, "alt_name": null, "admin_level": null, "wikipedia": null, "wikidata": null, "type": null, "ref:US:USFS:proclaimed_forest_number": null, "protection_title": null, "protected_area": null, "protected": null, "protect_class": null, "ownership": null, "operator:wikipedia": null, "operator:wikidata": null, "operator:type": null, "operator:short": null, "operator": null, "name": null, "gnis:feature_id": null, "boundary": null }, "geometry": { "type": "MultiPolygon", "coordinates": [ [ [ [ -104.90169, 38.7886987 ], [ -104.9014957, 38.7886945 ], [ -104.9015194, 38.7890243 ], [ -104.9017956, 38.7889711 ], [ -104.9016475, 38.7888978 ], [ -104.9015969, 38.7888315 ], [ -104.9016094, 38.7887566 ], [ -104.90169, 38.7886987 ] ] ] ] } }
]
}
