{
"type": "FeatureCollection",
"name": "sevenBridgesPath",
"crs": { "type": "name", "properties": { "name": "urn:ogc:def:crs:OGC:1.3:CRS84" } },
"features": [
{ "type": "Feature", "properties": { "full_id": "w7681040", "osm_id": "7681040", "osm_type": "way", "segregated": null, "horses": null, "motorcar": null, "dirtbike:scale": null, "service": null, "mtb:type": null, "width": null, "motorcycle": null, "sac_scale": null, "source_ref": null, "abandoned": null, "natural": null, "attribution": null, "horse": null, "tunnel": null, "layer": null, "SHAPE_len": null, "SHAPE_area": null, "oneway": null, "mtb:scale:imba": null, "fence_type": null, "barrier": null, "mtb:scale": null, "dog": null, "lit": null, "bicycle": null, "waterway": null, "level": null, "bridge": null, "boundary": null, "border_type": null, "admin_level": null, "tracktype": null, "smoothness": null, "ref:usfs": null, "operator": null, "4wd_only": null, "tiger:name_direction_prefix": "N", "motor_vehicle:conditional": "no@(Nov 01-Apr 30 21:00-5:00; May 01-Oct 31 22:00-5:00)", "maxspeed": "20 mph", "lanes": "2", "lane_markings": "no", "foot": "yes", "access": "yes", "ref": null, "motor_vehicle": "yes", "incline": null, "alt_name": null, "tiger:reviewed": "no", "tiger:name_type": "Rd", "tiger:name_base": "Gold Camp;Cheyenne Canyon", "tiger:county": "El Paso, CO", "tiger:cfcc": "A41", "surface": "asphalt", "railway": null, "old_railway_operator": null, "name": "North Cheyenne Canyon Road", "highway": "tertiary" }, "geometry": { "type": "LineString", "coordinates": [ [ -104.9016882, 38.7885158 ], [ -104.9017949, 38.7885271 ], [ -104.902127, 38.7885752 ], [ -104.9021741, 38.788582 ], [ -104.9022308, 38.7885904 ], [ -104.9024419, 38.7886272 ], [ -104.9024817, 38.7886342 ], [ -104.902689, 38.7886802 ], [ -104.9027194, 38.788687 ], [ -104.902758, 38.7887006 ], [ -104.9027987, 38.788715 ], [ -104.9028564, 38.7887612 ], [ -104.902864, 38.7887934 ], [ -104.9028612, 38.7888195 ], [ -104.902835, 38.7888533 ], [ -104.9027925, 38.7888741 ], [ -104.9027379, 38.7888844 ], [ -104.9026604, 38.7888853 ], [ -104.9024731, 38.7888671 ], [ -104.9023074, 38.7888409 ], [ -104.9021029, 38.7887877 ], [ -104.901947, 38.7887606 ], [ -104.9018182, 38.7887472 ], [ -104.9017717, 38.7887472 ], [ -104.9017449, 38.7887546 ], [ -104.9017235, 38.7887691 ], [ -104.9016881, 38.7887934 ], [ -104.9016809, 38.7888275 ], [ -104.9016927, 38.788849 ], [ -104.9017159, 38.7888695 ], [ -104.9017656, 38.7888875 ], [ -104.9018146, 38.788892 ], [ -104.9018955, 38.7888944 ], [ -104.9020064, 38.7888948 ], [ -104.9020933, 38.7889112 ], [ -104.9021873, 38.7889479 ], [ -104.9025155, 38.7890901 ], [ -104.902625, 38.7891286 ], [ -104.9031599, 38.7892894 ], [ -104.9032409, 38.7893036 ], [ -104.9033072, 38.7893034 ], [ -104.9033697, 38.7892932 ], [ -104.90343, 38.7892715 ], [ -104.9034837, 38.7892421 ], [ -104.9035364, 38.7891989 ], [ -104.9036711, 38.7890933 ], [ -104.9037446, 38.7890395 ], [ -104.9037886, 38.7889918 ], [ -104.9038696, 38.7889747 ], [ -104.9039675, 38.7889619 ], [ -104.9040564, 38.7889613 ], [ -104.9041367, 38.788969 ], [ -104.9042246, 38.7889881 ], [ -104.9042942, 38.7890217 ], [ -104.9043509, 38.7890687 ], [ -104.9044107, 38.7891311 ], [ -104.904577, 38.7893835 ], [ -104.9046364, 38.7894583 ], [ -104.9047044, 38.7895254 ], [ -104.9047649, 38.7895665 ], [ -104.9048476, 38.7896303 ], [ -104.9050707, 38.7897569 ], [ -104.9053003, 38.7898596 ], [ -104.9054179, 38.7899042 ], [ -104.9055261, 38.7899294 ], [ -104.9056609, 38.7899493 ], [ -104.9057898, 38.7899594 ], [ -104.9059672, 38.7899586 ], [ -104.9061174, 38.7899512 ], [ -104.9063365, 38.7899328 ], [ -104.9064256, 38.7899298 ], [ -104.9065248, 38.7899544 ], [ -104.9065851, 38.7899935 ], [ -104.9066095, 38.790074 ], [ -104.9065663, 38.7901442 ], [ -104.9064585, 38.790202 ], [ -104.9061423, 38.7903287 ], [ -104.9058419, 38.7904604 ], [ -104.9057319, 38.7905064 ], [ -104.9056005, 38.7905356 ], [ -104.9053028, 38.7906151 ], [ -104.9051767, 38.7906736 ], [ -104.9050077, 38.7907949 ], [ -104.9049085, 38.7908492 ], [ -104.9047904, 38.7908785 ], [ -104.9046912, 38.7908764 ], [ -104.904592, 38.790843 ], [ -104.9045088, 38.7907865 ], [ -104.9044203, 38.7906924 ], [ -104.9043077, 38.7905315 ], [ -104.9041414, 38.7903558 ], [ -104.9040636, 38.7902994 ], [ -104.9039912, 38.7902806 ], [ -104.9039385, 38.7902822 ], [ -104.903857, 38.7902848 ], [ -104.9038096, 38.7902914 ], [ -104.9037412, 38.7902917 ] ] } },
{ "type": "Feature", "properties": { "full_id": "w1173066549", "osm_id": "1173066549", "osm_type": "way", "segregated": null, "horses": null, "motorcar": null, "dirtbike:scale": null, "service": null, "mtb:type": null, "width": null, "motorcycle": null, "sac_scale": null, "source_ref": null, "abandoned": null, "natural": null, "attribution": null, "horse": "no", "tunnel": null, "layer": null, "SHAPE_len": null, "SHAPE_area": null, "oneway": null, "mtb:scale:imba": null, "fence_type": null, "barrier": null, "mtb:scale": null, "dog": null, "lit": null, "bicycle": "no", "waterway": null, "level": null, "bridge": null, "boundary": null, "border_type": null, "admin_level": null, "tracktype": null, "smoothness": null, "ref:usfs": null, "operator": null, "4wd_only": null, "tiger:name_direction_prefix": null, "motor_vehicle:conditional": null, "maxspeed": null, "lanes": null, "lane_markings": null, "foot": null, "access": null, "ref": null, "motor_vehicle": null, "incline": null, "alt_name": null, "tiger:reviewed": null, "tiger:name_type": null, "tiger:name_base": null, "tiger:county": null, "tiger:cfcc": null, "surface": "dirt", "railway": null, "old_railway_operator": null, "name": "Buffalo Canyon Trail", "highway": "path" }, "geometry": { "type": "LineString", "coordinates": [ [ -104.9041631, 38.788266 ], [ -104.9041034, 38.7882412 ], [ -104.9039833, 38.7882556 ], [ -104.9038354, 38.7882772 ], [ -104.9037183, 38.7882796 ], [ -104.9036135, 38.7882508 ], [ -104.9034965, 38.7882147 ], [ -104.9034687, 38.7881979 ], [ -104.9034533, 38.7881739 ], [ -104.9035242, 38.7881523 ], [ -104.9037152, 38.7881355 ], [ -104.9039247, 38.7880995 ], [ -104.9041127, 38.7880899 ], [ -104.9041681, 38.7880634 ], [ -104.9042729, 38.7879674 ], [ -104.9043253, 38.7878641 ], [ -104.9043653, 38.7877584 ], [ -104.9044269, 38.787636 ], [ -104.9044976, 38.7875276 ], [ -104.9045194, 38.7874078 ], [ -104.9045379, 38.7873045 ], [ -104.9045286, 38.7872541 ], [ -104.9044886, 38.7872037 ], [ -104.9044177, 38.7872373 ], [ -104.9043407, 38.7872445 ], [ -104.9042791, 38.7872733 ], [ -104.9041743, 38.7873141 ], [ -104.9040511, 38.7873622 ], [ -104.9040233, 38.7874006 ], [ -104.904011, 38.7874486 ], [ -104.9039925, 38.7875471 ], [ -104.9039371, 38.7875975 ], [ -104.9037984, 38.7875903 ], [ -104.9036628, 38.7875759 ], [ -104.9035735, 38.7875471 ], [ -104.9034934, 38.7875327 ], [ -104.903364, 38.7874895 ], [ -104.9033455, 38.7874462 ], [ -104.9032377, 38.7874222 ], [ -104.9031021, 38.787379 ], [ -104.9030497, 38.7873189 ], [ -104.9029881, 38.7872541 ], [ -104.9029604, 38.7872349 ], [ -104.9029388, 38.7872493 ], [ -104.902945, 38.7873261 ], [ -104.9029542, 38.7873598 ], [ -104.9029357, 38.7874174 ], [ -104.9028987, 38.787427 ], [ -104.9028618, 38.7874198 ], [ -104.9027971, 38.7874294 ], [ -104.9026892, 38.7875063 ], [ -104.9025968, 38.7875231 ], [ -104.9025413, 38.7875735 ], [ -104.9024828, 38.7876191 ], [ -104.902415, 38.7876408 ], [ -104.9022671, 38.7876432 ], [ -104.9021346, 38.7876744 ], [ -104.9019991, 38.7877104 ], [ -104.9019097, 38.787756 ], [ -104.9018804, 38.7878521 ] ] } },
{ "type": "Feature", "properties": { "full_id": "w36978577", "osm_id": "36978577", "osm_type": "way", "segregated": null, "horses": null, "motorcar": null, "dirtbike:scale": null, "service": null, "mtb:type": null, "width": null, "motorcycle": null, "sac_scale": null, "source_ref": null, "abandoned": null, "natural": null, "attribution": null, "horse": null, "tunnel": null, "layer": null, "SHAPE_len": null, "SHAPE_area": null, "oneway": null, "mtb:scale:imba": null, "fence_type": null, "barrier": null, "mtb:scale": null, "dog": null, "lit": null, "bicycle": null, "waterway": null, "level": null, "bridge": null, "boundary": null, "border_type": null, "admin_level": null, "tracktype": null, "smoothness": null, "ref:usfs": null, "operator": null, "4wd_only": null, "tiger:name_direction_prefix": null, "motor_vehicle:conditional": null, "maxspeed": null, "lanes": null, "lane_markings": null, "foot": "designated", "access": null, "ref": null, "motor_vehicle": null, "incline": null, "alt_name": null, "tiger:reviewed": null, "tiger:name_type": null, "tiger:name_base": null, "tiger:county": null, "tiger:cfcc": null, "surface": "dirt", "railway": null, "old_railway_operator": null, "name": "Silver Cascades Falls Trail", "highway": "steps" }, "geometry": { "type": "LineString", "coordinates": [ [ -104.9032001, 38.7888944 ], [ -104.9032859, 38.7889346 ], [ -104.9033117, 38.7889546 ], [ -104.903346, 38.7889546 ], [ -104.9034318, 38.7889078 ], [ -104.9034919, 38.7888476 ], [ -104.9035606, 38.7888007 ], [ -104.9035692, 38.7887405 ], [ -104.9036378, 38.7887071 ], [ -104.903861, 38.7886067 ], [ -104.9039401, 38.7885819 ], [ -104.9040905, 38.788564 ], [ -104.9042586, 38.7885667 ], [ -104.904356, 38.7885957 ], [ -104.9045453, 38.7886274 ], [ -104.9044851, 38.7885474 ], [ -104.9043772, 38.7884315 ], [ -104.9042905, 38.7883336 ], [ -104.9041631, 38.788266 ], [ -104.9041843, 38.7882219 ], [ -104.904271, 38.7882067 ], [ -104.9044285, 38.7881377 ], [ -104.9045683, 38.7880922 ], [ -104.9047063, 38.7879833 ], [ -104.904855, 38.7878867 ], [ -104.9050054, 38.787797 ], [ -104.9051452, 38.7877074 ], [ -104.9052372, 38.787597 ], [ -104.9053399, 38.7875281 ], [ -104.9054513, 38.7874605 ], [ -104.9055805, 38.7873446 ], [ -104.9056672, 38.7872646 ], [ -104.9058389, 38.7872067 ], [ -104.9058937, 38.787106 ], [ -104.9060105, 38.7869805 ], [ -104.906076, 38.7868701 ], [ -104.9059946, 38.786808 ], [ -104.9057982, 38.7868136 ], [ -104.9056986, 38.7868531 ] ] } },
{ "type": "Feature", "properties": { "full_id": "w36952661", "osm_id": "36952661", "osm_type": "way", "segregated": null, "horses": null, "motorcar": null, "dirtbike:scale": null, "service": null, "mtb:type": null, "width": null, "motorcycle": null, "sac_scale": null, "source_ref": null, "abandoned": null, "natural": null, "attribution": null, "horse": null, "tunnel": null, "layer": null, "SHAPE_len": null, "SHAPE_area": null, "oneway": null, "mtb:scale:imba": null, "fence_type": null, "barrier": null, "mtb:scale": null, "dog": null, "lit": null, "bicycle": null, "waterway": "river", "level": null, "bridge": null, "boundary": null, "border_type": null, "admin_level": null, "tracktype": null, "smoothness": null, "ref:usfs": null, "operator": null, "4wd_only": null, "tiger:name_direction_prefix": null, "motor_vehicle:conditional": null, "maxspeed": null, "lanes": null, "lane_markings": null, "foot": null, "access": null, "ref": null, "motor_vehicle": null, "incline": null, "alt_name": null, "tiger:reviewed": null, "tiger:name_type": null, "tiger:name_base": null, "tiger:county": null, "tiger:cfcc": null, "surface": null, "railway": null, "old_railway_operator": null, "name": null, "highway": null }, "geometry": { "type": "LineString", "coordinates": [ [ -104.9037666, 38.7887472 ], [ -104.9036207, 38.7887673 ], [ -104.9035262, 38.7887673 ], [ -104.9034587, 38.7887732 ], [ -104.9034232, 38.7887673 ], [ -104.9032448, 38.7887338 ], [ -104.9030903, 38.7886469 ], [ -104.9029616, 38.7885331 ], [ -104.9027985, 38.7884796 ], [ -104.9025067, 38.7884127 ], [ -104.9021548, 38.7883592 ], [ -104.90176, 38.7883592 ], [ -104.901614, 38.7883324 ], [ -104.9014252, 38.7882187 ] ] } },
{ "type": "Feature", "properties": { "full_id": "w105916338", "osm_id": "105916338", "osm_type": "way", "segregated": null, "horses": null, "motorcar": null, "dirtbike:scale": null, "service": null, "mtb:type": null, "width": null, "motorcycle": null, "sac_scale": null, "source_ref": null, "abandoned": null, "natural": null, "attribution": null, "horse": null, "tunnel": null, "layer": null, "SHAPE_len": null, "SHAPE_area": null, "oneway": null, "mtb:scale:imba": null, "fence_type": null, "barrier": null, "mtb:scale": null, "dog": null, "lit": null, "bicycle": null, "waterway": "stream", "level": null, "bridge": null, "boundary": null, "border_type": null, "admin_level": null, "tracktype": null, "smoothness": null, "ref:usfs": null, "operator": null, "4wd_only": null, "tiger:name_direction_prefix": null, "motor_vehicle:conditional": null, "maxspeed": null, "lanes": null, "lane_markings": null, "foot": null, "access": null, "ref": null, "motor_vehicle": null, "incline": null, "alt_name": null, "tiger:reviewed": null, "tiger:name_type": null, "tiger:name_base": null, "tiger:county": null, "tiger:cfcc": null, "surface": null, "railway": null, "old_railway_operator": null, "name": "North Cheyenne Creek", "highway": null }, "geometry": { "type": "LineString", "coordinates": [ [ -104.9366764, 38.7845258 ], [ -104.9363193, 38.7848042 ], [ -104.9359207, 38.7851666 ], [ -104.935547, 38.785322 ], [ -104.9352608, 38.7854347 ], [ -104.9348923, 38.7855796 ], [ -104.9347416, 38.7856392 ], [ -104.934152, 38.7859369 ], [ -104.9334877, 38.7861829 ], [ -104.9327403, 38.7862411 ], [ -104.9322006, 38.7863706 ], [ -104.931611, 38.7864224 ], [ -104.9313121, 38.7865259 ], [ -104.930681, 38.7864288 ], [ -104.9297842, 38.7863512 ], [ -104.9291282, 38.7864094 ], [ -104.9287213, 38.7866101 ], [ -104.9282812, 38.7867072 ], [ -104.9277082, 38.7867331 ], [ -104.9273927, 38.7866554 ], [ -104.9273013, 38.7865583 ], [ -104.9268114, 38.786623 ], [ -104.9262717, 38.786869 ], [ -104.9258897, 38.7869661 ], [ -104.9252918, 38.786979 ], [ -104.9247521, 38.7869208 ], [ -104.9243369, 38.7867719 ], [ -104.9238386, 38.7866489 ], [ -104.9234151, 38.786623 ], [ -104.9227176, 38.7865971 ], [ -104.9223273, 38.7866489 ], [ -104.9219727, 38.7868372 ], [ -104.9216857, 38.7870839 ], [ -104.9213558, 38.7873745 ], [ -104.9212351, 38.7875857 ], [ -104.9213182, 38.7878011 ], [ -104.9212673, 38.7880833 ], [ -104.9212217, 38.7882087 ], [ -104.9210071, 38.7882652 ], [ -104.9207201, 38.7882736 ], [ -104.9204921, 38.7883258 ], [ -104.9204036, 38.7885182 ], [ -104.9203526, 38.7887962 ], [ -104.9202346, 38.7890095 ], [ -104.9200469, 38.7890868 ], [ -104.9197706, 38.7890764 ], [ -104.9195399, 38.7889739 ], [ -104.919387, 38.7888652 ], [ -104.9192368, 38.7888485 ], [ -104.9191403, 38.788838 ], [ -104.9190544, 38.7887837 ], [ -104.9189284, 38.7885809 ], [ -104.9187755, 38.7884304 ], [ -104.918628, 38.7882359 ], [ -104.9184697, 38.7881063 ], [ -104.9183544, 38.7879286 ], [ -104.9182444, 38.7877467 ], [ -104.9180459, 38.7874707 ], [ -104.9179145, 38.7873536 ], [ -104.9177428, 38.7872491 ], [ -104.9175202, 38.7870338 ], [ -104.9171957, 38.7868205 ], [ -104.9170052, 38.7866282 ], [ -104.9168282, 38.7864734 ], [ -104.9166512, 38.786394 ], [ -104.9163508, 38.7863166 ], [ -104.9161603, 38.7862016 ], [ -104.9159404, 38.7861807 ], [ -104.9157139, 38.7861802 ], [ -104.9153881, 38.786211 ], [ -104.9151117, 38.7863418 ], [ -104.9149167, 38.7864976 ], [ -104.9148155, 38.78669 ], [ -104.9147584, 38.7866904 ], [ -104.9147318, 38.7866883 ], [ -104.9146922, 38.7866875 ], [ -104.9146288, 38.7866902 ], [ -104.9145755, 38.78668 ], [ -104.9145654, 38.7866722 ], [ -104.914508, 38.7866273 ], [ -104.9144887, 38.7866123 ], [ -104.9143568, 38.7865078 ], [ -104.9137783, 38.7863774 ], [ -104.9131567, 38.7863065 ], [ -104.9127694, 38.7863177 ], [ -104.912363, 38.7864556 ], [ -104.9121, 38.7866382 ], [ -104.9119423, 38.7867228 ], [ -104.911776, 38.7866977 ], [ -104.9117196, 38.7866183 ], [ -104.911607, 38.786566 ], [ -104.9114541, 38.7865347 ], [ -104.9113012, 38.7865765 ], [ -104.9112207, 38.7866496 ], [ -104.9111376, 38.7867145 ], [ -104.9110249, 38.7867625 ], [ -104.9109954, 38.7868002 ], [ -104.9110437, 38.7868838 ], [ -104.9111322, 38.7869528 ], [ -104.9111483, 38.7870343 ], [ -104.9111242, 38.7871598 ], [ -104.911033, 38.787258 ], [ -104.9108801, 38.787327 ], [ -104.9107701, 38.7873438 ], [ -104.9106655, 38.7873187 ], [ -104.9105851, 38.7873124 ], [ -104.9105126, 38.7873145 ], [ -104.910341, 38.7873919 ], [ -104.9103222, 38.7875047 ], [ -104.9103732, 38.7876406 ], [ -104.9102686, 38.787718 ], [ -104.9101559, 38.7877619 ], [ -104.9100459, 38.78781 ], [ -104.9099333, 38.7878539 ], [ -104.9098367, 38.7879229 ], [ -104.9098153, 38.7879793 ], [ -104.9098475, 38.7880504 ], [ -104.9098206, 38.7881299 ], [ -104.9097616, 38.7882051 ], [ -104.9097214, 38.7882741 ], [ -104.9095229, 38.7883996 ], [ -104.9093405, 38.7884874 ], [ -104.9091125, 38.7885794 ], [ -104.9089382, 38.7886107 ], [ -104.9087907, 38.7886045 ], [ -104.9086539, 38.7885919 ], [ -104.9085332, 38.7886379 ], [ -104.9084795, 38.7887174 ], [ -104.9084232, 38.7888052 ], [ -104.9083105, 38.7888574 ], [ -104.9081872, 38.7888742 ], [ -104.9080933, 38.7888762 ], [ -104.9080182, 38.7889829 ], [ -104.9079297, 38.7890498 ], [ -104.9078412, 38.7890811 ], [ -104.9077366, 38.7891083 ], [ -104.9076641, 38.789171 ], [ -104.9076346, 38.7892756 ], [ -104.9075622, 38.7893759 ], [ -104.907463, 38.7894407 ], [ -104.907345, 38.7894784 ], [ -104.9071921, 38.7895327 ], [ -104.9070714, 38.7895829 ], [ -104.907015, 38.7896289 ], [ -104.9069668, 38.7896853 ], [ -104.9069185, 38.7897167 ], [ -104.9067334, 38.7897334 ], [ -104.9065859, 38.7897899 ], [ -104.9064491, 38.789817 ], [ -104.9063284, 38.7898275 ], [ -104.9061943, 38.7898087 ], [ -104.9060548, 38.789769 ], [ -104.9059502, 38.7897564 ], [ -104.9057705, 38.7897439 ], [ -104.9056176, 38.7897815 ], [ -104.9054808, 38.7897752 ], [ -104.9054084, 38.7897564 ], [ -104.9053199, 38.7897041 ], [ -104.9052582, 38.7896477 ], [ -104.9051858, 38.7895808 ], [ -104.9051455, 38.7895285 ], [ -104.9051643, 38.789447 ], [ -104.905159, 38.7893592 ], [ -104.9051187, 38.789309 ], [ -104.905049, 38.7892735 ], [ -104.9049766, 38.7892588 ], [ -104.904872, 38.789217 ], [ -104.9047808, 38.7891919 ], [ -104.9046788, 38.789148 ], [ -104.9046145, 38.7890665 ], [ -104.9045742, 38.7889954 ], [ -104.9045555, 38.7889097 ], [ -104.9045474, 38.7888512 ], [ -104.9044991, 38.7887884 ], [ -104.9044133, 38.7887466 ], [ -104.9042497, 38.788732 ], [ -104.9040646, 38.7887466 ], [ -104.9039868, 38.7887466 ], [ -104.9038795, 38.7887404 ], [ -104.9037666, 38.7887472 ] ] } },
{ "type": "Feature", "properties": { "full_id": "w365214816", "osm_id": "365214816", "osm_type": "way", "segregated": null, "horses": null, "motorcar": null, "dirtbike:scale": null, "service": null, "mtb:type": null, "width": null, "motorcycle": null, "sac_scale": "mountain_hiking", "source_ref": null, "abandoned": null, "natural": null, "attribution": null, "horse": null, "tunnel": null, "layer": null, "SHAPE_len": null, "SHAPE_area": null, "oneway": null, "mtb:scale:imba": null, "fence_type": null, "barrier": null, "mtb:scale": null, "dog": null, "lit": null, "bicycle": "designated", "waterway": null, "level": null, "bridge": "yes", "boundary": null, "border_type": null, "admin_level": null, "tracktype": null, "smoothness": null, "ref:usfs": null, "operator": null, "4wd_only": null, "tiger:name_direction_prefix": null, "motor_vehicle:conditional": null, "maxspeed": null, "lanes": null, "lane_markings": null, "foot": "designated", "access": null, "ref": null, "motor_vehicle": null, "incline": null, "alt_name": null, "tiger:reviewed": null, "tiger:name_type": null, "tiger:name_base": null, "tiger:county": null, "tiger:cfcc": null, "surface": "dirt", "railway": null, "old_railway_operator": null, "name": null, "highway": "path" }, "geometry": { "type": "LineString", "coordinates": [ [ -104.9152179, 38.7862558 ], [ -104.9153263, 38.7862878 ] ] } },
{ "type": "Feature", "properties": { "full_id": "w365214815", "osm_id": "365214815", "osm_type": "way", "segregated": null, "horses": null, "motorcar": null, "dirtbike:scale": null, "service": null, "mtb:type": null, "width": null, "motorcycle": null, "sac_scale": "mountain_hiking", "source_ref": null, "abandoned": null, "natural": null, "attribution": null, "horse": null, "tunnel": null, "layer": null, "SHAPE_len": null, "SHAPE_area": null, "oneway": null, "mtb:scale:imba": null, "fence_type": null, "barrier": null, "mtb:scale": null, "dog": null, "lit": null, "bicycle": null, "waterway": null, "level": null, "bridge": null, "boundary": null, "border_type": null, "admin_level": null, "tracktype": null, "smoothness": null, "ref:usfs": null, "operator": null, "4wd_only": null, "tiger:name_direction_prefix": null, "motor_vehicle:conditional": null, "maxspeed": null, "lanes": null, "lane_markings": null, "foot": "designated", "access": null, "ref": null, "motor_vehicle": null, "incline": null, "alt_name": null, "tiger:reviewed": null, "tiger:name_type": null, "tiger:name_base": null, "tiger:county": null, "tiger:cfcc": null, "surface": "dirt", "railway": null, "old_railway_operator": null, "name": null, "highway": "path" }, "geometry": { "type": "LineString", "coordinates": [ [ -104.9153263, 38.7862878 ], [ -104.91586, 38.786538 ] ] } },
{ "type": "Feature", "properties": { "full_id": "w117082536", "osm_id": "117082536", "osm_type": "way", "segregated": null, "horses": null, "motorcar": null, "dirtbike:scale": null, "service": null, "mtb:type": null, "width": null, "motorcycle": null, "sac_scale": "mountain_hiking", "source_ref": null, "abandoned": null, "natural": null, "attribution": null, "horse": null, "tunnel": null, "layer": null, "SHAPE_len": null, "SHAPE_area": null, "oneway": null, "mtb:scale:imba": null, "fence_type": null, "barrier": null, "mtb:scale": null, "dog": null, "lit": null, "bicycle": "designated", "waterway": null, "level": null, "bridge": "yes", "boundary": null, "border_type": null, "admin_level": null, "tracktype": null, "smoothness": null, "ref:usfs": null, "operator": null, "4wd_only": null, "tiger:name_direction_prefix": null, "motor_vehicle:conditional": null, "maxspeed": null, "lanes": null, "lane_markings": null, "foot": "designated", "access": null, "ref": null, "motor_vehicle": null, "incline": null, "alt_name": null, "tiger:reviewed": null, "tiger:name_type": null, "tiger:name_base": null, "tiger:county": null, "tiger:cfcc": null, "surface": "dirt", "railway": null, "old_railway_operator": null, "name": "Seven Bridges Trail", "highway": "path" }, "geometry": { "type": "LineString", "coordinates": [ [ -104.9212297, 38.7877091 ], [ -104.9213182, 38.7876672 ] ] } },
{ "type": "Feature", "properties": { "full_id": "w117082543", "osm_id": "117082543", "osm_type": "way", "segregated": null, "horses": null, "motorcar": null, "dirtbike:scale": null, "service": null, "mtb:type": null, "width": null, "motorcycle": null, "sac_scale": "mountain_hiking", "source_ref": null, "abandoned": null, "natural": null, "attribution": null, "horse": null, "tunnel": null, "layer": null, "SHAPE_len": null, "SHAPE_area": null, "oneway": null, "mtb:scale:imba": null, "fence_type": null, "barrier": null, "mtb:scale": null, "dog": null, "lit": null, "bicycle": "designated", "waterway": null, "level": null, "bridge": "yes", "boundary": null, "border_type": null, "admin_level": null, "tracktype": null, "smoothness": null, "ref:usfs": null, "operator": null, "4wd_only": null, "tiger:name_direction_prefix": null, "motor_vehicle:conditional": null, "maxspeed": null, "lanes": null, "lane_markings": null, "foot": "designated", "access": null, "ref": null, "motor_vehicle": null, "incline": null, "alt_name": null, "tiger:reviewed": null, "tiger:name_type": null, "tiger:name_base": null, "tiger:county": null, "tiger:cfcc": null, "surface": "dirt", "railway": null, "old_railway_operator": null, "name": "Seven Bridges Trail", "highway": "path" }, "geometry": { "type": "LineString", "coordinates": [ [ -104.9191598, 38.7887844 ], [ -104.919118, 38.7888761 ] ] } },
{ "type": "Feature", "properties": { "full_id": "w117082542", "osm_id": "117082542", "osm_type": "way", "segregated": null, "horses": null, "motorcar": null, "dirtbike:scale": null, "service": null, "mtb:type": null, "width": null, "motorcycle": null, "sac_scale": "mountain_hiking", "source_ref": null, "abandoned": null, "natural": null, "attribution": null, "horse": null, "tunnel": null, "layer": null, "SHAPE_len": null, "SHAPE_area": null, "oneway": null, "mtb:scale:imba": null, "fence_type": null, "barrier": null, "mtb:scale": null, "dog": "leashed", "lit": null, "bicycle": null, "waterway": null, "level": null, "bridge": null, "boundary": null, "border_type": null, "admin_level": null, "tracktype": null, "smoothness": null, "ref:usfs": null, "operator": null, "4wd_only": null, "tiger:name_direction_prefix": null, "motor_vehicle:conditional": null, "maxspeed": null, "lanes": null, "lane_markings": null, "foot": "designated", "access": null, "ref": null, "motor_vehicle": null, "incline": null, "alt_name": null, "tiger:reviewed": null, "tiger:name_type": null, "tiger:name_base": null, "tiger:county": null, "tiger:cfcc": null, "surface": "dirt", "railway": null, "old_railway_operator": null, "name": "Seven Bridges Trail", "highway": "path" }, "geometry": { "type": "LineString", "coordinates": [ [ -104.919118, 38.7888761 ], [ -104.9191349, 38.7888966 ], [ -104.9192395, 38.7889091 ], [ -104.9193709, 38.7890011 ], [ -104.9195211, 38.7890826 ], [ -104.919666, 38.7891015 ], [ -104.919776, 38.7891245 ], [ -104.9199986, 38.7891475 ], [ -104.920181, 38.7891245 ], [ -104.9203204, 38.7890346 ], [ -104.9204792, 38.7888378 ], [ -104.9205302, 38.7885781 ], [ -104.920547, 38.7884038 ], [ -104.9207684, 38.788307 ] ] } },
{ "type": "Feature", "properties": { "full_id": "w117082541", "osm_id": "117082541", "osm_type": "way", "segregated": null, "horses": null, "motorcar": null, "dirtbike:scale": null, "service": null, "mtb:type": null, "width": null, "motorcycle": null, "sac_scale": "mountain_hiking", "source_ref": null, "abandoned": null, "natural": null, "attribution": null, "horse": null, "tunnel": null, "layer": null, "SHAPE_len": null, "SHAPE_area": null, "oneway": null, "mtb:scale:imba": null, "fence_type": null, "barrier": null, "mtb:scale": null, "dog": null, "lit": null, "bicycle": null, "waterway": null, "level": null, "bridge": null, "boundary": null, "border_type": null, "admin_level": null, "tracktype": null, "smoothness": null, "ref:usfs": null, "operator": null, "4wd_only": null, "tiger:name_direction_prefix": null, "motor_vehicle:conditional": null, "maxspeed": null, "lanes": null, "lane_markings": null, "foot": "designated", "access": null, "ref": null, "motor_vehicle": null, "incline": null, "alt_name": null, "tiger:reviewed": null, "tiger:name_type": null, "tiger:name_base": null, "tiger:county": null, "tiger:cfcc": null, "surface": "dirt", "railway": null, "old_railway_operator": null, "name": "Seven Bridges Trail", "highway": "path" }, "geometry": { "type": "LineString", "coordinates": [ [ -104.91586, 38.786538 ], [ -104.9159914, 38.7865111 ], [ -104.9161764, 38.7864818 ], [ -104.9165493, 38.7864609 ], [ -104.9166887, 38.7864484 ] ] } },
{ "type": "Feature", "properties": { "full_id": "w117082540", "osm_id": "117082540", "osm_type": "way", "segregated": null, "horses": null, "motorcar": null, "dirtbike:scale": null, "service": null, "mtb:type": null, "width": null, "motorcycle": null, "sac_scale": null, "source_ref": null, "abandoned": null, "natural": null, "attribution": null, "horse": null, "tunnel": null, "layer": null, "SHAPE_len": null, "SHAPE_area": null, "oneway": null, "mtb:scale:imba": null, "fence_type": null, "barrier": null, "mtb:scale": null, "dog": null, "lit": null, "bicycle": "yes", "waterway": null, "level": null, "bridge": null, "boundary": null, "border_type": null, "admin_level": null, "tracktype": null, "smoothness": null, "ref:usfs": null, "operator": null, "4wd_only": null, "tiger:name_direction_prefix": null, "motor_vehicle:conditional": null, "maxspeed": null, "lanes": null, "lane_markings": null, "foot": "yes", "access": null, "ref": null, "motor_vehicle": null, "incline": null, "alt_name": null, "tiger:reviewed": null, "tiger:name_type": null, "tiger:name_base": null, "tiger:county": null, "tiger:cfcc": null, "surface": null, "railway": null, "old_railway_operator": null, "name": null, "highway": "path" }, "geometry": { "type": "LineString", "coordinates": [ [ -104.9319666, 38.7867431 ], [ -104.9318566, 38.7866386 ], [ -104.9316964, 38.7866562 ], [ -104.9314141, 38.786739 ], [ -104.9312343, 38.7867578 ], [ -104.9309527, 38.7867766 ], [ -104.9307274, 38.7867766 ], [ -104.9305906, 38.7867829 ], [ -104.930459, 38.7866997 ], [ -104.9302139, 38.7865871 ], [ -104.9299388, 38.7865717 ], [ -104.9296765, 38.7865049 ], [ -104.9294647, 38.7865021 ], [ -104.9291739, 38.7865607 ], [ -104.9290133, 38.7866548 ], [ -104.9288431, 38.7866968 ], [ -104.9286514, 38.7868017 ] ] } },
{ "type": "Feature", "properties": { "full_id": "w117082550", "osm_id": "117082550", "osm_type": "way", "segregated": null, "horses": null, "motorcar": null, "dirtbike:scale": null, "service": null, "mtb:type": null, "width": null, "motorcycle": null, "sac_scale": "mountain_hiking", "source_ref": null, "abandoned": null, "natural": null, "attribution": null, "horse": null, "tunnel": null, "layer": null, "SHAPE_len": null, "SHAPE_area": null, "oneway": null, "mtb:scale:imba": null, "fence_type": null, "barrier": null, "mtb:scale": null, "dog": null, "lit": null, "bicycle": "designated", "waterway": null, "level": null, "bridge": null, "boundary": null, "border_type": null, "admin_level": null, "tracktype": null, "smoothness": null, "ref:usfs": null, "operator": null, "4wd_only": null, "tiger:name_direction_prefix": null, "motor_vehicle:conditional": null, "maxspeed": null, "lanes": null, "lane_markings": null, "foot": "designated", "access": null, "ref": null, "motor_vehicle": null, "incline": null, "alt_name": null, "tiger:reviewed": null, "tiger:name_type": null, "tiger:name_base": null, "tiger:county": null, "tiger:cfcc": null, "surface": "dirt", "railway": null, "old_railway_operator": null, "name": null, "highway": "path" }, "geometry": { "type": "LineString", "coordinates": [ [ -104.9145966, 38.7865236 ], [ -104.914737, 38.786449 ], [ -104.914897, 38.786401 ], [ -104.9152179, 38.7862558 ] ] } },
{ "type": "Feature", "properties": { "full_id": "w117082548", "osm_id": "117082548", "osm_type": "way", "segregated": null, "horses": null, "motorcar": null, "dirtbike:scale": null, "service": null, "mtb:type": null, "width": null, "motorcycle": null, "sac_scale": "mountain_hiking", "source_ref": null, "abandoned": null, "natural": null, "attribution": null, "horse": null, "tunnel": null, "layer": null, "SHAPE_len": null, "SHAPE_area": null, "oneway": null, "mtb:scale:imba": null, "fence_type": null, "barrier": null, "mtb:scale": null, "dog": null, "lit": null, "bicycle": "no", "waterway": null, "level": null, "bridge": null, "boundary": null, "border_type": null, "admin_level": null, "tracktype": null, "smoothness": null, "ref:usfs": null, "operator": null, "4wd_only": null, "tiger:name_direction_prefix": null, "motor_vehicle:conditional": null, "maxspeed": null, "lanes": null, "lane_markings": null, "foot": "designated", "access": null, "ref": null, "motor_vehicle": null, "incline": null, "alt_name": null, "tiger:reviewed": null, "tiger:name_type": null, "tiger:name_base": null, "tiger:county": null, "tiger:cfcc": null, "surface": "dirt", "railway": null, "old_railway_operator": null, "name": "Seven Bridges Trail", "highway": "path" }, "geometry": { "type": "LineString", "coordinates": [ [ -104.9256495, 38.7869786 ], [ -104.9259826, 38.7870317 ], [ -104.9261811, 38.7870735 ], [ -104.9263189, 38.7870642 ], [ -104.9266397, 38.7869313 ], [ -104.9269321, 38.7868059 ], [ -104.9271628, 38.7867996 ], [ -104.9275168, 38.7868749 ], [ -104.9278414, 38.7868707 ], [ -104.9281476, 38.7868524 ], [ -104.9284878, 38.7868604 ], [ -104.9286514, 38.7868017 ], [ -104.9289652, 38.7868728 ], [ -104.9290671, 38.7868602 ], [ -104.92933, 38.7867682 ], [ -104.9294291, 38.7866997 ], [ -104.9297083, 38.7867361 ], [ -104.9299174, 38.7866951 ], [ -104.9301211, 38.7867784 ], [ -104.9304646, 38.7869604 ], [ -104.9307164, 38.7869712 ], [ -104.9308031, 38.7869794 ], [ -104.9309745, 38.7870172 ], [ -104.9311815, 38.7869642 ], [ -104.9314406, 38.7868809 ], [ -104.9315611, 38.7868082 ], [ -104.9317225, 38.7867787 ], [ -104.9319666, 38.7867431 ], [ -104.9322241, 38.7867515 ] ] } },
{ "type": "Feature", "properties": { "full_id": "w117082546", "osm_id": "117082546", "osm_type": "way", "segregated": null, "horses": null, "motorcar": null, "dirtbike:scale": null, "service": null, "mtb:type": null, "width": null, "motorcycle": null, "sac_scale": "mountain_hiking", "source_ref": null, "abandoned": null, "natural": null, "attribution": null, "horse": null, "tunnel": null, "layer": null, "SHAPE_len": null, "SHAPE_area": null, "oneway": null, "mtb:scale:imba": null, "fence_type": null, "barrier": null, "mtb:scale": null, "dog": null, "lit": null, "bicycle": "designated", "waterway": null, "level": null, "bridge": "yes", "boundary": null, "border_type": null, "admin_level": null, "tracktype": null, "smoothness": null, "ref:usfs": null, "operator": null, "4wd_only": null, "tiger:name_direction_prefix": null, "motor_vehicle:conditional": null, "maxspeed": null, "lanes": null, "lane_markings": null, "foot": "designated", "access": null, "ref": null, "motor_vehicle": null, "incline": null, "alt_name": null, "tiger:reviewed": null, "tiger:name_type": null, "tiger:name_base": null, "tiger:county": null, "tiger:cfcc": null, "surface": "dirt", "railway": null, "old_railway_operator": null, "name": "Seven Bridges Trail", "highway": "path" }, "geometry": { "type": "LineString", "coordinates": [ [ -104.9207684, 38.788307 ], [ -104.9208247, 38.7882213 ] ] } },
{ "type": "Feature", "properties": { "full_id": "w117082545", "osm_id": "117082545", "osm_type": "way", "segregated": null, "horses": null, "motorcar": null, "dirtbike:scale": null, "service": null, "mtb:type": null, "width": null, "motorcycle": null, "sac_scale": "mountain_hiking", "source_ref": null, "abandoned": null, "natural": null, "attribution": null, "horse": null, "tunnel": null, "layer": null, "SHAPE_len": null, "SHAPE_area": null, "oneway": null, "mtb:scale:imba": null, "fence_type": null, "barrier": null, "mtb:scale": null, "dog": null, "lit": null, "bicycle": "designated", "waterway": null, "level": null, "bridge": null, "boundary": null, "border_type": null, "admin_level": null, "tracktype": null, "smoothness": null, "ref:usfs": null, "operator": null, "4wd_only": null, "tiger:name_direction_prefix": null, "motor_vehicle:conditional": null, "maxspeed": null, "lanes": null, "lane_markings": null, "foot": "designated", "access": null, "ref": null, "motor_vehicle": null, "incline": null, "alt_name": null, "tiger:reviewed": null, "tiger:name_type": null, "tiger:name_base": null, "tiger:county": null, "tiger:cfcc": null, "surface": "dirt", "railway": null, "old_railway_operator": null, "name": "Seven Bridges Trail", "highway": "path" }, "geometry": { "type": "LineString", "coordinates": [ [ -104.9208247, 38.7882213 ], [ -104.9210017, 38.7880645 ], [ -104.9210929, 38.7879537 ], [ -104.9211519, 38.7878596 ], [ -104.9211895, 38.7877697 ], [ -104.9212297, 38.7877091 ] ] } },
{ "type": "Feature", "properties": { "full_id": "w117082554", "osm_id": "117082554", "osm_type": "way", "segregated": null, "horses": null, "motorcar": null, "dirtbike:scale": null, "service": null, "mtb:type": null, "width": null, "motorcycle": null, "sac_scale": "mountain_hiking", "source_ref": null, "abandoned": null, "natural": null, "attribution": null, "horse": null, "tunnel": null, "layer": null, "SHAPE_len": null, "SHAPE_area": null, "oneway": null, "mtb:scale:imba": null, "fence_type": null, "barrier": null, "mtb:scale": null, "dog": null, "lit": null, "bicycle": "designated", "waterway": null, "level": null, "bridge": "yes", "boundary": null, "border_type": null, "admin_level": null, "tracktype": null, "smoothness": null, "ref:usfs": null, "operator": null, "4wd_only": null, "tiger:name_direction_prefix": null, "motor_vehicle:conditional": null, "maxspeed": null, "lanes": null, "lane_markings": null, "foot": "designated", "access": null, "ref": null, "motor_vehicle": null, "incline": null, "alt_name": null, "tiger:reviewed": null, "tiger:name_type": null, "tiger:name_base": null, "tiger:county": null, "tiger:cfcc": null, "surface": "dirt", "railway": null, "old_railway_operator": null, "name": "Seven Bridges Trail", "highway": "path" }, "geometry": { "type": "LineString", "coordinates": [ [ -104.9166887, 38.7864484 ], [ -104.9167531, 38.7864128 ] ] } },
{ "type": "Feature", "properties": { "full_id": "w117082553", "osm_id": "117082553", "osm_type": "way", "segregated": null, "horses": null, "motorcar": null, "dirtbike:scale": null, "service": null, "mtb:type": null, "width": null, "motorcycle": null, "sac_scale": "mountain_hiking", "source_ref": null, "abandoned": null, "natural": null, "attribution": null, "horse": null, "tunnel": null, "layer": null, "SHAPE_len": null, "SHAPE_area": null, "oneway": null, "mtb:scale:imba": null, "fence_type": null, "barrier": null, "mtb:scale": null, "dog": "leashed", "lit": null, "bicycle": null, "waterway": null, "level": null, "bridge": null, "boundary": null, "border_type": null, "admin_level": null, "tracktype": null, "smoothness": null, "ref:usfs": null, "operator": null, "4wd_only": null, "tiger:name_direction_prefix": null, "motor_vehicle:conditional": null, "maxspeed": null, "lanes": null, "lane_markings": null, "foot": "yes", "access": null, "ref": null, "motor_vehicle": null, "incline": null, "alt_name": null, "tiger:reviewed": null, "tiger:name_type": null, "tiger:name_base": null, "tiger:county": null, "tiger:cfcc": null, "surface": "dirt", "railway": null, "old_railway_operator": null, "name": "Seven Bridges Trail", "highway": "path" }, "geometry": { "type": "LineString", "coordinates": [ [ -104.9167531, 38.7864128 ], [ -104.9168497, 38.7863752 ], [ -104.9171554, 38.7866031 ], [ -104.9174885, 38.7868154 ], [ -104.9177108, 38.7869633 ], [ -104.9178789, 38.7871001 ], [ -104.9180593, 38.7872177 ], [ -104.9181747, 38.7873502 ], [ -104.9184, 38.787684 ], [ -104.9186003, 38.7879356 ], [ -104.9187648, 38.7881397 ], [ -104.9189006, 38.7882538 ], [ -104.919033, 38.7884743 ], [ -104.9191322, 38.7885913 ], [ -104.9191644, 38.7887126 ], [ -104.9191598, 38.7887844 ] ] } },
{ "type": "Feature", "properties": { "full_id": "w1103972209", "osm_id": "1103972209", "osm_type": "way", "segregated": null, "horses": null, "motorcar": null, "dirtbike:scale": null, "service": null, "mtb:type": null, "width": null, "motorcycle": null, "sac_scale": null, "source_ref": null, "abandoned": null, "natural": null, "attribution": null, "horse": "no", "tunnel": null, "layer": null, "SHAPE_len": null, "SHAPE_area": null, "oneway": null, "mtb:scale:imba": null, "fence_type": null, "barrier": null, "mtb:scale": null, "dog": null, "lit": null, "bicycle": "no", "waterway": null, "level": null, "bridge": null, "boundary": null, "border_type": null, "admin_level": null, "tracktype": null, "smoothness": null, "ref:usfs": null, "operator": null, "4wd_only": null, "tiger:name_direction_prefix": null, "motor_vehicle:conditional": null, "maxspeed": null, "lanes": null, "lane_markings": null, "foot": "designated", "access": null, "ref": null, "motor_vehicle": "no", "incline": null, "alt_name": null, "tiger:reviewed": null, "tiger:name_type": null, "tiger:name_base": null, "tiger:county": null, "tiger:cfcc": null, "surface": "dirt", "railway": null, "old_railway_operator": null, "name": "622", "highway": "path" }, "geometry": { "type": "LineString", "coordinates": [ [ -104.9353933, 38.7861152 ], [ -104.9355765, 38.7860818 ], [ -104.9363151, 38.7861577 ], [ -104.9364815, 38.7861995 ], [ -104.9366595, 38.7862003 ], [ -104.9369055, 38.7861926 ], [ -104.9371011, 38.7862898 ], [ -104.9371531, 38.7863936 ], [ -104.9371858, 38.7864749 ], [ -104.9373493, 38.7865889 ] ] } },
{ "type": "Feature", "properties": { "full_id": "w117082552", "osm_id": "117082552", "osm_type": "way", "segregated": null, "horses": null, "motorcar": null, "dirtbike:scale": null, "service": null, "mtb:type": null, "width": null, "motorcycle": null, "sac_scale": "mountain_hiking", "source_ref": null, "abandoned": null, "natural": null, "attribution": null, "horse": null, "tunnel": null, "layer": null, "SHAPE_len": null, "SHAPE_area": null, "oneway": null, "mtb:scale:imba": null, "fence_type": null, "barrier": null, "mtb:scale": null, "dog": null, "lit": null, "bicycle": null, "waterway": null, "level": null, "bridge": null, "boundary": null, "border_type": null, "admin_level": null, "tracktype": null, "smoothness": null, "ref:usfs": null, "operator": null, "4wd_only": null, "tiger:name_direction_prefix": null, "motor_vehicle:conditional": null, "maxspeed": null, "lanes": null, "lane_markings": null, "foot": "designated", "access": null, "ref": null, "motor_vehicle": null, "incline": null, "alt_name": null, "tiger:reviewed": null, "tiger:name_type": null, "tiger:name_base": null, "tiger:county": null, "tiger:cfcc": null, "surface": "dirt", "railway": null, "old_railway_operator": null, "name": null, "highway": "path" }, "geometry": { "type": "LineString", "coordinates": [ [ -104.9151613, 38.786781 ], [ -104.9152564, 38.7867411 ], [ -104.9154181, 38.7866766 ], [ -104.9155595, 38.7866261 ], [ -104.9157526, 38.7865759 ], [ -104.91586, 38.786538 ] ] } },
{ "type": "Feature", "properties": { "full_id": "w1103972208", "osm_id": "1103972208", "osm_type": "way", "segregated": null, "horses": null, "motorcar": null, "dirtbike:scale": null, "service": null, "mtb:type": null, "width": null, "motorcycle": null, "sac_scale": null, "source_ref": null, "abandoned": null, "natural": null, "attribution": null, "horse": "no", "tunnel": null, "layer": null, "SHAPE_len": null, "SHAPE_area": null, "oneway": null, "mtb:scale:imba": null, "fence_type": null, "barrier": null, "mtb:scale": null, "dog": null, "lit": null, "bicycle": "no", "waterway": null, "level": null, "bridge": null, "boundary": null, "border_type": null, "admin_level": null, "tracktype": null, "smoothness": null, "ref:usfs": null, "operator": null, "4wd_only": null, "tiger:name_direction_prefix": null, "motor_vehicle:conditional": null, "maxspeed": null, "lanes": null, "lane_markings": null, "foot": "designated", "access": null, "ref": null, "motor_vehicle": "no", "incline": null, "alt_name": null, "tiger:reviewed": null, "tiger:name_type": null, "tiger:name_base": null, "tiger:county": null, "tiger:cfcc": null, "surface": "dirt", "railway": null, "old_railway_operator": null, "name": "622", "highway": "path" }, "geometry": { "type": "LineString", "coordinates": [ [ -104.9322241, 38.7867515 ], [ -104.9324751, 38.7866755 ], [ -104.9329412, 38.7866938 ], [ -104.933548, 38.786709 ], [ -104.9337819, 38.7866153 ], [ -104.9340158, 38.7865489 ], [ -104.9347818, 38.7862657 ], [ -104.9353933, 38.7861152 ] ] } },
{ "type": "Feature", "properties": { "full_id": "w117082551", "osm_id": "117082551", "osm_type": "way", "segregated": null, "horses": null, "motorcar": null, "dirtbike:scale": null, "service": null, "mtb:type": null, "width": null, "motorcycle": null, "sac_scale": "mountain_hiking", "source_ref": null, "abandoned": null, "natural": null, "attribution": null, "horse": null, "tunnel": null, "layer": null, "SHAPE_len": null, "SHAPE_area": null, "oneway": null, "mtb:scale:imba": "3", "fence_type": null, "barrier": null, "mtb:scale": null, "dog": null, "lit": null, "bicycle": "yes", "waterway": null, "level": null, "bridge": null, "boundary": null, "border_type": null, "admin_level": null, "tracktype": null, "smoothness": null, "ref:usfs": null, "operator": null, "4wd_only": null, "tiger:name_direction_prefix": null, "motor_vehicle:conditional": null, "maxspeed": null, "lanes": null, "lane_markings": null, "foot": "designated", "access": null, "ref": null, "motor_vehicle": null, "incline": null, "alt_name": null, "tiger:reviewed": null, "tiger:name_type": null, "tiger:name_base": null, "tiger:county": null, "tiger:cfcc": null, "surface": "dirt", "railway": null, "old_railway_operator": null, "name": null, "highway": "path" }, "geometry": { "type": "LineString", "coordinates": [ [ -104.9139034, 38.7867998 ], [ -104.9140314, 38.7868667 ], [ -104.9141493, 38.7868863 ], [ -104.9143176, 38.7868916 ], [ -104.9144691, 38.7868667 ], [ -104.9146173, 38.7868338 ], [ -104.9147432, 38.7868511 ], [ -104.914811, 38.7868642 ], [ -104.9148987, 38.7868589 ], [ -104.9149806, 38.7868542 ], [ -104.9151016, 38.7867784 ], [ -104.9151613, 38.786781 ] ] } },
{ "type": "Feature", "properties": { "full_id": "w117082652", "osm_id": "117082652", "osm_type": "way", "segregated": null, "horses": null, "motorcar": null, "dirtbike:scale": null, "service": null, "mtb:type": null, "width": null, "motorcycle": null, "sac_scale": "mountain_hiking", "source_ref": null, "abandoned": null, "natural": null, "attribution": null, "horse": null, "tunnel": null, "layer": null, "SHAPE_len": null, "SHAPE_area": null, "oneway": null, "mtb:scale:imba": "3", "fence_type": null, "barrier": null, "mtb:scale": "2", "dog": "leashed", "lit": null, "bicycle": "yes", "waterway": null, "level": null, "bridge": null, "boundary": null, "border_type": null, "admin_level": null, "tracktype": null, "smoothness": null, "ref:usfs": null, "operator": null, "4wd_only": null, "tiger:name_direction_prefix": null, "motor_vehicle:conditional": null, "maxspeed": null, "lanes": null, "lane_markings": null, "foot": "yes", "access": null, "ref": null, "motor_vehicle": null, "incline": null, "alt_name": null, "tiger:reviewed": null, "tiger:name_type": null, "tiger:name_base": null, "tiger:county": null, "tiger:cfcc": null, "surface": "ground", "railway": null, "old_railway_operator": null, "name": "Buckhorn Trail", "highway": "path" }, "geometry": { "type": "LineString", "coordinates": [ [ -104.9151613, 38.786781 ], [ -104.9151072, 38.7868273 ], [ -104.915092, 38.7868509 ], [ -104.9150499, 38.7868745 ], [ -104.9148176, 38.7869415 ], [ -104.914656, 38.7869559 ], [ -104.9145853, 38.7869729 ], [ -104.9143847, 38.787063 ], [ -104.9141165, 38.7871738 ], [ -104.9139502, 38.7871968 ], [ -104.9138641, 38.7871879 ], [ -104.9137654, 38.7871623 ], [ -104.9136768, 38.7871662 ], [ -104.9136237, 38.7871938 ], [ -104.9135326, 38.787251 ], [ -104.9134466, 38.7873497 ], [ -104.913374, 38.787462 ] ] } },
{ "type": "Feature", "properties": { "full_id": "w117082555", "osm_id": "117082555", "osm_type": "way", "segregated": null, "horses": null, "motorcar": null, "dirtbike:scale": null, "service": null, "mtb:type": null, "width": "3", "motorcycle": "yes", "sac_scale": null, "source_ref": null, "abandoned": null, "natural": null, "attribution": null, "horse": null, "tunnel": null, "layer": null, "SHAPE_len": null, "SHAPE_area": null, "oneway": null, "mtb:scale:imba": null, "fence_type": null, "barrier": null, "mtb:scale": null, "dog": "leashed", "lit": null, "bicycle": null, "waterway": null, "level": null, "bridge": null, "boundary": null, "border_type": null, "admin_level": null, "tracktype": null, "smoothness": null, "ref:usfs": null, "operator": null, "4wd_only": null, "tiger:name_direction_prefix": null, "motor_vehicle:conditional": null, "maxspeed": null, "lanes": null, "lane_markings": null, "foot": "yes", "access": null, "ref": "FS 370", "motor_vehicle": "forestry", "incline": null, "alt_name": "Forest Road 370", "tiger:reviewed": null, "tiger:name_type": "Rd", "tiger:name_base": "Gold Camp", "tiger:county": "El Paso, CO", "tiger:cfcc": "A41", "surface": "dirt", "railway": "abandoned", "old_railway_operator": "CS&CCD", "name": "Gold Camp Road", "highway": "unclassified" }, "geometry": { "type": "LineString", "coordinates": [ [ -104.9042856, 38.790932 ], [ -104.9043095, 38.790958 ], [ -104.9043625, 38.7909985 ], [ -104.9044257, 38.7910437 ], [ -104.9045786, 38.7911127 ], [ -104.9047422, 38.7911733 ], [ -104.904879, 38.7912025 ], [ -104.9051445, 38.7911984 ], [ -104.9056058, 38.7911628 ], [ -104.9059572, 38.7911273 ], [ -104.9065151, 38.7910332 ], [ -104.9075451, 38.7908221 ], [ -104.9078374, 38.7907301 ], [ -104.9080922, 38.7905775 ], [ -104.9084141, 38.79036 ], [ -104.9089345, 38.7899252 ], [ -104.9091383, 38.7897266 ], [ -104.909377, 38.789482 ], [ -104.9095621, 38.7892896 ], [ -104.9097445, 38.7890994 ], [ -104.909943, 38.7889551 ], [ -104.9102917, 38.7887879 ], [ -104.9107348, 38.7885677 ], [ -104.9110883, 38.7883635 ], [ -104.9114531, 38.7881878 ], [ -104.9116971, 38.7880415 ], [ -104.912019, 38.7878638 ], [ -104.912298, 38.7876777 ], [ -104.9125367, 38.7875021 ], [ -104.912711, 38.7873662 ], [ -104.9129095, 38.7871383 ], [ -104.9130356, 38.7870108 ], [ -104.9131455, 38.7869125 ], [ -104.9132689, 38.7868519 ], [ -104.913395, 38.7868121 ], [ -104.9135264, 38.7867954 ], [ -104.9137598, 38.7868059 ], [ -104.9139034, 38.7867998 ], [ -104.9140575, 38.7867933 ], [ -104.9142747, 38.7867578 ], [ -104.9144518, 38.7866972 ], [ -104.9145821, 38.7866244 ], [ -104.9145966, 38.7865236 ], [ -104.9145993, 38.7864337 ], [ -104.9145349, 38.7863375 ], [ -104.9144464, 38.786256 ], [ -104.9139816, 38.7860937 ], [ -104.9136731, 38.7860567 ], [ -104.9125343, 38.7856344 ], [ -104.9120032, 38.7857438 ], [ -104.9109881, 38.7859395 ], [ -104.910561, 38.786197 ], [ -104.9100826, 38.7864296 ], [ -104.9093607, 38.7865617 ], [ -104.908667, 38.786744 ], [ -104.9079392, 38.7869091 ], [ -104.9076573, 38.7868565 ], [ -104.907344, 38.7866853 ] ] } },
{ "type": "Feature", "properties": { "full_id": "w1103972210", "osm_id": "1103972210", "osm_type": "way", "segregated": null, "horses": null, "motorcar": null, "dirtbike:scale": null, "service": null, "mtb:type": null, "width": null, "motorcycle": null, "sac_scale": null, "source_ref": null, "abandoned": null, "natural": null, "attribution": null, "horse": null, "tunnel": null, "layer": null, "SHAPE_len": null, "SHAPE_area": null, "oneway": null, "mtb:scale:imba": null, "fence_type": null, "barrier": null, "mtb:scale": null, "dog": null, "lit": null, "bicycle": "no", "waterway": null, "level": null, "bridge": null, "boundary": null, "border_type": null, "admin_level": null, "tracktype": null, "smoothness": null, "ref:usfs": null, "operator": null, "4wd_only": null, "tiger:name_direction_prefix": null, "motor_vehicle:conditional": null, "maxspeed": null, "lanes": null, "lane_markings": null, "foot": "yes", "access": null, "ref": null, "motor_vehicle": "no", "incline": null, "alt_name": null, "tiger:reviewed": null, "tiger:name_type": null, "tiger:name_base": null, "tiger:county": null, "tiger:cfcc": null, "surface": "dirt", "railway": null, "old_railway_operator": null, "name": "622", "highway": "path" }, "geometry": { "type": "LineString", "coordinates": [ [ -104.9373493, 38.7865889 ], [ -104.937501, 38.7866345 ], [ -104.9375545, 38.7866506 ], [ -104.9376798, 38.78693 ], [ -104.9378603, 38.7873321 ], [ -104.9378623, 38.7874535 ], [ -104.9379541, 38.7875943 ], [ -104.9380575, 38.7876598 ], [ -104.9382774, 38.787742 ], [ -104.9385146, 38.7877042 ], [ -104.9389532, 38.7877793 ], [ -104.9391264, 38.7878023 ], [ -104.9391162, 38.7879216 ], [ -104.9389231, 38.7883314 ], [ -104.9386451, 38.7886598 ], [ -104.9386261, 38.7888162 ], [ -104.9383419, 38.7893706 ], [ -104.9382144, 38.7898096 ], [ -104.9381103, 38.789966 ] ] } },
{ "type": "Feature", "properties": { "full_id": "w1274726684", "osm_id": "1274726684", "osm_type": "way", "segregated": null, "horses": null, "motorcar": null, "dirtbike:scale": null, "service": null, "mtb:type": null, "width": null, "motorcycle": null, "sac_scale": "mountain_hiking", "source_ref": null, "abandoned": null, "natural": null, "attribution": null, "horse": null, "tunnel": null, "layer": "1", "SHAPE_len": null, "SHAPE_area": null, "oneway": null, "mtb:scale:imba": null, "fence_type": null, "barrier": null, "mtb:scale": null, "dog": null, "lit": null, "bicycle": "no", "waterway": null, "level": null, "bridge": "yes", "boundary": null, "border_type": null, "admin_level": null, "tracktype": null, "smoothness": null, "ref:usfs": null, "operator": null, "4wd_only": null, "tiger:name_direction_prefix": null, "motor_vehicle:conditional": null, "maxspeed": null, "lanes": null, "lane_markings": null, "foot": "designated", "access": null, "ref": null, "motor_vehicle": null, "incline": null, "alt_name": null, "tiger:reviewed": null, "tiger:name_type": null, "tiger:name_base": null, "tiger:county": null, "tiger:cfcc": null, "surface": "dirt", "railway": null, "old_railway_operator": null, "name": "Seven Bridges Trail", "highway": "path" }, "geometry": { "type": "LineString", "coordinates": [ [ -104.9243613, 38.7867869 ], [ -104.9244024, 38.7867872 ] ] } },
{ "type": "Feature", "properties": { "full_id": "w1274726683", "osm_id": "1274726683", "osm_type": "way", "segregated": null, "horses": null, "motorcar": null, "dirtbike:scale": null, "service": null, "mtb:type": null, "width": null, "motorcycle": null, "sac_scale": "mountain_hiking", "source_ref": null, "abandoned": null, "natural": null, "attribution": null, "horse": null, "tunnel": null, "layer": null, "SHAPE_len": null, "SHAPE_area": null, "oneway": null, "mtb:scale:imba": null, "fence_type": null, "barrier": null, "mtb:scale": null, "dog": null, "lit": null, "bicycle": "no", "waterway": null, "level": null, "bridge": null, "boundary": null, "border_type": null, "admin_level": null, "tracktype": null, "smoothness": null, "ref:usfs": null, "operator": null, "4wd_only": null, "tiger:name_direction_prefix": null, "motor_vehicle:conditional": null, "maxspeed": null, "lanes": null, "lane_markings": null, "foot": "designated", "access": null, "ref": null, "motor_vehicle": null, "incline": null, "alt_name": null, "tiger:reviewed": null, "tiger:name_type": null, "tiger:name_base": null, "tiger:county": null, "tiger:cfcc": null, "surface": "dirt", "railway": null, "old_railway_operator": null, "name": "Seven Bridges Trail", "highway": "path" }, "geometry": { "type": "LineString", "coordinates": [ [ -104.9213182, 38.7876672 ], [ -104.9214268, 38.7875205 ], [ -104.9215814, 38.7873507 ], [ -104.9219083, 38.7870965 ], [ -104.9220898, 38.7869309 ], [ -104.9225857, 38.7866812 ], [ -104.9227437, 38.7866439 ], [ -104.9229597, 38.7866476 ], [ -104.9231582, 38.7867013 ], [ -104.9234372, 38.7867369 ], [ -104.9236947, 38.7867055 ], [ -104.9238851, 38.7867264 ], [ -104.9243613, 38.7867869 ] ] } },
{ "type": "Feature", "properties": { "full_id": "w1479454417", "osm_id": "1479454417", "osm_type": "way", "segregated": null, "horses": null, "motorcar": null, "dirtbike:scale": null, "service": null, "mtb:type": null, "width": null, "motorcycle": null, "sac_scale": null, "source_ref": null, "abandoned": null, "natural": null, "attribution": null, "horse": null, "tunnel": null, "layer": null, "SHAPE_len": null, "SHAPE_area": null, "oneway": null, "mtb:scale:imba": null, "fence_type": null, "barrier": null, "mtb:scale": null, "dog": null, "lit": null, "bicycle": null, "waterway": null, "level": null, "bridge": null, "boundary": null, "border_type": null, "admin_level": null, "tracktype": null, "smoothness": null, "ref:usfs": null, "operator": null, "4wd_only": null, "tiger:name_direction_prefix": null, "motor_vehicle:conditional": null, "maxspeed": null, "lanes": null, "lane_markings": null, "foot": null, "access": null, "ref": null, "motor_vehicle": null, "incline": null, "alt_name": null, "tiger:reviewed": null, "tiger:name_type": null, "tiger:name_base": null, "tiger:county": null, "tiger:cfcc": null, "surface": null, "railway": null, "old_railway_operator": null, "name": null, "highway": "footway" }, "geometry": { "type": "LineString", "coordinates": [ [ -104.9380656, 38.7899927 ], [ -104.9378222, 38.789812 ], [ -104.9371438, 38.7896448 ], [ -104.93702, 38.7894935 ], [ -104.9366993, 38.7894388 ], [ -104.9364459, 38.7892406 ], [ -104.9350422, 38.7889306 ], [ -104.9347127, 38.7889861 ], [ -104.9344505, 38.7891076 ], [ -104.9343399, 38.7892364 ], [ -104.9342819, 38.7893834 ], [ -104.9341415, 38.7899578 ], [ -104.933618, 38.7900353 ], [ -104.9331876, 38.7900118 ], [ -104.9324181, 38.7902344 ], [ -104.9319112, 38.7903256 ], [ -104.9315018, 38.79028 ], [ -104.9311665, 38.7903772 ], [ -104.9310417, 38.790438 ] ] } },
{ "type": "Feature", "properties": { "full_id": "w1274726686", "osm_id": "1274726686", "osm_type": "way", "segregated": null, "horses": null, "motorcar": null, "dirtbike:scale": null, "service": null, "mtb:type": null, "width": null, "motorcycle": null, "sac_scale": "mountain_hiking", "source_ref": null, "abandoned": null, "natural": null, "attribution": null, "horse": null, "tunnel": null, "layer": "1", "SHAPE_len": null, "SHAPE_area": null, "oneway": null, "mtb:scale:imba": null, "fence_type": null, "barrier": null, "mtb:scale": null, "dog": null, "lit": null, "bicycle": "no", "waterway": null, "level": null, "bridge": "yes", "boundary": null, "border_type": null, "admin_level": null, "tracktype": null, "smoothness": null, "ref:usfs": null, "operator": null, "4wd_only": null, "tiger:name_direction_prefix": null, "motor_vehicle:conditional": null, "maxspeed": null, "lanes": null, "lane_markings": null, "foot": "designated", "access": null, "ref": null, "motor_vehicle": null, "incline": null, "alt_name": null, "tiger:reviewed": null, "tiger:name_type": null, "tiger:name_base": null, "tiger:county": null, "tiger:cfcc": null, "surface": "dirt", "railway": null, "old_railway_operator": null, "name": "Seven Bridges Trail", "highway": "path" }, "geometry": { "type": "LineString", "coordinates": [ [ -104.9256138, 38.7869595 ], [ -104.9256495, 38.7869786 ] ] } },
{ "type": "Feature", "properties": { "full_id": "w1274726685", "osm_id": "1274726685", "osm_type": "way", "segregated": null, "horses": null, "motorcar": null, "dirtbike:scale": null, "service": null, "mtb:type": null, "width": null, "motorcycle": null, "sac_scale": "mountain_hiking", "source_ref": null, "abandoned": null, "natural": null, "attribution": null, "horse": null, "tunnel": null, "layer": null, "SHAPE_len": null, "SHAPE_area": null, "oneway": null, "mtb:scale:imba": null, "fence_type": null, "barrier": null, "mtb:scale": null, "dog": null, "lit": null, "bicycle": "no", "waterway": null, "level": null, "bridge": null, "boundary": null, "border_type": null, "admin_level": null, "tracktype": null, "smoothness": null, "ref:usfs": null, "operator": null, "4wd_only": null, "tiger:name_direction_prefix": null, "motor_vehicle:conditional": null, "maxspeed": null, "lanes": null, "lane_markings": null, "foot": "designated", "access": null, "ref": null, "motor_vehicle": null, "incline": null, "alt_name": null, "tiger:reviewed": null, "tiger:name_type": null, "tiger:name_base": null, "tiger:county": null, "tiger:cfcc": null, "surface": "dirt", "railway": null, "old_railway_operator": null, "name": "Seven Bridges Trail", "highway": "path" }, "geometry": { "type": "LineString", "coordinates": [ [ -104.9244024, 38.7867872 ], [ -104.9245113, 38.78678 ], [ -104.9246851, 38.7867075 ], [ -104.9249043, 38.7868205 ], [ -104.9251028, 38.7869125 ], [ -104.9253228, 38.7869418 ], [ -104.9256138, 38.7869595 ] ] } }
]
}
