{
"type": "FeatureCollection",
"name": "gogAreaOI",
"crs": { "type": "name", "properties": { "name": "urn:ogc:def:crs:OGC:1.3:CRS84" } },
"features": [
{ "type": "Feature", "properties": { "id": null, "name": "Garden of the Gods Parking", "type": "parking", "fid": 0, "auxiliary_storage_labeling_positionx": null, "auxiliary_storage_labeling_positiony": null }, "geometry": { "type": "MultiPolygon", "coordinates": [ [ [ [ -104.871186869983248, 38.876564618404124 ], [ -104.871190692844138, 38.876582474983671 ], [ -104.870869572528477, 38.876630092507199 ], [ -104.870292320532442, 38.876665805628917 ], [ -104.870112646070098, 38.876633068601379 ], [ -104.869959731634054, 38.87634141078118 ], [ -104.869867982972437, 38.876019990572537 ], [ -104.869836024878751, 38.875637472318033 ], [ -104.870299966254237, 38.875579523481143 ], [ -104.871056892712602, 38.875561666649602 ], [ -104.871102767043425, 38.876118202457178 ], [ -104.871186869983248, 38.876564618404124 ] ] ] ] } },
{ "type": "Feature", "properties": { "id": null, "name": "visitor center", "type": "parking", "fid": 1, "auxiliary_storage_labeling_positionx": -104.86933257277904, "auxiliary_storage_labeling_positiony": 38.877717003342973 }, "geometry": { "type": "MultiPolygon", "coordinates": [ [ [ [ -104.871010810413736, 38.879730610176274 ], [ -104.870866069369981, 38.879784936022943 ], [ -104.870788529525129, 38.879801032562128 ], [ -104.870228304146025, 38.878908172145977 ], [ -104.870065470471786, 38.878622957468515 ], [ -104.870065470471786, 38.878526376577561 ], [ -104.870005284018987, 38.87842976816475 ], [ -104.86991281268115, 38.878233003313134 ], [ -104.869804929453693, 38.878101026596937 ], [ -104.869700128604151, 38.878012242099381 ], [ -104.86958608062082, 38.877935455429494 ], [ -104.869524433062296, 38.877750687165047 ], [ -104.869484362149223, 38.877589914388238 ], [ -104.869472032637518, 38.877465135265979 ], [ -104.869647728179373, 38.877385948401681 ], [ -104.86974019951721, 38.877388348004928 ], [ -104.869808011831608, 38.877431540849479 ], [ -104.869894318413571, 38.877505928464672 ], [ -104.869931306948729, 38.877606711561036 ], [ -104.870045354932046, 38.877690697365495 ], [ -104.870113167246444, 38.877755486346828 ], [ -104.870168650049138, 38.877899461649427 ], [ -104.870214885718042, 38.877988246273958 ], [ -104.870205638584267, 38.878122622791992 ], [ -104.870341263213078, 38.878259398622284 ], [ -104.870435077065636, 38.878373456565086 ], [ -104.870590156755355, 38.878618933267362 ], [ -104.87066511193872, 38.878723562423701 ], [ -104.870768498398533, 38.878882517962566 ], [ -104.870869300196858, 38.878958977462204 ], [ -104.870957178687661, 38.879011291809299 ], [ -104.871145212811498, 38.879328195203961 ], [ -104.871212414010387, 38.879450932012034 ], [ -104.871230506640828, 38.879521354675084 ], [ -104.871227921979326, 38.879557572017461 ], [ -104.871173473660406, 38.879639775215125 ], [ -104.871076439084177, 38.879704674152968 ], [ -104.871010810413736, 38.879730610176274 ] ] ] ] } },
{ "type": "Feature", "properties": { "id": 2, "name": null, "type": "parking", "fid": 2, "auxiliary_storage_labeling_positionx": null, "auxiliary_storage_labeling_positiony": null }, "geometry": { "type": "MultiPolygon", "coordinates": [ [ [ [ -104.880829472873344, 38.881496223868304 ], [ -104.88069310304688, 38.88151480125925 ], [ -104.880376043200314, 38.881469684729936 ], [ -104.879885111825018, 38.881392721172645 ], [ -104.879830563894416, 38.881355566322014 ], [ -104.879803289929129, 38.881318411451957 ], [ -104.879796471437785, 38.88118040747888 ], [ -104.879823745403087, 38.880957477417688 ], [ -104.879851019368374, 38.880912360534509 ], [ -104.8799498874926, 38.880912360534509 ], [ -104.880188534688912, 38.880936245946792 ], [ -104.880802198908071, 38.881002594272246 ], [ -104.880843109856002, 38.881029133585066 ], [ -104.880935159488871, 38.881175099628415 ], [ -104.880880611558283, 38.881456415157004 ], [ -104.880829472873344, 38.881496223868304 ] ] ] ] } },
{ "type": "Feature", "properties": { "id": 9, "name": null, "type": "parking", "fid": 3, "auxiliary_storage_labeling_positionx": null, "auxiliary_storage_labeling_positiony": null }, "geometry": { "type": "MultiPolygon", "coordinates": [ [ [ [ -104.87865257502024, 38.865511201279546 ], [ -104.878691813137621, 38.865414308925317 ], [ -104.878757957392622, 38.865435258634733 ], [ -104.878847644518061, 38.865453589625382 ], [ -104.878935089465372, 38.865475412227156 ], [ -104.87902197386812, 38.865495489014862 ], [ -104.879127356240488, 38.865522549024114 ], [ -104.879236101880082, 38.865533896766848 ], [ -104.879259644750505, 38.865540007089123 ], [ -104.879236385824399, 38.865877561569462 ], [ -104.879232009773261, 38.865906228141171 ], [ -104.879219522446988, 38.865919455335657 ], [ -104.879199399078374, 38.865919455335657 ], [ -104.87865257502024, 38.865511201279546 ] ] ] ] } },
{ "type": "Feature", "properties": { "id": 10, "name": null, "type": "parking", "fid": 4, "auxiliary_storage_labeling_positionx": null, "auxiliary_storage_labeling_positiony": null }, "geometry": { "type": "MultiPolygon", "coordinates": [ [ [ [ -104.878116648067319, 38.869395147755192 ], [ -104.87812843656738, 38.869404326022405 ], [ -104.878322500287837, 38.86992309494255 ], [ -104.878316606037814, 38.869941451351387 ], [ -104.878103923469212, 38.869993817019633 ], [ -104.878083293594074, 38.869986933371294 ], [ -104.877871245103535, 38.86947015860126 ], [ -104.878116648067319, 38.869395147755192 ] ] ] ] } },
{ "type": "Feature", "properties": { "id": 8, "name": null, "type": "parking", "fid": 5, "auxiliary_storage_labeling_positionx": null, "auxiliary_storage_labeling_positiony": null }, "geometry": { "type": "MultiPolygon", "coordinates": [ [ [ [ -104.880152818446732, 38.869541906101624 ], [ -104.880146154420856, 38.869553667108569 ], [ -104.880132973227006, 38.869557844757331 ], [ -104.879828610242541, 38.869401974812746 ], [ -104.879834609469157, 38.869386405250367 ], [ -104.879844608180136, 38.869377841989596 ], [ -104.879867605215438, 38.869379398946187 ], [ -104.879897548952869, 38.869379336971221 ], [ -104.880049389638572, 38.869394114459013 ], [ -104.880108978168536, 38.869425461974096 ], [ -104.880136820509136, 38.869499089881145 ], [ -104.880152818446732, 38.869541906101624 ] ] ] ] } },
{ "type": "Feature", "properties": { "id": null, "name": "kissing camels", "type": "red rock", "fid": 6, "auxiliary_storage_labeling_positionx": null, "auxiliary_storage_labeling_positiony": null }, "geometry": { "type": "MultiPolygon", "coordinates": [ [ [ [ -104.881138221678924, 38.872720821092187 ], [ -104.88114827718087, 38.872903213356366 ], [ -104.881219083960843, 38.873485095617127 ], [ -104.881297758160827, 38.873938347972285 ], [ -104.881407902040763, 38.874183348041861 ], [ -104.881376432360796, 38.874471222044434 ], [ -104.881258421060849, 38.87461822108537 ], [ -104.881171879440856, 38.874752969939152 ], [ -104.881093205240916, 38.874795844520875 ], [ -104.881022398460956, 38.874795844520875 ], [ -104.880857182641009, 38.874697845438952 ], [ -104.880849315221027, 38.874918343183253 ], [ -104.880747038761072, 38.874942842890398 ], [ -104.88070770166108, 38.874765219822287 ], [ -104.880754906181068, 38.874661095748394 ], [ -104.88069196682109, 38.874544721602902 ], [ -104.880495281321174, 38.874465097077795 ], [ -104.880377270021199, 38.874514096796105 ], [ -104.88027330021653, 38.874376188711047 ], [ -104.880189210629894, 38.874076916064396 ], [ -104.880321351408881, 38.873945983885221 ], [ -104.880405440995503, 38.873861813071237 ], [ -104.880297325812705, 38.87369347114425 ], [ -104.880141159437542, 38.873300671763971 ], [ -104.880105121043258, 38.872963984853058 ], [ -104.880105121043258, 38.872589886414843 ], [ -104.880153172235637, 38.872384131434551 ], [ -104.880417453793598, 38.872318663815882 ], [ -104.880549594572571, 38.872140965689916 ], [ -104.880609658563017, 38.871963267119682 ], [ -104.880861927322869, 38.871944561981167 ], [ -104.881054132092331, 38.872243843606469 ], [ -104.881138221678924, 38.872720821092187 ] ] ] ] } },
{ "type": "Feature", "properties": { "id": null, "name": null, "type": "red rock", "fid": 7, "auxiliary_storage_labeling_positionx": null, "auxiliary_storage_labeling_positiony": null }, "geometry": { "type": "MultiPolygon", "coordinates": [ [ [ [ -104.877463847071439, 38.864193513574378 ], [ -104.877573034292681, 38.86417741659411 ], [ -104.877605909461721, 38.864215813249835 ], [ -104.87764974302047, 38.864241411008813 ], [ -104.877701795371479, 38.864241411008813 ], [ -104.877726451748288, 38.864288340209669 ], [ -104.877756587319908, 38.864331003092637 ], [ -104.877773024904471, 38.864394997369111 ], [ -104.877740149735402, 38.864454725308512 ], [ -104.877737410137982, 38.864548583397628 ], [ -104.877688097384393, 38.864648840765042 ], [ -104.877644263825644, 38.86476402990629 ], [ -104.877592211474607, 38.864866420097378 ], [ -104.877551117513292, 38.864938946393487 ], [ -104.877490846370023, 38.86497307638961 ], [ -104.877416877239639, 38.864985875133918 ], [ -104.877386741668005, 38.864981608886104 ], [ -104.877386741668005, 38.864936813268208 ], [ -104.877427835629319, 38.86486215384236 ], [ -104.877452492006128, 38.864776828688235 ], [ -104.877460710798388, 38.864687237166201 ], [ -104.87744427321384, 38.864636041960068 ], [ -104.877447012811274, 38.864551791212364 ], [ -104.877475069911526, 38.86449062198735 ], [ -104.877435789971202, 38.864438191181165 ], [ -104.87740773287095, 38.864337698694548 ], [ -104.877463847071439, 38.864193513574378 ] ] ] ] } },
{ "type": "Feature", "properties": { "id": null, "name": null, "type": "light rock", "fid": 8, "auxiliary_storage_labeling_positionx": null, "auxiliary_storage_labeling_positiony": null }, "geometry": { "type": "MultiPolygon", "coordinates": [ [ [ [ -104.879482357692197, 38.872978626199632 ], [ -104.87955214387668, 38.87348118877587 ], [ -104.879583864869602, 38.873708390346621 ], [ -104.879666339451248, 38.873984982582897 ], [ -104.879742469834312, 38.874059069606297 ], [ -104.879799567621603, 38.874271451978608 ], [ -104.879932795791973, 38.874676458464421 ], [ -104.879970860983477, 38.874839448228123 ], [ -104.879843977011731, 38.874953046933321 ], [ -104.879742469834312, 38.875145670409751 ], [ -104.879698060444184, 38.875155548522649 ], [ -104.879647306855489, 38.875007376684671 ], [ -104.879590209068184, 38.875002437618065 ], [ -104.87955214387668, 38.874878960841841 ], [ -104.879482357692197, 38.874671519374843 ], [ -104.879406227309147, 38.874539398601058 ], [ -104.879253966543018, 38.874203539079744 ], [ -104.879076328982549, 38.873986217367261 ], [ -104.878974821805144, 38.873734320914508 ], [ -104.878866970429144, 38.87340833594449 ], [ -104.878892347223498, 38.872983565406876 ], [ -104.878987510202307, 38.872909477262411 ], [ -104.879057296386776, 38.872860085123165 ], [ -104.879120738372677, 38.872860085123165 ], [ -104.879171491961387, 38.872874902768544 ], [ -104.879266654940196, 38.872825510605303 ], [ -104.879361817919019, 38.872845267474723 ], [ -104.879418915706324, 38.872894659624222 ], [ -104.879482357692197, 38.872978626199632 ] ] ] ] } },
{ "type": "Feature", "properties": { "id": 15, "name": null, "type": "parking", "fid": 9, "auxiliary_storage_labeling_positionx": null, "auxiliary_storage_labeling_positiony": null }, "geometry": { "type": "MultiPolygon", "coordinates": [ [ [ [ -104.89693152389799, 38.865466367153914 ], [ -104.897069994213624, 38.865367964539935 ], [ -104.897125496073187, 38.865342035534759 ], [ -104.89724829393748, 38.865282074674042 ], [ -104.897317671261945, 38.865208609046 ], [ -104.897321809555862, 38.86513987453192 ], [ -104.89732357326271, 38.865080824053791 ], [ -104.897296905638385, 38.864968700770248 ], [ -104.897242743751548, 38.864938514172728 ], [ -104.897235103775031, 38.86500741615118 ], [ -104.897203892449852, 38.865007658557985 ], [ -104.897148390590274, 38.864990372467979 ], [ -104.897101214009609, 38.864942835698749 ], [ -104.897073463079849, 38.864875852015466 ], [ -104.897065137800894, 38.864789421363142 ], [ -104.897062362707942, 38.864700829835428 ], [ -104.897073463079849, 38.864636006696436 ], [ -104.89710398910259, 38.864603595104789 ], [ -104.897151165683255, 38.864573344272586 ], [ -104.897165041148142, 38.864603595104789 ], [ -104.897170591334103, 38.864681382899924 ], [ -104.897173366427097, 38.864759170609972 ], [ -104.897190016984965, 38.864854244362249 ], [ -104.897214992821745, 38.86491906730221 ], [ -104.897354611843909, 38.864986042089235 ], [ -104.897411933436572, 38.864996668785061 ], [ -104.89743922943309, 38.865064679600735 ], [ -104.897450147831677, 38.865153943697585 ], [ -104.897450147831677, 38.865226205027227 ], [ -104.897409203836929, 38.865300591613355 ], [ -104.897308208649832, 38.865377103449362 ], [ -104.897138973471471, 38.865436612598209 ], [ -104.897027059885772, 38.865481244427137 ], [ -104.896980656691696, 38.865481244427137 ], [ -104.896947901495878, 38.865474868453298 ], [ -104.89693152389799, 38.865466367153914 ] ] ] ] } },
{ "type": "Feature", "properties": { "id": 16, "name": null, "type": "parking", "fid": 10, "auxiliary_storage_labeling_positionx": null, "auxiliary_storage_labeling_positiony": null }, "geometry": { "type": "MultiPolygon", "coordinates": [ [ [ [ -104.890308910797529, 38.865271521992774 ], [ -104.890317532544074, 38.865284427909899 ], [ -104.89041254797273, 38.865331152891102 ], [ -104.89046255609307, 38.865383718458311 ], [ -104.890480058935225, 38.865424602761436 ], [ -104.890442552844959, 38.865469380780787 ], [ -104.890347537416289, 38.865531680586855 ], [ -104.890232518739467, 38.865603714669575 ], [ -104.890177509807089, 38.865634864520587 ], [ -104.890152505746912, 38.865621236462466 ], [ -104.890094996408493, 38.865660173764475 ], [ -104.889969976107608, 38.865825657060178 ], [ -104.889874960678938, 38.865919106280536 ], [ -104.889792447280342, 38.865973618268988 ], [ -104.88970993388179, 38.865956096562961 ], [ -104.889654924949369, 38.865934681138647 ], [ -104.889595151581958, 38.865905488595921 ], [ -104.889577412362854, 38.865891850270614 ], [ -104.889652761410574, 38.865748492513859 ], [ -104.889781074210688, 38.865599651752269 ], [ -104.889859958242852, 38.865508318165965 ], [ -104.889934970423369, 38.865414868405679 ], [ -104.890047488694165, 38.865305843530066 ], [ -104.890140003716795, 38.86523380914555 ], [ -104.890235019145493, 38.865251331029611 ], [ -104.890295028889909, 38.86525717165663 ], [ -104.890308910797529, 38.865271521992774 ] ] ] ] } },
{ "type": "Feature", "properties": { "id": null, "name": "trading post", "type": "building", "fid": 11, "auxiliary_storage_labeling_positionx": -104.89161295645587, "auxiliary_storage_labeling_positiony": 38.863683042604912 }, "geometry": { "type": "MultiPolygon", "coordinates": [ [ [ [ -104.892915939751248, 38.863947458901698 ], [ -104.892468608030526, 38.864224854577067 ], [ -104.892377534506565, 38.864251968382007 ], [ -104.892318604579273, 38.8642081691535 ], [ -104.892171279761058, 38.86408094267005 ], [ -104.892106992567676, 38.863970401442224 ], [ -104.89210431393461, 38.863932859099322 ], [ -104.892747185868615, 38.863555348882841 ], [ -104.892881117521497, 38.863682576306815 ], [ -104.892838259392562, 38.863705518932775 ], [ -104.892923975650447, 38.863793117982119 ], [ -104.89285165255788, 38.863845260222178 ], [ -104.892915939751248, 38.863947458901698 ] ] ] ] } },
{ "type": "Feature", "properties": { "id": 14, "name": null, "type": "parking", "fid": 12, "auxiliary_storage_labeling_positionx": null, "auxiliary_storage_labeling_positiony": null }, "geometry": { "type": "MultiPolygon", "coordinates": [ [ [ [ -104.890649679783166, 38.868029412745678 ], [ -104.890634634961856, 38.868086029418237 ], [ -104.890569440736044, 38.868162169010205 ], [ -104.890479171808039, 38.868210976398068 ], [ -104.890383887939592, 38.868218785577 ], [ -104.890321201184022, 38.868218785577 ], [ -104.890276066720034, 38.868164121306336 ], [ -104.890245977077356, 38.868134836858353 ], [ -104.890238454666672, 38.868033317345244 ], [ -104.890263529368923, 38.867953273011523 ], [ -104.890313678773353, 38.867918131568246 ], [ -104.890393917820475, 38.867886894715234 ], [ -104.890486694218723, 38.867875180891772 ], [ -104.890589500497825, 38.867875180891772 ], [ -104.890662217134278, 38.867904465446721 ], [ -104.890669739544947, 38.867951320709587 ], [ -104.890649679783166, 38.868029412745678 ] ] ] ] } },
{ "type": "Feature", "properties": { "id": 13, "name": null, "type": "parking", "fid": 13, "auxiliary_storage_labeling_positionx": null, "auxiliary_storage_labeling_positiony": null }, "geometry": { "type": "MultiPolygon", "coordinates": [ [ [ [ -104.885156563733887, 38.872020704376283 ], [ -104.885170376413072, 38.872022240641599 ], [ -104.885265091927621, 38.872400160902316 ], [ -104.885257198968048, 38.872410914701476 ], [ -104.885225627129884, 38.872421668499015 ], [ -104.885190108811955, 38.872423204755677 ], [ -104.885132884855267, 38.872413987215232 ], [ -104.88508158061822, 38.872407842187592 ], [ -104.885042115820511, 38.872386334586736 ], [ -104.885014490462112, 38.872349464398688 ], [ -104.885006597502539, 38.872317202968446 ], [ -104.885020410181767, 38.872263433885507 ], [ -104.885059874979476, 38.872201983455213 ], [ -104.885105259496854, 38.872109807710139 ], [ -104.885134858095142, 38.872051429676432 ], [ -104.885156563733887, 38.872020704376283 ] ] ] ] } },
{ "type": "Feature", "properties": { "id": 12, "name": null, "type": "parking", "fid": 14, "auxiliary_storage_labeling_positionx": null, "auxiliary_storage_labeling_positiony": null }, "geometry": { "type": "MultiPolygon", "coordinates": [ [ [ [ -104.885291891774528, 38.872829685792709 ], [ -104.885300208528733, 38.872928968027303 ], [ -104.885275258266148, 38.873103790755501 ], [ -104.885233674495154, 38.87333472876194 ], [ -104.885189318472783, 38.87346206808941 ], [ -104.88516436821017, 38.87349228416754 ], [ -104.885128328942002, 38.87348796758571 ], [ -104.885122784439204, 38.873414585655006 ], [ -104.885114467685, 38.873358470009798 ], [ -104.885114467685, 38.873295879430181 ], [ -104.885106150930824, 38.873211705805197 ], [ -104.885095061925213, 38.873108107360636 ], [ -104.885095061925213, 38.873015300292508 ], [ -104.885092289673807, 38.87292465141131 ], [ -104.885120012187798, 38.872877168617855 ], [ -104.885194862975553, 38.872853427209257 ], [ -104.885291891774528, 38.872829685792709 ] ] ] ] } },
{ "type": "Feature", "properties": { "id": 7, "name": null, "type": "parking", "fid": 15, "auxiliary_storage_labeling_positionx": null, "auxiliary_storage_labeling_positiony": null }, "geometry": { "type": "MultiPolygon", "coordinates": [ [ [ [ -104.882420363435358, 38.875639651385342 ], [ -104.8823325619841, 38.875626421516927 ], [ -104.882273083581623, 38.87559114185575 ], [ -104.882261754362091, 38.87545002303596 ], [ -104.882253257447459, 38.875306698947782 ], [ -104.882258922057218, 38.875178809517401 ], [ -104.882275915886467, 38.875106044738764 ], [ -104.882355220423136, 38.87509722476053 ], [ -104.882383543471931, 38.875134709660436 ], [ -104.882380711167059, 38.875284649062401 ], [ -104.88238920808169, 38.875489712732346 ], [ -104.882426028045117, 38.875619806581767 ], [ -104.882420363435358, 38.875639651385342 ] ] ] ] } },
{ "type": "Feature", "properties": { "id": 11, "name": null, "type": "parking", "fid": 16, "auxiliary_storage_labeling_positionx": null, "auxiliary_storage_labeling_positiony": null }, "geometry": { "type": "MultiPolygon", "coordinates": [ [ [ [ -104.883456494762825, 38.876277700680603 ], [ -104.883448779363391, 38.876268261953655 ], [ -104.88343445076444, 38.876083777493129 ], [ -104.883438859564137, 38.87607348067192 ], [ -104.883448779363391, 38.876069190329332 ], [ -104.883545772956282, 38.876028003027095 ], [ -104.883566714754764, 38.876028003027095 ], [ -104.883571123554447, 38.876041732130467 ], [ -104.883570021354515, 38.876220210233321 ], [ -104.883496173959927, 38.876254532894009 ], [ -104.883456494762825, 38.876277700680603 ] ] ] ] } },
{ "type": "Feature", "properties": { "id": 6, "name": null, "type": "parking", "fid": 17, "auxiliary_storage_labeling_positionx": null, "auxiliary_storage_labeling_positiony": null }, "geometry": { "type": "MultiPolygon", "coordinates": [ [ [ [ -104.883061895729071, 38.876358906573486 ], [ -104.883039096699179, 38.876359892634298 ], [ -104.882850371396174, 38.876178457215133 ], [ -104.88285163800893, 38.876170568708147 ], [ -104.88285163800893, 38.876157749882395 ], [ -104.882855437847255, 38.876148875309397 ], [ -104.882889636392093, 38.876114363070457 ], [ -104.88290230251981, 38.876109432749246 ], [ -104.882926368162472, 38.876123237647803 ], [ -104.882996031864906, 38.876184373594818 ], [ -104.883069495405692, 38.876248467676326 ], [ -104.883088494597274, 38.876294812591567 ], [ -104.883074561856787, 38.876329324742883 ], [ -104.883061895729071, 38.876358906573486 ] ] ] ] } },
{ "type": "Feature", "properties": { "id": 5, "name": null, "type": "parking", "fid": 18, "auxiliary_storage_labeling_positionx": null, "auxiliary_storage_labeling_positiony": null }, "geometry": { "type": "MultiPolygon", "coordinates": [ [ [ [ -104.883401288947113, 38.877994590606278 ], [ -104.883385563126652, 38.878002381162865 ], [ -104.883368407686135, 38.87771524294137 ], [ -104.88337984464647, 38.87770633941205 ], [ -104.883408437047322, 38.87770633941205 ], [ -104.883428451727937, 38.877717468823505 ], [ -104.883437029448189, 38.877727485292297 ], [ -104.883449896028594, 38.877966767182926 ], [ -104.883449896028594, 38.877971218931393 ], [ -104.8834413183083, 38.877980122427502 ], [ -104.883401288947113, 38.877994590606278 ] ] ] ] } },
{ "type": "Feature", "properties": { "id": 4, "name": null, "type": "parking", "fid": 19, "auxiliary_storage_labeling_positionx": null, "auxiliary_storage_labeling_positiony": null }, "geometry": { "type": "MultiPolygon", "coordinates": [ [ [ [ -104.883481660822923, 38.879343987986836 ], [ -104.883440032262882, 38.87943688674239 ], [ -104.883397311318248, 38.87952002691096 ], [ -104.883326247532153, 38.879568673140774 ], [ -104.883204137089407, 38.879635646462674 ], [ -104.883123655206731, 38.879659411174593 ], [ -104.883087577121373, 38.879611881742761 ], [ -104.883093127596041, 38.879579475293724 ], [ -104.883179159953428, 38.879512501918867 ], [ -104.883267967548136, 38.879458491086737 ], [ -104.883306820870814, 38.87938719672546 ], [ -104.883348449430855, 38.879300779221921 ], [ -104.883370651329528, 38.87923380558442 ], [ -104.883380512690124, 38.879213166118667 ], [ -104.883417830364223, 38.879220842937613 ], [ -104.883484436060257, 38.879309420976995 ], [ -104.883481660822923, 38.879343987986836 ] ] ] ] } },
{ "type": "Feature", "properties": { "id": 3, "name": null, "type": "parking", "fid": 20, "auxiliary_storage_labeling_positionx": null, "auxiliary_storage_labeling_positiony": null }, "geometry": { "type": "MultiPolygon", "coordinates": [ [ [ [ -104.882697883311025, 38.881436922173428 ], [ -104.882649763569233, 38.881438893681164 ], [ -104.882624437389381, 38.881432979157786 ], [ -104.88260924168145, 38.881411292567904 ], [ -104.882586448119568, 38.881365947858626 ], [ -104.882535795759793, 38.881158939035572 ], [ -104.882535795759793, 38.88113528084596 ], [ -104.88255858932169, 38.881054448638693 ], [ -104.882568719793639, 38.881022904337762 ], [ -104.882601643827485, 38.881022904337762 ], [ -104.882619372153414, 38.881028818895267 ], [ -104.882634567861317, 38.881054448638693 ], [ -104.882619372153414, 38.881127394781004 ], [ -104.882619372153414, 38.881202312362724 ], [ -104.882664959277179, 38.881308774053501 ], [ -104.882700415929008, 38.881395520498394 ], [ -104.882700415929008, 38.881423121617757 ], [ -104.882700415929008, 38.881423121617757 ], [ -104.882697883311025, 38.881436922173428 ] ] ] ] } },
{ "type": "Feature", "properties": { "id": 1, "name": null, "type": "parking", "fid": 21, "auxiliary_storage_labeling_positionx": null, "auxiliary_storage_labeling_positiony": null }, "geometry": { "type": "MultiPolygon", "coordinates": [ [ [ [ -104.871338742196968, 38.87426917407128 ], [ -104.87128243750719, 38.87424127931201 ], [ -104.87105721874822, 38.873731201783329 ], [ -104.871082811789009, 38.873667441834868 ], [ -104.87120565838481, 38.873667441834868 ], [ -104.871308030547993, 38.873667441834868 ], [ -104.871369453845915, 38.873711276805558 ], [ -104.871558842347781, 38.874093835402505 ], [ -104.871543486523294, 38.874149625025851 ], [ -104.871451351576454, 38.874229324411807 ], [ -104.871338742196968, 38.87426917407128 ] ] ] ] } },
{ "type": "Feature", "properties": { "id": null, "name": "visitor center", "type": "building", "fid": 22, "auxiliary_storage_labeling_positionx": -104.86938518487506, "auxiliary_storage_labeling_positiony": 38.878456684411866 }, "geometry": { "type": "MultiPolygon", "coordinates": [ [ [ [ -104.870018070287415, 38.878629250674685 ], [ -104.869876496221039, 38.878750766585647 ], [ -104.869814784448536, 38.878736636839243 ], [ -104.869756702780293, 38.878626424720785 ], [ -104.869698621112008, 38.878603817085626 ], [ -104.869622388922451, 38.878612294949654 ], [ -104.869531636315799, 38.878380566302155 ], [ -104.869553416941386, 38.878338176833658 ], [ -104.869586087879782, 38.878301439273834 ], [ -104.869553416941386, 38.878205356335272 ], [ -104.869626019026711, 38.878123403137977 ], [ -104.86982204465707, 38.878143184952876 ], [ -104.869883756429573, 38.878278831535262 ], [ -104.869938207993599, 38.878295787339859 ], [ -104.869992659557568, 38.878425781707335 ], [ -104.869949098306378, 38.878451215360123 ], [ -104.870018070287415, 38.878629250674685 ] ] ] ] } },
{ "type": "Feature", "properties": { "id": null, "name": null, "type": "parking", "fid": 23, "auxiliary_storage_labeling_positionx": -104.89163748438925, "auxiliary_storage_labeling_positiony": 38.863160459922945 }, "geometry": { "type": "MultiPolygon", "coordinates": [ [ [ [ -104.892895784418897, 38.864334293496299 ], [ -104.892651999715554, 38.864437528334086 ], [ -104.89248519965534, 38.864414217254783 ], [ -104.892215753404273, 38.864390906167827 ], [ -104.892083168741053, 38.86436759507324 ], [ -104.891770953243736, 38.864151134544294 ], [ -104.891959137927046, 38.863981295821723 ], [ -104.892382553464472, 38.864287671262396 ], [ -104.892908615192766, 38.863984625996657 ], [ -104.89293855366509, 38.864017927737365 ], [ -104.892895784418897, 38.864334293496299 ] ] ] ] } },
{ "type": "Feature", "properties": { "id": null, "name": "Hamp Hut", "type": "building", "fid": null, "auxiliary_storage_labeling_positionx": null, "auxiliary_storage_labeling_positiony": null }, "geometry": { "type": "MultiPolygon", "coordinates": [ [ [ [ -104.884468144293947, 38.868711717150717 ], [ -104.884309887886218, 38.868721381166992 ], [ -104.88427885721805, 38.868547428672876 ], [ -104.884443319759399, 38.868537764632933 ], [ -104.884468144293947, 38.868711717150717 ] ] ] ] } }
]
}
