{
"type": "FeatureCollection",
"name": "mtcutlerAreas",
"crs": { "type": "name", "properties": { "name": "urn:ogc:def:crs:OGC:1.3:CRS84" } },
"features": [
{ "type": "Feature", "properties": { "full_id": "w75979937", "osm_id": "75979937", "osm_type": "way", "parking_space": null, "leisure": null, "contact:website": null, "highway": null, "bridge": null, "waterway": null, "ref:US:NID": null, "ref": null, "smoothness": null, "check_date:fee": null, "man_made": null, "content": null, "male": null, "female": null, "drinking_water": null, "wikipedia": null, "sorting_name": null, "heritage": null, "gnis:feature_id": null, "ele": null, "alt_name": null, "park_ride": null, "supervised": "no", "orientation": "perpendicular", "protection_title": null, "protect_class": null, "ownership": null, "landuse": null, "dog": null, "water": null, "natural": null, "covered": "no", "shelter_type": null, "operator": null, "lockable": null, "capacity:disabled": null, "capacity": null, "surface": "asphalt", "parking": "street_side", "fee": "no", "access": null, "amenity": "parking", "wheelchair": null, "website": null, "tourism": null, "phone": null, "opening_hours": null, "internet_access:ssid": null, "internet_access:fee": null, "internet_access": null, "information": null, "fax": null, "check_date": "2024-09-15", "building": null, "addr:street": null, "addr:state": null, "addr:postcode": null, "addr:housenumber": null, "addr:city": null, "wikidata": null, "type": null, "place": null, "name": null, "boundary": null, "admin_level": null }, "geometry": { "type": "MultiPolygon", "coordinates": [ [ [ [ -104.8871796, 38.7918364 ], [ -104.8871322, 38.7917893 ], [ -104.8870217, 38.7917547 ], [ -104.8867394, 38.7918133 ], [ -104.8863497, 38.7919262 ], [ -104.8863757, 38.7920073 ], [ -104.8867154, 38.7919001 ], [ -104.8869001, 38.7918583 ], [ -104.8871796, 38.7918364 ] ] ] ] } }
]
}
