{
"type": "FeatureCollection",
"name": "mtcutler",
"crs": { "type": "name", "properties": { "name": "urn:ogc:def:crs:OGC:1.3:CRS84" } },
"features": [
{ "type": "Feature", "properties": { "full_id": "r4498356", "osm_id": "4498356", "osm_type": "relation", "type": "route", "route": "hiking", "name": "Mount Muscoco Trail" }, "geometry": { "type": "MultiLineString", "coordinates": [ [ [ -104.8793761, 38.7881671 ], [ -104.8794412, 38.7881922 ], [ -104.8795505, 38.7881817 ], [ -104.8797503, 38.7881844 ], [ -104.8798328, 38.788175 ], [ -104.879926, 38.7881358 ], [ -104.8800379, 38.7880626 ], [ -104.88018, 38.788004 ], [ -104.880311, 38.787971 ], [ -104.880582, 38.787937 ], [ -104.880964, 38.787841 ], [ -104.8810742, 38.7878224 ], [ -104.8811865, 38.7877302 ], [ -104.8812388, 38.7876475 ], [ -104.8813403, 38.7875614 ], [ -104.8814916, 38.7875664 ], [ -104.8816253, 38.7875743 ], [ -104.8815743, 38.787497 ], [ -104.881572, 38.787429 ], [ -104.881512, 38.7873 ], [ -104.8814242, 38.7872009 ], [ -104.8812872, 38.7871162 ], [ -104.8813021, 38.7870602 ], [ -104.8813878, 38.7870066 ], [ -104.8817208, 38.7868248 ], [ -104.8818155, 38.7867994 ], [ -104.8818871, 38.7868153 ], [ -104.881934, 38.786848 ], [ -104.882175, 38.786934 ], [ -104.882275, 38.786941 ], [ -104.882412, 38.786903 ], [ -104.8825175, 38.7868564 ], [ -104.8825245, 38.786655 ], [ -104.8826455, 38.7865568 ], [ -104.8826428, 38.786433 ], [ -104.88265, 38.78622 ], [ -104.8826879, 38.786099 ], [ -104.8827751, 38.7860176 ], [ -104.8828649, 38.786 ], [ -104.8829578, 38.7860728 ], [ -104.883043, 38.786261 ], [ -104.883142, 38.786377 ], [ -104.883127, 38.786449 ], [ -104.883018, 38.786493 ], [ -104.882956, 38.786539 ], [ -104.882928, 38.786606 ], [ -104.882897, 38.786848 ], [ -104.882906, 38.786954 ], [ -104.882879, 38.787111 ], [ -104.882895, 38.787174 ], [ -104.882926, 38.787209 ], [ -104.883042, 38.787284 ], [ -104.883097, 38.787338 ], [ -104.883272, 38.787845 ], [ -104.88323, 38.78795 ], [ -104.883099, 38.788088 ], [ -104.882966, 38.788297 ], [ -104.882934, 38.788433 ], [ -104.882971, 38.788488 ], [ -104.883056, 38.788494 ], [ -104.883163, 38.788421 ], [ -104.883238, 38.788408 ], [ -104.883357, 38.788415 ], [ -104.88347, 38.788365 ], [ -104.883796, 38.788087 ], [ -104.883859, 38.787996 ], [ -104.883867, 38.787925 ], [ -104.883827, 38.787704 ], [ -104.8838316, 38.787622 ], [ -104.883835, 38.787561 ], [ -104.8838749, 38.7874886 ], [ -104.883925, 38.787446 ], [ -104.884007, 38.787415 ], [ -104.884119, 38.787425 ], [ -104.8842257, 38.7874807 ], [ -104.884301, 38.78752 ], [ -104.8843961, 38.7875325 ], [ -104.884797, 38.787585 ], [ -104.885184, 38.787611 ], [ -104.885348, 38.787596 ], [ -104.885707, 38.787419 ], [ -104.886013, 38.787317 ], [ -104.886111, 38.787301 ], [ -104.886234, 38.787317 ], [ -104.886385, 38.787361 ], [ -104.886671, 38.787474 ], [ -104.886832, 38.787517 ], [ -104.887072, 38.787531 ], [ -104.887312, 38.787514 ], [ -104.887495, 38.78752 ], [ -104.887594, 38.787539 ], [ -104.888013, 38.787723 ], [ -104.888146, 38.787749 ], [ -104.888225, 38.787747 ], [ -104.888498, 38.78769 ], [ -104.888587, 38.787686 ], [ -104.888905, 38.78772 ], [ -104.889229, 38.787774 ], [ -104.889348, 38.787768 ], [ -104.889427, 38.787723 ], [ -104.88956, 38.787563 ], [ -104.88967, 38.787461 ], [ -104.889738, 38.787413 ], [ -104.890052, 38.787273 ], [ -104.890288, 38.787001 ], [ -104.890619, 38.786744 ], [ -104.890787, 38.786542 ], [ -104.890866, 38.786367 ], [ -104.890846, 38.786287 ], [ -104.890794, 38.786242 ], [ -104.890582, 38.786122 ], [ -104.890505, 38.786109 ], [ -104.89039, 38.786159 ], [ -104.890205, 38.786291 ], [ -104.890136, 38.786289 ], [ -104.890075, 38.786131 ], [ -104.890015, 38.786124 ], [ -104.889802, 38.786242 ], [ -104.889558, 38.786222 ], [ -104.889356, 38.786253 ], [ -104.889266, 38.786248 ], [ -104.889202, 38.786215 ], [ -104.889206, 38.786159 ], [ -104.889318, 38.786055 ], [ -104.889345, 38.785989 ], [ -104.889373, 38.785811 ], [ -104.889457, 38.785659 ], [ -104.889463, 38.785558 ], [ -104.889425, 38.785381 ], [ -104.889419, 38.785186 ], [ -104.889444, 38.784974 ], [ -104.889418, 38.784873 ], [ -104.889366, 38.784818 ], [ -104.889241, 38.784736 ] ] ] } },
{ "type": "Feature", "properties": { "full_id": "r4498355", "osm_id": "4498355", "osm_type": "relation", "type": "route", "route": "hiking", "name": "Mount Cutler Trail" }, "geometry": { "type": "MultiLineString", "coordinates": [ [ [ -104.8872361, 38.7918696 ], [ -104.8871465, 38.7917818 ], [ -104.8869795, 38.7917092 ], [ -104.8868125, 38.7916705 ], [ -104.8866516, 38.7916689 ], [ -104.8865524, 38.7916878 ], [ -104.886488, 38.7917207 ], [ -104.8863499, 38.7917986 ], [ -104.8862164, 38.7918367 ], [ -104.8861339, 38.7918581 ] ], [ [ -104.8861339, 38.7918581 ], [ -104.8859319, 38.7919012 ] ], [ [ -104.8859319, 38.7919012 ], [ -104.8858322, 38.7919156 ], [ -104.8857376, 38.7919297 ], [ -104.885631, 38.7919099 ], [ -104.8855291, 38.7918759 ], [ -104.885458, 38.7918409 ], [ -104.8853983, 38.7917886 ], [ -104.8853494, 38.7917212 ], [ -104.8853031, 38.7916522 ], [ -104.8852595, 38.7915989 ], [ -104.8851784, 38.7915555 ], [ -104.8850517, 38.7915048 ], [ -104.8850101, 38.7914787 ], [ -104.8849551, 38.7914562 ], [ -104.8848392, 38.791362 ], [ -104.8847258, 38.7912916 ], [ -104.8846084, 38.7912466 ], [ -104.884424, 38.7911996 ], [ -104.8843865, 38.791175 ], [ -104.8843328, 38.7911081 ], [ -104.8842187, 38.7909588 ], [ -104.8841799, 38.7908888 ], [ -104.8842088, 38.7908034 ], [ -104.8842215, 38.7907538 ], [ -104.8842249, 38.7906749 ], [ -104.8841934, 38.7905871 ], [ -104.8841484, 38.7905667 ], [ -104.8840405, 38.7905714 ], [ -104.8839158, 38.7905959 ], [ -104.8837159, 38.7906388 ], [ -104.8835382, 38.7906958 ], [ -104.8833632, 38.7907433 ], [ -104.8832211, 38.790781 ], [ -104.88315, 38.7908238 ], [ -104.8830883, 38.7908745 ], [ -104.883036, 38.7909074 ], [ -104.8829783, 38.7909174 ], [ -104.8829455, 38.7909064 ], [ -104.8829099, 38.790885 ], [ -104.8828033, 38.7907935 ], [ -104.8825331, 38.7906372 ], [ -104.8824338, 38.790597 ], [ -104.8823507, 38.7905719 ], [ -104.8822232, 38.7905013 ], [ -104.8821039, 38.7904428 ], [ -104.8819605, 38.7903655 ], [ -104.8818399, 38.7903175 ], [ -104.8817847, 38.7902755 ], [ -104.8817499, 38.7902196 ], [ -104.8817311, 38.7901611 ], [ -104.881719, 38.7901015 ], [ -104.8816728, 38.7900289 ], [ -104.881603, 38.789975 ], [ -104.8814231, 38.7897899 ], [ -104.8813596, 38.7897419 ], [ -104.8812751, 38.7897194 ], [ -104.8810921, 38.7897231 ], [ -104.8809434, 38.7897293 ], [ -104.8808037, 38.789743 ], [ -104.8806984, 38.7897863 ], [ -104.8806327, 38.789802 ], [ -104.8805838, 38.7898093 ], [ -104.8805623, 38.7897717 ], [ -104.880567, 38.7897299 ], [ -104.8805721, 38.7896876 ], [ -104.8805824, 38.7895809 ], [ -104.8805896, 38.7894181 ], [ -104.8805614, 38.7891872 ], [ -104.8805078, 38.7890963 ], [ -104.8804689, 38.789065 ], [ -104.8803805, 38.7890169 ], [ -104.8802606, 38.7889673 ], [ -104.8801768, 38.7889354 ], [ -104.8801318, 38.7888936 ], [ -104.8801177, 38.7888492 ], [ -104.8800648, 38.788706 ], [ -104.8800361, 38.7885782 ], [ -104.8800232, 38.7884807 ], [ -104.879987, 38.7884227 ], [ -104.8799266, 38.7883825 ], [ -104.879823, 38.7883338 ], [ -104.879752, 38.7883202 ], [ -104.8796685, 38.7883574 ], [ -104.8795806, 38.7883793 ], [ -104.87948, 38.7883631 ], [ -104.8794271, 38.7883349 ], [ -104.8793788, 38.7882957 ], [ -104.879358, 38.7882466 ], [ -104.8793567, 38.7882121 ], [ -104.8793761, 38.7881671 ] ], [ [ -104.8793761, 38.7881671 ], [ -104.8793386, 38.7881535 ], [ -104.879301, 38.7880574 ], [ -104.8792588, 38.7880246 ], [ -104.8791308, 38.7879483 ], [ -104.8790376, 38.7878334 ], [ -104.8788889, 38.7876391 ], [ -104.8788457, 38.7875859 ], [ -104.8788242, 38.7875206 ], [ -104.8788135, 38.7874469 ], [ -104.8788192, 38.7873456 ], [ -104.8788259, 38.7872923 ], [ -104.8788041, 38.7872169 ], [ -104.8787686, 38.787161 ], [ -104.8787123, 38.7871322 ], [ -104.8786633, 38.7871071 ], [ -104.8786515, 38.7870958 ] ], [ [ -104.8786515, 38.7870958 ], [ -104.8786116, 38.787055 ] ], [ [ -104.8786116, 38.787055 ], [ -104.878552, 38.7870062 ], [ -104.8785337, 38.7869622 ], [ -104.8785245, 38.7869237 ], [ -104.8784873, 38.7868892 ], [ -104.8784745, 38.7868776 ] ], [ [ -104.8784745, 38.7868776 ], [ -104.8784206, 38.7868479 ], [ -104.8783884, 38.786842 ] ], [ [ -104.8783884, 38.786842 ], [ -104.8783146, 38.7868387 ], [ -104.8782392, 38.7868539 ], [ -104.8781192, 38.7868954 ], [ -104.8780089, 38.7868779 ], [ -104.8778865, 38.7868591 ], [ -104.8777889, 38.7868468 ], [ -104.8776064, 38.7867303 ], [ -104.8775621, 38.7867188 ], [ -104.877538, 38.786723 ], [ -104.8773135, 38.7868683 ], [ -104.8772562, 38.7868978 ], [ -104.8772089, 38.7868894 ], [ -104.8770456, 38.7868374 ], [ -104.8769216, 38.7867812 ], [ -104.8768807, 38.7867757 ], [ -104.8768163, 38.7868105 ], [ -104.876813, 38.786888 ], [ -104.8768649, 38.7869122 ], [ -104.8769313, 38.7869555 ], [ -104.8769702, 38.7870198 ], [ -104.8770426, 38.7871312 ], [ -104.8770395, 38.7872254 ], [ -104.8769617, 38.7873988 ], [ -104.8769376, 38.7874542 ], [ -104.8769658, 38.7874845 ], [ -104.8770137, 38.7875347 ], [ -104.8770909, 38.7876021 ], [ -104.8771164, 38.7876643 ], [ -104.8771976, 38.7877352 ], [ -104.8772505, 38.787819 ], [ -104.877286, 38.7878943 ], [ -104.8773289, 38.7879377 ], [ -104.8773946, 38.7879695 ], [ -104.8775019, 38.7879878 ], [ -104.8776119, 38.7880244 ], [ -104.8777243, 38.788057 ], [ -104.8778128, 38.78807 ], [ -104.8778671, 38.78807 ], [ -104.8779121, 38.788059 ], [ -104.8779396, 38.7880408 ], [ -104.8779603, 38.7880183 ], [ -104.8779704, 38.7879885 ], [ -104.877953, 38.787954 ], [ -104.8779047, 38.7879205 ], [ -104.8778684, 38.7878934 ], [ -104.8777793, 38.7878594 ], [ -104.8777337, 38.7878298 ], [ -104.8776794, 38.7877956 ], [ -104.8776327, 38.7877187 ], [ -104.8776072, 38.7876836 ], [ -104.8775757, 38.7876633 ], [ -104.8774845, 38.787634 ], [ -104.8774422, 38.7876084 ], [ -104.8773698, 38.787542 ], [ -104.8773213, 38.7875275 ], [ -104.8772516, 38.7875165 ], [ -104.8771611, 38.7875217 ], [ -104.8771401, 38.787526 ], [ -104.8770839, 38.7875374 ], [ -104.8770444, 38.7875364 ], [ -104.8770137, 38.7875347 ] ] ] } },
{ "type": "Feature", "properties": { "full_id": "w36952661", "osm_id": "36952661", "osm_type": "road", "type": "road", "route": "road", "name": "N. Cheyenne Canyon Rd", "kind": "road" }, "geometry": { "type": "MultiLineString", "coordinates": [ [ [ -104.89461646630032, 38.789639281208935 ], [ -104.894300745206067, 38.789723218562692 ], [ -104.8939408, 38.7898444 ], [ -104.8937005, 38.7899247 ], [ -104.893237, 38.7899447 ], [ -104.8928336, 38.7900518 ], [ -104.8925416, 38.7902169 ], [ -104.8923843, 38.7905013 ], [ -104.892378, 38.7909181 ], [ -104.8923151, 38.7911191 ], [ -104.8921893, 38.7912662 ], [ -104.8919502, 38.7915948 ], [ -104.8918307, 38.791786 ], [ -104.8916105, 38.791835 ], [ -104.8914469, 38.7916977 ], [ -104.8912141, 38.7915016 ], [ -104.8906354, 38.7914231 ], [ -104.8903082, 38.7914624 ], [ -104.8899685, 38.7917419 ], [ -104.8896099, 38.7920263 ], [ -104.8893583, 38.7920704 ], [ -104.8889101, 38.7920951 ], [ -104.8883898, 38.7920058 ], [ -104.8878218, 38.791924 ], [ -104.8871011, 38.7919612 ], [ -104.8867499, 38.7920393 ], [ -104.8863995, 38.7921174 ], [ -104.8860606, 38.7922179 ], [ -104.8855689, 38.7923295 ], [ -104.8854879, 38.7923234 ], [ -104.8852542, 38.7923137 ], [ -104.8848816, 38.7921993 ], [ -104.8844086, 38.7920191 ], [ -104.8843355, 38.7918924 ], [ -104.8841561, 38.7917714 ], [ -104.8837504, 38.7916673 ], [ -104.8834459, 38.7917011 ], [ -104.8831479, 38.7918496 ], [ -104.8831098, 38.7918728 ], [ -104.8829569, 38.7919658 ], [ -104.8828068, 38.7920073 ], [ -104.8827, 38.7920024 ], [ -104.8825142, 38.7919537 ], [ -104.8820464, 38.7917752 ], [ -104.881278, 38.7915854 ], [ -104.8805047, 38.791485 ], [ -104.8799837, 38.7914254 ], [ -104.8798063, 38.7914219 ], [ -104.8795602, 38.7914405 ], [ -104.8793872, 38.7914599 ], [ -104.8792519, 38.7914469 ], [ -104.8791296, 38.7914339 ], [ -104.8789416, 38.7913966 ], [ -104.8788705, 38.7913597 ], [ -104.8788412, 38.7912203 ], [ -104.8787774, 38.7910904 ], [ -104.8787461, 38.7909386 ], [ -104.8786613, 38.7907808 ], [ -104.878621, 38.7907294 ], [ -104.8785125, 38.7907006 ], [ -104.8784003, 38.79069 ], [ -104.8782772, 38.7907144 ], [ -104.8780513, 38.7908312 ], [ -104.8777573, 38.7910042 ], [ -104.877553, 38.7911402 ], [ -104.8772845, 38.7910961 ], [ -104.8771515, 38.7911637 ], [ -104.8770606, 38.7912893 ], [ -104.8769942, 38.7914924 ], [ -104.8769553, 38.7916629 ], [ -104.8769088, 38.7917435 ] ] ] } },
{ "type": "Feature", "properties": { "full_id": null, "osm_id": null, "osm_type": "trail", "type": null, "route": null, "name": "Daniels Pass Trail", "kind": "trail" }, "geometry": { "type": "MultiLineString", "coordinates": [ [ [ -104.894660115242004, 38.789638519287109 ], [ -104.894612193107605, 38.789618134498596 ], [ -104.89458441734314, 38.789604067802429 ], [ -104.894560694694519, 38.789600849151611 ], [ -104.894515752792358, 38.789581418037415 ], [ -104.89446485042572, 38.789548993110657 ], [ -104.894374966621399, 38.789510607719421 ], [ -104.894361019134521, 38.789498448371887 ], [ -104.894295573234558, 38.789461970329285 ], [ -104.894258379936218, 38.789436459541321 ], [ -104.894260406494141, 38.789434671401978 ], [ -104.894197583198547, 38.789445638656616 ], [ -104.894188761711121, 38.789451360702515 ], [ -104.894163966178894, 38.789461970329285 ], [ -104.894149780273438, 38.789460897445679 ], [ -104.894110321998596, 38.789468288421631 ], [ -104.894036293029785, 38.789515376091003 ], [ -104.89399778842926, 38.789518237113953 ], [ -104.893924474716187, 38.789526700973511 ], [ -104.893893122673035, 38.789540529251099 ], [ -104.893880128860474, 38.789543032646179 ], [ -104.893864154815674, 38.789543390274048 ], [ -104.893842101097107, 38.789556264877319 ], [ -104.893774032592773, 38.789573550224304 ], [ -104.893758416175842, 38.789576649665833 ], [ -104.893686175346375, 38.789555549621582 ], [ -104.893690586090088, 38.78955352306366 ], [ -104.893664360046387, 38.78954541683197 ], [ -104.89363706111908, 38.78956151008606 ], [ -104.893602967262268, 38.78955090045929 ], [ -104.893554925918579, 38.789538860321045 ], [ -104.893522977828979, 38.789534330368042 ], [ -104.893515348434448, 38.789539933204651 ], [ -104.893507957458496, 38.789545655250549 ], [ -104.893501043319702, 38.78955602645874 ], [ -104.893485069274902, 38.789576649665833 ], [ -104.893429279327393, 38.789615750312805 ], [ -104.893400430679321, 38.789620518684387 ], [ -104.893358945846558, 38.789616465568542 ], [ -104.893293261528015, 38.789603114128113 ], [ -104.893217921257019, 38.789550185203552 ], [ -104.893192648887634, 38.789555549621582 ], [ -104.893188834190369, 38.789554715156555 ], [ -104.893170714378357, 38.789533734321594 ], [ -104.893172383308411, 38.789521217346191 ], [ -104.893195033073425, 38.789511203765869 ], [ -104.893220067024231, 38.789508581161499 ], [ -104.893229484558105, 38.789503335952759 ], [ -104.893268465995789, 38.789509534835815 ], [ -104.893270373344421, 38.78951096534729 ], [ -104.893310189247131, 38.78950047492981 ], [ -104.89333176612854, 38.789484024047852 ], [ -104.893388628959656, 38.789454698562622 ], [ -104.893442273139954, 38.789397716522217 ], [ -104.893464207649231, 38.789395689964294 ], [ -104.893541932106018, 38.7893385887146 ], [ -104.893573522567749, 38.789300203323364 ], [ -104.893587708473206, 38.789297223091125 ], [ -104.893642425537109, 38.789280772209167 ], [ -104.893645644187927, 38.789276003837585 ], [ -104.893631458282471, 38.789270043373108 ], [ -104.893625020980835, 38.789262771606445 ], [ -104.89359712600708, 38.789255857467651 ], [ -104.893563866615295, 38.789254069328308 ], [ -104.893557786941528, 38.789261937141418 ], [ -104.89351761341095, 38.789296269416809 ], [ -104.893497347831726, 38.789309024810791 ], [ -104.893489718437195, 38.789313435554504 ], [ -104.893473505973816, 38.789325833320618 ], [ -104.893446803092957, 38.789342761039734 ], [ -104.893421411514282, 38.789363265037537 ], [ -104.893408536911011, 38.789373636245728 ], [ -104.893397212028503, 38.789373397827148 ], [ -104.893363475799561, 38.789384007453918 ], [ -104.893332958221436, 38.789390325546265 ], [ -104.893278241157532, 38.789403915405273 ], [ -104.893261075019836, 38.789398193359375 ], [ -104.893194913864136, 38.789384007453918 ], [ -104.893157243728638, 38.78938353061676 ], [ -104.893106818199158, 38.789368987083435 ], [ -104.893053531646729, 38.789369583129883 ], [ -104.893041014671326, 38.789377331733704 ], [ -104.893014192581177, 38.789396643638611 ], [ -104.892999649047852, 38.789407849311829 ], [ -104.892997980117798, 38.789419174194336 ], [ -104.892943620681763, 38.789446234703064 ], [ -104.89293098449707, 38.789449334144592 ], [ -104.89290189743042, 38.789456248283386 ], [ -104.892904996871948, 38.789440035820007 ], [ -104.892906069755554, 38.789439558982849 ], [ -104.892940759658813, 38.789422631263733 ], [ -104.89294958114624, 38.789400219917297 ], [ -104.892947435379028, 38.789390802383423 ], [ -104.892948627471924, 38.789379835128784 ], [ -104.892962336540222, 38.789295077323914 ], [ -104.892980098724365, 38.789282441139221 ], [ -104.892994523048401, 38.789278626441956 ], [ -104.893010258674622, 38.78926944732666 ], [ -104.893049478530884, 38.789260029792786 ], [ -104.893084049224854, 38.789244771003723 ], [ -104.893110871315002, 38.789236545562744 ], [ -104.893145442008972, 38.789218425750732 ], [ -104.893164157867432, 38.789188027381897 ], [ -104.893187284469604, 38.789177179336548 ], [ -104.893211007118225, 38.789167284965515 ], [ -104.893227696418762, 38.789159297943115 ], [ -104.893253207206726, 38.789150357246399 ], [ -104.893272995948792, 38.789121031761169 ], [ -104.893333315849304, 38.789110779762268 ], [ -104.893339037895203, 38.789105176925659 ], [ -104.893358826637268, 38.789084553718567 ], [ -104.893408417701721, 38.789068460464478 ], [ -104.893450856208801, 38.789061427116394 ], [ -104.893476724624634, 38.789043068885803 ], [ -104.893489837646484, 38.78903603553772 ], [ -104.89349627494812, 38.789019346237183 ], [ -104.893518567085266, 38.788993954658508 ], [ -104.893524408340454, 38.788954138755798 ], [ -104.893536806106567, 38.788940906524658 ], [ -104.893550276756287, 38.788918852806091 ], [ -104.893549919128418, 38.788918495178223 ], [ -104.893530130386353, 38.788920283317566 ], [ -104.893496632575989, 38.788924217224121 ], [ -104.893458604812622, 38.788940072059631 ], [ -104.89341938495636, 38.788963675498962 ], [ -104.893401265144348, 38.788972496986389 ], [ -104.893374681472778, 38.789025545120239 ], [ -104.893334865570068, 38.789019227027893 ], [ -104.893307328224182, 38.78902280330658 ], [ -104.893292903900146, 38.789027810096741 ], [ -104.893268346786499, 38.789032220840454 ], [ -104.893252730369568, 38.789031147956848 ], [ -104.89322829246521, 38.789003133773804 ], [ -104.893222093582153, 38.788992762565613 ], [ -104.893219590187073, 38.788986206054688 ], [ -104.893231749534607, 38.788986086845398 ], [ -104.893240928649902, 38.788948178291321 ], [ -104.893239140510559, 38.78893518447876 ], [ -104.893263816833496, 38.788898110389709 ], [ -104.893302320845663, 38.7888761482238 ], [ -104.893321394920349, 38.788854718208313 ], [ -104.893304347991943, 38.788852214813232 ], [ -104.893261427016427, 38.788870835708941 ], [ -104.893187999725342, 38.788898706436157 ], [ -104.8931725025177, 38.788906097412109 ], [ -104.893136382102966, 38.788958668708801 ], [ -104.893123626708984, 38.788969039916992 ], [ -104.893108129501343, 38.78898286819458 ], [ -104.893102526664734, 38.788992524147034 ], [ -104.893047094345093, 38.788995504379272 ], [ -104.8930424451828, 38.788993239402771 ], [ -104.893040537834167, 38.788982033729553 ], [ -104.893040776252747, 38.788977980613708 ], [ -104.893034815788269, 38.788966774940491 ], [ -104.893034100532532, 38.788966059684753 ], [ -104.893064975738525, 38.78889274597168 ], [ -104.893082737922668, 38.788842439651489 ], [ -104.893090724945068, 38.788828253746033 ], [ -104.893097996711731, 38.788825511932373 ], [ -104.893113136291504, 38.788769960403442 ], [ -104.893141627311707, 38.788747191429138 ], [ -104.893164873123169, 38.788726925849915 ], [ -104.893159985542297, 38.788708209991455 ], [ -104.893173694610596, 38.788690328598022 ], [ -104.893191337585449, 38.788663864135742 ], [ -104.893203735351562, 38.788626194000244 ], [ -104.8932124376297, 38.788625955581665 ], [ -104.893207788467407, 38.788619637489319 ], [ -104.893207430839539, 38.788629174232483 ], [ -104.893231987953186, 38.788648724555969 ], [ -104.893246054649353, 38.788661479949951 ], [ -104.893264889717102, 38.788678526878357 ], [ -104.893251299858093, 38.788683652877808 ], [ -104.893219947814941, 38.788692593574524 ], [ -104.893191576004028, 38.788700819015503 ], [ -104.893173456192017, 38.78867518901825 ], [ -104.893175721168518, 38.788657426834106 ], [ -104.893174648284912, 38.788640141487122 ], [ -104.893170118331909, 38.788617134094238 ], [ -104.893192768096924, 38.788559675216675 ], [ -104.893216252326965, 38.788537979125977 ], [ -104.893246173858643, 38.788528203964233 ], [ -104.893254399299622, 38.78852379322052 ], [ -104.893302202224731, 38.788534045219421 ], [ -104.893349766731262, 38.78853440284729 ], [ -104.89337432384491, 38.788532018661499 ], [ -104.89339017868042, 38.788541793823242 ], [ -104.893494486808777, 38.788556456565857 ], [ -104.893547296524048, 38.788567662239075 ], [ -104.89356541633606, 38.788573145866394 ], [ -104.893682599067688, 38.788591742515564 ], [ -104.893690466880798, 38.788588762283325 ], [ -104.893728613853455, 38.788591742515564 ], [ -104.893790006637573, 38.788614630699158 ], [ -104.893790602684021, 38.788611054420471 ], [ -104.8937908411026, 38.788610458374023 ], [ -104.893796920776367, 38.788607835769653 ], [ -104.893847346305847, 38.78857433795929 ], [ -104.893878221511841, 38.788551211357117 ], [ -104.893895387649536, 38.788521885871887 ], [ -104.893908858299255, 38.788477301597595 ], [ -104.893920183181763, 38.788446068763733 ], [ -104.893934369087219, 38.788435220718384 ], [ -104.893945574760437, 38.788426399230957 ], [ -104.893954992294312, 38.788418769836426 ], [ -104.893977761268616, 38.788402438163757 ], [ -104.893993139266968, 38.788396835327148 ], [ -104.894008755683899, 38.788390040397644 ], [ -104.894061326980591, 38.788366556167603 ], [ -104.894094347953796, 38.788367748260498 ], [ -104.894091606140137, 38.788365602493286 ], [ -104.894090294837952, 38.788368940353394 ], [ -104.894090294837952, 38.788368940353394 ], [ -104.894134044647217, 38.788394570350647 ], [ -104.8941410779953, 38.788400173187256 ], [ -104.894156336784363, 38.78841245174408 ], [ -104.894178986549377, 38.788412094116211 ], [ -104.894175171852112, 38.788381576538086 ], [ -104.894131064414978, 38.788349866867065 ], [ -104.894123911857605, 38.788317441940308 ], [ -104.894116401672363, 38.788280487060547 ], [ -104.894115328788757, 38.788255453109741 ], [ -104.894122958183289, 38.788213849067688 ], [ -104.894123792648315, 38.788201332092285 ], [ -104.894137859344482, 38.78813898563385 ], [ -104.894206047058105, 38.788094639778137 ], [ -104.894230127334595, 38.788096070289612 ], [ -104.894241333007812, 38.788094401359558 ], [ -104.894271492958069, 38.7880859375 ], [ -104.894286155700684, 38.788072109222412 ], [ -104.894320368766785, 38.788037776947021 ], [ -104.894321441650391, 38.788025498390198 ], [ -104.894327640533447, 38.787998676300049 ], [ -104.894357204437256, 38.78794002532959 ], [ -104.894375085830688, 38.787865877151489 ], [ -104.894399166107178, 38.787853121757507 ], [ -104.894402384757996, 38.787846803665161 ], [ -104.894406914710999, 38.787821650505066 ], [ -104.894429922103882, 38.787768244743347 ], [ -104.894432425498962, 38.787757396697998 ], [ -104.894465208053589, 38.787702798843384 ], [ -104.894470453262329, 38.787696599960327 ], [ -104.894488573074341, 38.78766918182373 ], [ -104.894480109214783, 38.787607431411743 ], [ -104.894536137580872, 38.787539601325989 ], [ -104.894554972648621, 38.787483215332031 ], [ -104.89456033706665, 38.787468314170837 ], [ -104.894569873809814, 38.787456274032593 ], [ -104.894573569297791, 38.787444233894348 ], [ -104.894586086273193, 38.787406802177429 ], [ -104.894583106040955, 38.787399530410767 ], [ -104.894607543945312, 38.787376403808594 ], [ -104.894595742225647, 38.787354707717896 ], [ -104.894577860832214, 38.787341117858887 ], [ -104.894582986831665, 38.787303805351257 ], [ -104.89457094669342, 38.787270426750183 ], [ -104.894543886184692, 38.787252306938171 ], [ -104.894511222839355, 38.787224650382996 ], [ -104.894495964050293, 38.78721559047699 ], [ -104.89449667930603, 38.787245392799377 ], [ -104.894496321678162, 38.78727388381958 ], [ -104.894480466842651, 38.787284374237061 ], [ -104.894463300704956, 38.787290334701538 ], [ -104.894408941268921, 38.787326693534851 ], [ -104.894405722618103, 38.787339329719543 ], [ -104.89440906047821, 38.787355065345764 ], [ -104.8943932056427, 38.787370800971985 ], [ -104.894358038902283, 38.787360548973083 ], [ -104.894370198249817, 38.787371754646301 ], [ -104.894361615180969, 38.78735077381134 ], [ -104.89434826374054, 38.787318825721741 ], [ -104.894339442253113, 38.787308573722839 ], [ -104.894303798675537, 38.787269592285156 ], [ -104.894298315048218, 38.787257790565491 ], [ -104.894282937049866, 38.787254452705383 ], [ -104.894249677658081, 38.787240862846375 ], [ -104.894235372543335, 38.787203311920166 ], [ -104.894239664077759, 38.787188410758972 ], [ -104.89424741268158, 38.787158012390137 ], [ -104.894239902496338, 38.787115454673767 ], [ -104.894243001937866, 38.787103652954102 ], [ -104.894248127937317, 38.787072658538818 ], [ -104.894260048866272, 38.787056922912598 ], [ -104.89426600933075, 38.787055373191833 ], [ -104.894245147705078, 38.787034273147583 ], [ -104.894227623939514, 38.787021994590759 ], [ -104.894228935241699, 38.787041783332825 ], [ -104.894201040267944, 38.78704297542572 ], [ -104.894192457199097, 38.787047028541565 ], [ -104.894169807434082, 38.787045478820801 ], [ -104.894131302833557, 38.787035703659058 ], [ -104.894114255905151, 38.787023425102234 ], [ -104.894110083580017, 38.787009358406067 ], [ -104.894108533859253, 38.786960005760193 ], [ -104.894151242318358, 38.786954352544683 ], [ -104.894274115562439, 38.786800146102905 ], [ -104.893947720527649, 38.786737561225891 ], [ -104.893859386444092, 38.786677241325378 ], [ -104.893830418586731, 38.786688923835754 ], [ -104.893784999847412, 38.78669273853302 ], [ -104.893786191940308, 38.786705017089844 ], [ -104.893813014030457, 38.786761999130249 ], [ -104.893819212913513, 38.786775827407837 ], [ -104.893819451332092, 38.78680157661438 ], [ -104.893864035606384, 38.786882996559143 ], [ -104.893858790397644, 38.78693950176239 ], [ -104.893847465515137, 38.786957502365112 ], [ -104.893836975097656, 38.78696596622467 ], [ -104.893822073936462, 38.786996960639954 ], [ -104.893824338912964, 38.786998867988586 ], [ -104.893826365470886, 38.787024736404419 ], [ -104.893823862075806, 38.787046909332275 ], [ -104.893817663192749, 38.787106990814209 ], [ -104.893805861473083, 38.787134408950806 ], [ -104.893811225891113, 38.787151098251343 ], [ -104.893774151802063, 38.787193179130554 ], [ -104.893728971481323, 38.78721022605896 ], [ -104.893721103668213, 38.787218332290649 ], [ -104.89372456073761, 38.787227392196655 ], [ -104.893695473670959, 38.787222266197205 ], [ -104.893696546554565, 38.787197947502136 ], [ -104.893683075904846, 38.787147760391235 ], [ -104.893666863441467, 38.787078857421875 ], [ -104.893647432327271, 38.787071704864502 ], [ -104.893653249085304, 38.787052413363249 ], [ -104.893658638000488, 38.787024021148682 ], [ -104.893675088882446, 38.787017822265625 ], [ -104.893707871437073, 38.786950826644897 ], [ -104.89371645450592, 38.786888241767883 ], [ -104.893715739250183, 38.786875605583191 ], [ -104.893710732460022, 38.786828875541687 ], [ -104.8937087059021, 38.786815524101257 ], [ -104.893698692321777, 38.786799073219299 ], [ -104.893683195114136, 38.786785483360291 ], [ -104.893637776374817, 38.786723256111145 ], [ -104.893624663352966, 38.786681294441223 ], [ -104.893627047538757, 38.786667943000793 ], [ -104.893623232841492, 38.78666079044342 ], [ -104.893619775772095, 38.786653637886047 ], [ -104.893634915351868, 38.786595702171326 ], [ -104.893647313117981, 38.786556839942932 ], [ -104.893664479255676, 38.786541104316711 ], [ -104.89359188079834, 38.786405205726624 ], [ -104.8935866355896, 38.78640341758728 ], [ -104.89357578754425, 38.786406636238098 ], [ -104.893556594848633, 38.786417126655579 ], [ -104.893541574478149, 38.786428570747375 ], [ -104.893497705459595, 38.786413431167603 ], [ -104.893488049507141, 38.786419272422791 ], [ -104.893497824668884, 38.786439776420593 ], [ -104.89344596862793, 38.786627650260925 ], [ -104.893450021743774, 38.786630272865295 ], [ -104.893434882164001, 38.786639809608459 ], [ -104.893420815467834, 38.786668419837952 ], [ -104.893410444259644, 38.786691069602966 ], [ -104.89339280128479, 38.786767244338989 ], [ -104.893390655517578, 38.786774516105652 ], [ -104.893346548080444, 38.786791086196899 ], [ -104.893329620361328, 38.786795139312744 ], [ -104.893321990966797, 38.786794066429138 ], [ -104.893303394317627, 38.786799550056458 ], [ -104.893280744552612, 38.786824941635132 ], [ -104.893282532691956, 38.786840081214905 ], [ -104.893292307853699, 38.786860823631287 ], [ -104.89331316947937, 38.786897778511047 ], [ -104.893320322036743, 38.786914348602295 ], [ -104.893340229988098, 38.786993861198425 ], [ -104.893345475196838, 38.787045359611511 ], [ -104.893337488174438, 38.787126183509827 ], [ -104.893336653709412, 38.787133097648621 ], [ -104.89333438873291, 38.787139296531677 ], [ -104.893329620361328, 38.787184715270996 ], [ -104.893326163291931, 38.787195920944214 ], [ -104.8933265209198, 38.787215232849121 ], [ -104.893317699432373, 38.787241220474243 ], [ -104.893330574035645, 38.787262201309204 ], [ -104.893338680267334, 38.78727388381958 ], [ -104.893339276313782, 38.787296295166016 ], [ -104.893327474594116, 38.787329316139221 ], [ -104.893324255943298, 38.787377238273621 ], [ -104.893321752548218, 38.787423014640808 ], [ -104.893329858779907, 38.787500381469727 ], [ -104.893332362174988, 38.787519812583923 ], [ -104.893335819244385, 38.787538409233093 ], [ -104.893329501152039, 38.787545561790466 ], [ -104.893323421478271, 38.787557482719421 ], [ -104.893302202224731, 38.787580966949463 ], [ -104.893300414085388, 38.787597298622131 ], [ -104.893284678459167, 38.787589550018311 ], [ -104.89325487613678, 38.787569880485535 ], [ -104.893221735954285, 38.787542581558228 ], [ -104.893196105957031, 38.787458539009094 ], [ -104.893188238143921, 38.787428617477417 ], [ -104.893186807632446, 38.787413716316223 ], [ -104.893181920051575, 38.787383437156677 ], [ -104.893171787261963, 38.787365317344666 ], [ -104.893166065216064, 38.787338733673096 ], [ -104.893159627914429, 38.787310600280762 ], [ -104.893110513687134, 38.787280917167664 ], [ -104.893094778060913, 38.787273764610291 ], [ -104.893072962760925, 38.787258744239807 ], [ -104.893065929412842, 38.787249088287354 ], [ -104.893070340156555, 38.787216544151306 ], [ -104.893096089363098, 38.787213206291199 ], [ -104.893093228340149, 38.787168383598328 ], [ -104.893077492713928, 38.787099957466125 ], [ -104.893078804016113, 38.787095785140991 ], [ -104.89305317401886, 38.787019848823547 ], [ -104.89304506778717, 38.786993622779846 ], [ -104.893044471740723, 38.786977887153625 ], [ -104.893043994903564, 38.786962747573853 ], [ -104.893016695976257, 38.786940336227417 ], [ -104.893012166023254, 38.786935925483704 ], [ -104.892995357513428, 38.786923885345459 ], [ -104.892986059188843, 38.78686249256134 ], [ -104.892976045608521, 38.786850690841675 ], [ -104.893009424209595, 38.786807179450989 ], [ -104.893011450767517, 38.786787390708923 ], [ -104.893011093139648, 38.786783218383789 ], [ -104.893009305000305, 38.786783695220947 ], [ -104.89302134513855, 38.786783218383789 ], [ -104.893015027046204, 38.786783218383789 ], [ -104.893014669418335, 38.786781549453735 ], [ -104.893008351325989, 38.786765217781067 ], [ -104.893011569976807, 38.786743998527527 ], [ -104.893019914627075, 38.7866530418396 ], [ -104.893041372299194, 38.786610960960388 ], [ -104.89304530620575, 38.786603808403015 ], [ -104.893026947975159, 38.786579370498657 ], [ -104.893013119697571, 38.786592125892639 ], [ -104.89300262928009, 38.78661584854126 ], [ -104.892973303794861, 38.786668300628662 ], [ -104.892952084541321, 38.78669285774231 ], [ -104.892944693565369, 38.786710143089294 ], [ -104.892930388450623, 38.786711931228638 ], [ -104.892919421195984, 38.786697030067444 ], [ -104.892917394638062, 38.786688327789307 ], [ -104.892915606498718, 38.786677241325378 ], [ -104.892898797988892, 38.786627531051636 ], [ -104.892885088920593, 38.78658401966095 ], [ -104.892886400222778, 38.786566853523254 ], [ -104.892936229705811, 38.786561131477356 ], [ -104.892956137657166, 38.786540508270264 ], [ -104.89299476146698, 38.786492586135864 ], [ -104.89300525188446, 38.78646993637085 ], [ -104.893010973930359, 38.786416292190552 ], [ -104.892999529838562, 38.78639018535614 ], [ -104.893014907836914, 38.786373853683472 ], [ -104.893017649650574, 38.786361455917358 ], [ -104.893068790435791, 38.786295533180237 ], [ -104.89308774471283, 38.786252379417419 ], [ -104.893100619316101, 38.786226868629456 ], [ -104.893115043640137, 38.786210656166077 ], [ -104.893115639686584, 38.786197543144226 ], [ -104.893109321594238, 38.786171674728394 ], [ -104.893118977546692, 38.786135077476501 ], [ -104.893146276473999, 38.786072254180908 ], [ -104.893140912055969, 38.786025643348694 ], [ -104.893159627914429, 38.786013960838318 ], [ -104.89313530921936, 38.785970091819763 ], [ -104.893160223960876, 38.785974740982056 ], [ -104.89319920539856, 38.785968780517578 ], [ -104.893207669258118, 38.785964965820312 ], [ -104.893222212791443, 38.785958290100098 ], [ -104.893235445022583, 38.785956621170044 ], [ -104.893249750137329, 38.785957098007202 ], [ -104.893263220787048, 38.785958647727966 ], [ -104.893270254135132, 38.785959482192993 ], [ -104.893276929855347, 38.785953283309937 ], [ -104.893306612968445, 38.785932302474976 ], [ -104.893342852592468, 38.785927772521973 ], [ -104.893359184265137, 38.785929918289185 ], [ -104.893404603004456, 38.785921931266785 ], [ -104.893418312072754, 38.785918474197388 ], [ -104.893467426300049, 38.785941004753113 ], [ -104.893488645553589, 38.785942077636719 ], [ -104.893516778945923, 38.785946846008301 ], [ -104.893524885177612, 38.785950422286987 ], [ -104.893573403358459, 38.785971999168396 ], [ -104.893579244613647, 38.78597092628479 ], [ -104.893622994422913, 38.785975813865662 ], [ -104.893622159957886, 38.785976886749268 ], [ -104.893622994422913, 38.785971641540527 ], [ -104.893669605255127, 38.785930752754211 ], [ -104.893675327301025, 38.785904884338379 ], [ -104.893679976463318, 38.785889387130737 ], [ -104.893705725669861, 38.78587806224823 ], [ -104.893743872642517, 38.785873413085938 ], [ -104.893758773803711, 38.785871624946594 ], [ -104.893834471702576, 38.785891652107239 ], [ -104.893875002861023, 38.785840511322021 ], [ -104.893877863883972, 38.785797595977783 ], [ -104.893868803977966, 38.785772085189819 ], [ -104.893889546394348, 38.785749793052673 ], [ -104.893944621086121, 38.785733461380005 ], [ -104.893970966339111, 38.785681843757629 ], [ -104.893964290618896, 38.785647749900818 ], [ -104.893972516059875, 38.785626888275146 ], [ -104.893983483314514, 38.78559935092926 ], [ -104.893999099731445, 38.785566687583923 ], [ -104.893999338150024, 38.785533308982849 ], [ -104.893986582756042, 38.785515546798706 ], [ -104.893982410430908, 38.785488605499268 ], [ -104.893999218940735, 38.785452485084534 ], [ -104.894051313400269, 38.785427331924438 ], [ -104.8940589427948, 38.785422682762146 ], [ -104.894075036048889, 38.78537654876709 ], [ -104.894142746925354, 38.785310983657837 ], [ -104.894156694412231, 38.785305380821228 ], [ -104.89420223236084, 38.785323262214661 ], [ -104.894276261329651, 38.785337686538696 ], [ -104.894278526306152, 38.785335540771484 ], [ -104.894314765930176, 38.785335063934326 ], [ -104.894430041313171, 38.785340666770935 ], [ -104.894495129585266, 38.785350322723389 ], [ -104.894500732421875, 38.785350799560547 ], [ -104.894535064697266, 38.785358428955078 ], [ -104.894554257392883, 38.785363078117371 ], [ -104.894565463066101, 38.785364747047424 ], [ -104.894599437713623, 38.785370826721191 ], [ -104.894637584686279, 38.785375475883484 ], [ -104.894691824913025, 38.785393595695496 ], [ -104.894702315330505, 38.785386443138123 ], [ -104.894749760627747, 38.785398602485657 ], [ -104.894763469696045, 38.785393595695496 ], [ -104.894786715507507, 38.785390019416809 ], [ -104.894846439361572, 38.785362482070923 ], [ -104.894913554191589, 38.785367131233215 ], [ -104.894966959953308, 38.78536593914032 ], [ -104.895037531852722, 38.785377144813538 ], [ -104.895074248313904, 38.785393476486206 ], [ -104.895143985748291, 38.785410165786743 ], [ -104.895177364349365, 38.785410761833191 ], [ -104.895208716392517, 38.785409450531006 ], [ -104.895218729972839, 38.785408496856689 ], [ -104.895240068435669, 38.785400748252869 ], [ -104.895244956016541, 38.78538966178894 ], [ -104.895258784294128, 38.785386562347412 ], [ -104.895241379737854, 38.785380601882935 ], [ -104.895200371742249, 38.785369873046875 ], [ -104.895174860954285, 38.785362601280212 ], [ -104.895169138908386, 38.785362720489502 ], [ -104.89514148235321, 38.785322427749634 ], [ -104.895052909851074, 38.785308718681335 ], [ -104.895005345344543, 38.78525447845459 ], [ -104.894991993904114, 38.785254240036011 ], [ -104.89492654800415, 38.785256743431091 ], [ -104.894835710525513, 38.785245060920715 ], [ -104.89481508731842, 38.785235643386841 ], [ -104.894805431365967, 38.785223722457886 ], [ -104.89475417137146, 38.785154104232788 ], [ -104.894772887229919, 38.785145163536072 ], [ -104.894833326339722, 38.785126686096191 ], [ -104.894817471504211, 38.78512704372406 ], [ -104.894802689552307, 38.785110712051392 ], [ -104.894802689552307, 38.785110712051392 ], [ -104.894802689552307, 38.785110712051392 ], [ -104.894802689552307, 38.785110712051392 ], [ -104.894802689552307, 38.785110712051392 ], [ -104.894802689552307, 38.785110712051392 ], [ -104.89484703540802, 38.785067081451416 ], [ -104.89487087726593, 38.785001754760742 ], [ -104.894880414009094, 38.784972906112671 ], [ -104.894880652427673, 38.78497326374054 ], [ -104.894885540008545, 38.784971237182617 ], [ -104.894882917404175, 38.784933686256409 ], [ -104.894883632659912, 38.784920930862427 ], [ -104.894892811775208, 38.78489100933075 ], [ -104.894868612289429, 38.784855127334595 ], [ -104.894865751266479, 38.78484833240509 ], [ -104.894879698753357, 38.784830212593079 ], [ -104.894885063171387, 38.784819841384888 ], [ -104.894905209541321, 38.784754753112793 ], [ -104.894898891448975, 38.784741997718811 ], [ -104.894887566566467, 38.784729242324829 ], [ -104.894858717918396, 38.784699082374573 ], [ -104.894877791404724, 38.784634113311768 ], [ -104.894887804985046, 38.784623861312866 ], [ -104.894902586936951, 38.784619092941284 ], [ -104.89495837688446, 38.784584403038025 ], [ -104.894975900650024, 38.7845618724823 ], [ -104.894986152648926, 38.784563183784485 ], [ -104.894983053207397, 38.784559965133667 ], [ -104.894980192184448, 38.784558296203613 ], [ -104.894980192184448, 38.784558296203613 ], [ -104.894980192184448, 38.784558296203613 ], [ -104.894957542419434, 38.784555315971375 ], [ -104.894957542419434, 38.784555315971375 ], [ -104.894957542419434, 38.784555315971375 ], [ -104.894957542419434, 38.784557223320007 ], [ -104.894968748092651, 38.784560441970825 ], [ -104.894974231719971, 38.78455638885498 ], [ -104.894974231719971, 38.784549713134766 ], [ -104.894974589347839, 38.784545183181763 ], [ -104.895006418228149, 38.784518361091614 ], [ -104.895013213157654, 38.784507989883423 ], [ -104.895094394683838, 38.784456849098206 ], [ -104.895150661468506, 38.784428596496582 ], [ -104.895159721374512, 38.784420490264893 ], [ -104.89520275592804, 38.784409880638123 ], [ -104.895222663879395, 38.784399509429932 ], [ -104.895323872566223, 38.784387707710266 ], [ -104.895389080047607, 38.784363150596619 ], [ -104.895393013954163, 38.784357070922852 ], [ -104.895386338233948, 38.784327268600464 ], [ -104.895380020141602, 38.784309267997742 ], [ -104.895390868186951, 38.784303188323975 ], [ -104.895391583442688, 38.784289240837097 ], [ -104.895373702049255, 38.784262776374817 ], [ -104.895338535308838, 38.784217596054077 ], [ -104.895329117774963, 38.784193873405457 ], [ -104.895329833030701, 38.784178733825684 ], [ -104.895324349403381, 38.784137487411499 ], [ -104.895296573638916, 38.784066438674927 ], [ -104.895305395126343, 38.784022212028503 ], [ -104.895288348197937, 38.783962726593018 ], [ -104.895287752151489, 38.783951640129089 ], [ -104.895308256149292, 38.783893465995789 ], [ -104.895308017730713, 38.783881306648254 ], [ -104.895312666893005, 38.783841133117676 ], [ -104.895308136940002, 38.783815741539001 ], [ -104.895311951637268, 38.78378963470459 ], [ -104.895319581031799, 38.783752202987671 ], [ -104.895328879356384, 38.783744812011719 ], [ -104.895345091819763, 38.783729314804077 ], [ -104.895370364189148, 38.783671021461487 ], [ -104.895374059677124, 38.783656716346741 ], [ -104.895392298698425, 38.783612370491028 ], [ -104.895391583442688, 38.783565282821655 ], [ -104.895387643091752, 38.783560736262885 ] ] ] } },
{ "type": "Feature", "properties": { "full_id": "w1014120710", "osm_id": "1014120710", "osm_type": "way", "type": null, "route": null, "name": "Sweetwater Canyon Trail", "kind": null }, "geometry": { "type": "MultiLineString", "coordinates": [ [ [ -104.8953192, 38.7818556 ], [ -104.8953085, 38.782004 ], [ -104.8953997, 38.7821263 ], [ -104.8954614, 38.7821922 ], [ -104.8954546, 38.782291 ], [ -104.8953916, 38.7823223 ], [ -104.8952287, 38.7822821 ], [ -104.8951455, 38.7822565 ], [ -104.8950443, 38.7822737 ], [ -104.894937, 38.7823485 ], [ -104.8948351, 38.7824076 ], [ -104.8946419, 38.7823574 ], [ -104.8944408, 38.7823741 ], [ -104.8943228, 38.7823427 ], [ -104.8942181, 38.7823574 ], [ -104.8940773, 38.782486 ], [ -104.8940814, 38.782602 ], [ -104.8939338, 38.7828174 ], [ -104.8939312, 38.7830683 ], [ -104.8939526, 38.7833652 ], [ -104.8939472, 38.7835282 ], [ -104.8939821, 38.7836955 ], [ -104.893899, 38.7838042 ], [ -104.893907, 38.7839464 ], [ -104.8937166, 38.783913 ], [ -104.8935288, 38.7839945 ], [ -104.8934913, 38.7840384 ], [ -104.8933572, 38.7839924 ], [ -104.8932552, 38.7839213 ], [ -104.8931989, 38.7837122 ], [ -104.8930272, 38.7836161 ], [ -104.892869, 38.7836161 ], [ -104.8928019, 38.7835972 ], [ -104.8926839, 38.7835073 ], [ -104.8923513, 38.7834634 ], [ -104.8921984, 38.7834007 ], [ -104.8921582, 38.783453 ], [ -104.8922575, 38.7835199 ], [ -104.8923674, 38.7835701 ], [ -104.8922387, 38.7836202 ], [ -104.8920912, 38.7835993 ], [ -104.8919651, 38.7835032 ], [ -104.8919302, 38.7833631 ], [ -104.8919973, 38.7832606 ], [ -104.8919436, 38.7831414 ], [ -104.8918015, 38.7830453 ], [ -104.8916674, 38.7829679 ], [ -104.8916191, 38.7828215 ], [ -104.8916191, 38.7826375 ], [ -104.8915628, 38.7825226 ], [ -104.8915413, 38.782441 ], [ -104.8915252, 38.7822779 ], [ -104.8913723, 38.7821253 ], [ -104.8913562, 38.7820437 ], [ -104.8912677, 38.7819789 ], [ -104.8910893, 38.7818808 ], [ -104.8910179, 38.7818767 ], [ -104.8910052, 38.7818998 ], [ -104.8911792, 38.7821023 ], [ -104.8913026, 38.7824138 ], [ -104.8913312, 38.7827005 ], [ -104.8912491, 38.7828445 ], [ -104.8912275, 38.7830934 ], [ -104.8913509, 38.7832376 ], [ -104.8913401, 38.7834655 ], [ -104.8912811, 38.7836621 ], [ -104.8913831, 38.7837729 ], [ -104.8920471, 38.7843039 ], [ -104.8921715, 38.784459 ] ] ] } },
{ "type": "Feature", "properties": { "full_id": "w1014120706", "osm_id": "1014120706", "osm_type": "way", "type": null, "route": null, "name": "Daniels Pass Trail", "kind": null }, "geometry": { "type": "MultiLineString", "coordinates": [ [ [ -104.897241, 38.7823406 ], [ -104.8972464, 38.782488 ], [ -104.897249, 38.7825832 ], [ -104.8971525, 38.782671 ], [ -104.8970103, 38.7828069 ], [ -104.8969916, 38.7829763 ], [ -104.8966992, 38.7831247 ], [ -104.8966509, 38.783407 ], [ -104.89649, 38.7836412 ], [ -104.8964363, 38.7837729 ], [ -104.8962539, 38.7838795 ], [ -104.8961654, 38.783982 ], [ -104.8961252, 38.7840844 ], [ -104.8960501, 38.784122 ], [ -104.8958087, 38.78403 ], [ -104.895739, 38.7838586 ], [ -104.8956585, 38.783729 ], [ -104.8955217, 38.7836119 ], [ -104.895420455395993, 38.783556838964351 ] ] ] } },
{ "type": "Feature", "properties": { "full_id": "w1014120705", "osm_id": "1014120705", "osm_type": "way", "type": null, "route": null, "name": "Daniels Pass Trail", "kind": null }, "geometry": { "type": "MultiLineString", "coordinates": [ [ [ -104.898089, 38.7830432 ], [ -104.8979035, 38.7832481 ], [ -104.8977399, 38.7834509 ], [ -104.8976138, 38.7835701 ], [ -104.8976031, 38.7837311 ], [ -104.8976541, 38.7838231 ], [ -104.8976862, 38.7838837 ], [ -104.8976192, 38.7839088 ], [ -104.8975146, 38.7838105 ], [ -104.8974529, 38.7835763 ], [ -104.8974636, 38.7833714 ], [ -104.8976058, 38.7832188 ], [ -104.8976353, 38.7830264 ], [ -104.8977479, 38.7828675 ], [ -104.8977479, 38.7827316 ], [ -104.8978284, 38.782648 ], [ -104.8977721, 38.7823574 ], [ -104.8976809, 38.7821023 ], [ -104.897697, 38.7819476 ], [ -104.8975843, 38.782027 ], [ -104.897536, 38.7821943 ], [ -104.8975253, 38.7823992 ], [ -104.8975253, 38.7824745 ], [ -104.8974609, 38.7823908 ], [ -104.8972571, 38.782073 ], [ -104.8972088, 38.7820103 ], [ -104.8971927, 38.7821169 ], [ -104.8972334, 38.7823057 ], [ -104.897241, 38.7823406 ] ] ] } },
{ "type": "Feature", "properties": { "full_id": "w1014120003", "osm_id": "1014120003", "osm_type": "way", "type": null, "route": null, "name": "Sweetwater Canyon Trail", "kind": null }, "geometry": { "type": "MultiLineString", "coordinates": [ [ [ -104.8953192, 38.7818556 ], [ -104.89522, 38.7817113 ], [ -104.8950684, 38.7816475 ], [ -104.8948793, 38.7816151 ], [ -104.8947707, 38.7815649 ], [ -104.8945816, 38.7814531 ], [ -104.8945373, 38.7813611 ], [ -104.8946084, 38.7813067 ], [ -104.8948136, 38.781244 ], [ -104.8950402, 38.7812597 ], [ -104.8951811, 38.7813663 ], [ -104.8953728, 38.7813339 ], [ -104.8954774, 38.7812335 ], [ -104.8954976, 38.7811541 ], [ -104.89557, 38.781083 ], [ -104.895633, 38.7810014 ], [ -104.8956236, 38.7808802 ], [ -104.8954694, 38.7807505 ], [ -104.895338, 38.7806627 ], [ -104.8953058, 38.7805989 ], [ -104.8953916, 38.7804944 ], [ -104.8953326, 38.7803397 ], [ -104.8952468, 38.780233 ], [ -104.8951288, 38.7801431 ], [ -104.8950054, 38.7800887 ], [ -104.8949853, 38.7800124 ], [ -104.8951113, 38.7799382 ], [ -104.8950925, 38.7797939 ], [ -104.8950684, 38.7796967 ], [ -104.8949531, 38.779589 ], [ -104.8949839, 38.7794573 ], [ -104.8949343, 38.779289 ], [ -104.8949477, 38.7791206 ], [ -104.8949222, 38.7788687 ], [ -104.8947211, 38.7787056 ], [ -104.8946594, 38.778623 ], [ -104.8943777, 38.7783857 ], [ -104.8943187, 38.7783083 ], [ -104.8942812, 38.778233 ], [ -104.894304, 38.778117 ], [ -104.8944515, 38.7780469 ], [ -104.8945722, 38.7780522 ], [ -104.8946822, 38.7781337 ], [ -104.8947452, 38.7781306 ], [ -104.894772, 38.7779978 ], [ -104.894772, 38.777636 ], [ -104.8947921, 38.7775284 ], [ -104.8948284, 38.7774416 ], [ -104.8949598, 38.7772733 ], [ -104.8950523, 38.7772199 ], [ -104.8951583, 38.7771948 ], [ -104.8952441, 38.7772011 ], [ -104.8953152, 38.7772649 ], [ -104.8953393, 38.7773621 ], [ -104.8953715, 38.7774123 ], [ -104.8954278, 38.7774311 ], [ -104.8955445, 38.7773621 ], [ -104.89592, 38.7770296 ], [ -104.895971, 38.7769356 ], [ -104.89592, 38.7767955 ], [ -104.8958543, 38.7767003 ], [ -104.8958382, 38.7766041 ], [ -104.8957457, 38.7765341 ], [ -104.8955901, 38.7765623 ], [ -104.8954372, 38.776532 ], [ -104.8952588, 38.7764463 ], [ -104.8950309, 38.7763124 ], [ -104.8949222, 38.7762978 ], [ -104.8947908, 38.776256 ], [ -104.8946728, 38.7761911 ], [ -104.8946513, 38.776118 ], [ -104.8946862, 38.7760291 ], [ -104.894768, 38.7760071 ], [ -104.8950523, 38.7760876 ], [ -104.8952401, 38.7761368 ], [ -104.8954439, 38.7761357 ], [ -104.8955807, 38.7760824 ], [ -104.8956786, 38.776005 ], [ -104.8957644, 38.7760176 ], [ -104.8957269, 38.7761023 ], [ -104.8956746, 38.7761807 ], [ -104.8956665, 38.7762549 ], [ -104.8957215, 38.7762748 ], [ -104.8957886, 38.7762141 ], [ -104.8958744, 38.7761399 ], [ -104.8958838, 38.7761661 ], [ -104.8959401, 38.7762758 ], [ -104.8960166, 38.7763386 ], [ -104.8961265, 38.7763856 ], [ -104.8962151, 38.7764232 ], [ -104.8962057, 38.7763668 ], [ -104.8961775, 38.7762445 ], [ -104.8962365, 38.7761012 ], [ -104.8962459, 38.7759674 ], [ -104.8962486, 38.7758817 ], [ -104.8963358, 38.7758482 ], [ -104.896384, 38.7758848 ], [ -104.89638, 38.7759172 ], [ -104.8963827, 38.7759977 ], [ -104.8963746, 38.7761315 ], [ -104.8963733, 38.7762403 ], [ -104.8964578, 38.7763354 ], [ -104.8965195, 38.7764421 ], [ -104.8964739, 38.7765257 ], [ -104.8964444, 38.7766554 ], [ -104.8965195, 38.7768791 ], [ -104.8966268, 38.7770673 ], [ -104.8966053, 38.7771405 ], [ -104.8964953, 38.7772053 ], [ -104.8963532, 38.7774019 ], [ -104.8961386, 38.7775984 ], [ -104.8960501, 38.7778723 ], [ -104.8959643, 38.7779936 ], [ -104.8958248, 38.7782236 ], [ -104.8959294, 38.7781818 ], [ -104.8961037, 38.7781797 ], [ -104.8962137, 38.7780292 ], [ -104.8963907, 38.7778472 ], [ -104.8964739, 38.7776695 ], [ -104.8966643, 38.7774688 ], [ -104.8969138, 38.7773809 ], [ -104.8970532, 38.777475 ], [ -104.8972195, 38.777521 ], [ -104.8972973, 38.7774813 ], [ -104.8972893, 38.7772868 ], [ -104.89719, 38.7771363 ], [ -104.8970452, 38.7769 ], [ -104.8970023, 38.7767411 ], [ -104.8970479, 38.7765759 ], [ -104.8970398, 38.776463 ], [ -104.8970962, 38.7764086 ], [ -104.8971632, 38.7765634 ], [ -104.897249, 38.7766993 ], [ -104.897233, 38.7768143 ], [ -104.8972625, 38.7768979 ], [ -104.8973376, 38.7770108 ], [ -104.8974744, 38.7771217 ], [ -104.8975951, 38.7772597 ], [ -104.8976809, 38.7773538 ], [ -104.8978418, 38.7773809 ], [ -104.8979035, 38.7774039 ], [ -104.897933, 38.7774499 ], [ -104.8979062, 38.7775231 ], [ -104.897933, 38.7775775 ], [ -104.8979947, 38.7776444 ], [ -104.897984, 38.7777197 ], [ -104.8979276, 38.7777824 ], [ -104.8977962, 38.7777866 ], [ -104.8975924, 38.7778661 ], [ -104.8973054, 38.7779246 ], [ -104.8970559, 38.778048 ], [ -104.8969084, 38.7782278 ], [ -104.8968789, 38.778439 ], [ -104.8968521, 38.7784829 ], [ -104.8966509, 38.7786376 ], [ -104.8965946, 38.7787861 ], [ -104.8965879, 38.7789492 ], [ -104.8965544, 38.7790673 ], [ -104.8965839, 38.7791154 ], [ -104.8968118, 38.7792796 ], [ -104.8968306, 38.7793276 ], [ -104.8968467, 38.779428 ], [ -104.8969325, 38.7795064 ], [ -104.8969647, 38.7795911 ], [ -104.8969272, 38.7797333 ], [ -104.8967984, 38.779888 ], [ -104.8968118, 38.7800302 ], [ -104.8969808, 38.7801787 ], [ -104.8969674, 38.7802497 ], [ -104.8969889, 38.7803689 ], [ -104.8972839, 38.7806021 ], [ -104.8974073, 38.7807631 ], [ -104.8978204, 38.781015 ], [ -104.897823, 38.7811258 ], [ -104.897925, 38.7811969 ], [ -104.8980054, 38.7812931 ], [ -104.8980296, 38.7813443 ], [ -104.897984, 38.7813956 ], [ -104.8978043, 38.781406 ], [ -104.8976541, 38.7814667 ], [ -104.8974529, 38.7814646 ], [ -104.8973134, 38.781544 ], [ -104.897182, 38.7816235 ], [ -104.8970144, 38.7817458 ], [ -104.8969218, 38.7818953 ], [ -104.896946, 38.7820417 ], [ -104.897241, 38.7823406 ] ] ] } },
{ "type": "Feature", "properties": { "full_id": null, "osm_id": null, "osm_type": "trail", "type": null, "route": null, "name": "green path", "kind": "trail" }, "geometry": { "type": "MultiLineString", "coordinates": [ [ [ -104.895265498305733, 38.781789228072853 ], [ -104.895209407868521, 38.781773438640926 ], [ -104.895165781972878, 38.781792871787417 ], [ -104.895125272212653, 38.781778296928039 ], [ -104.895056717233828, 38.781741859766584 ], [ -104.894946094427056, 38.7817770823563 ], [ -104.894847936161909, 38.781795300930362 ], [ -104.894723290745844, 38.781778296928039 ], [ -104.89463915508999, 38.781739430621819 ], [ -104.894572138786316, 38.781736731529236 ], [ -104.894548773765564, 38.781730532646179 ], [ -104.89446747303009, 38.781690955162048 ], [ -104.89441454410553, 38.78167998790741 ], [ -104.894390344619751, 38.781673431396484 ], [ -104.89434826374054, 38.781673669815063 ], [ -104.894347071647644, 38.781670212745667 ], [ -104.894327998161316, 38.781636714935303 ], [ -104.894318342208862, 38.781626105308533 ], [ -104.894287824630737, 38.781611561775208 ], [ -104.894256353378296, 38.781613349914551 ], [ -104.89422869682312, 38.781600594520569 ], [ -104.89421021938324, 38.781572103500366 ], [ -104.894237518310547, 38.781584858894348 ], [ -104.894273519515991, 38.781608462333679 ], [ -104.894271731376648, 38.781614899635315 ], [ -104.894275546073914, 38.781651020050049 ], [ -104.894263029098511, 38.781675577163696 ], [ -104.894241571426392, 38.781703948974609 ], [ -104.894234657287598, 38.781734347343445 ], [ -104.894240140914917, 38.781748056411743 ], [ -104.894267320632935, 38.781774878501892 ], [ -104.894272923469543, 38.781775951385498 ], [ -104.894285202026367, 38.78179132938385 ], [ -104.894271492958069, 38.781823396682739 ], [ -104.894265055656433, 38.781827330589294 ], [ -104.894259214401245, 38.781829595565796 ], [ -104.894221544265747, 38.781844615936279 ], [ -104.894187092781067, 38.781851053237915 ], [ -104.89412796497345, 38.781864643096924 ], [ -104.894119381904602, 38.781863570213318 ], [ -104.894061923027039, 38.781862497329712 ], [ -104.894044876098633, 38.781861066818237 ], [ -104.894002437591553, 38.781874418258667 ], [ -104.893967390060425, 38.781879544258118 ], [ -104.893957018852234, 38.781884074211121 ], [ -104.893937230110168, 38.781891107559204 ], [ -104.893827795982361, 38.781923770904541 ], [ -104.893825650215149, 38.781923055648804 ], [ -104.893761277198792, 38.781932950019836 ], [ -104.893728137016296, 38.781942009925842 ], [ -104.893714547157288, 38.781939148902893 ], [ -104.893645524978638, 38.781935691833496 ], [ -104.893600344657898, 38.781921982765198 ], [ -104.893513798713684, 38.781895160675049 ], [ -104.893454432487488, 38.781886100769043 ], [ -104.893427491188049, 38.781886696815491 ], [ -104.893413543701172, 38.781883597373962 ], [ -104.893375396728516, 38.78187894821167 ], [ -104.893369078636169, 38.781884789466858 ], [ -104.893351316452026, 38.781903266906738 ], [ -104.893309354782104, 38.781951904296875 ], [ -104.893298268318176, 38.781958699226379 ], [ -104.893247127532959, 38.781975746154785 ], [ -104.893247008323669, 38.781973361968994 ], [ -104.893254995346069, 38.782010555267334 ], [ -104.893237113952637, 38.782018065452576 ], [ -104.893220663070679, 38.782010555267334 ], [ -104.893194913864136, 38.781979918479919 ], [ -104.89318859577179, 38.781967163085938 ], [ -104.893182396888733, 38.781958699226379 ], [ -104.893138766288757, 38.781875371932983 ], [ -104.893137693405151, 38.781863808631897 ], [ -104.893135666847229, 38.781858921051025 ], [ -104.893135190010071, 38.781858682632446 ], [ -104.893137097358704, 38.781845688819885 ], [ -104.893137097358704, 38.781842112541199 ], [ -104.893135547637939, 38.781831622123718 ], [ -104.893115162849426, 38.781836628913879 ], [ -104.893113970756531, 38.781865358352661 ], [ -104.89311408996582, 38.78187620639801 ], [ -104.893122434616089, 38.781926155090332 ], [ -104.893110513687134, 38.781939506530762 ], [ -104.893084645271301, 38.781944274902344 ], [ -104.893051981925964, 38.781907320022583 ], [ -104.893043160438538, 38.78190016746521 ], [ -104.893048882484436, 38.781864762306213 ], [ -104.893038272857666, 38.781832098960876 ], [ -104.893032073974609, 38.781811475753784 ], [ -104.893022179603577, 38.781792044639587 ], [ -104.89303183555603, 38.781735420227051 ], [ -104.893028736114502, 38.781728982925415 ], [ -104.893012285232544, 38.78171169757843 ], [ -104.893003821372986, 38.781706213951111 ], [ -104.892993330955505, 38.781700134277344 ], [ -104.892974019050598, 38.781664133071899 ], [ -104.892975568771362, 38.781658291816711 ], [ -104.892971277236938, 38.781648397445679 ], [ -104.892979741096497, 38.78162682056427 ], [ -104.892981767654419, 38.781618237495422 ], [ -104.89295768737793, 38.781594157218933 ], [ -104.892956137657166, 38.781571865081787 ], [ -104.892950892448425, 38.781515717506409 ], [ -104.892956972122192, 38.781506538391113 ], [ -104.892961502075195, 38.781499862670898 ], [ -104.892988324165344, 38.781464457511902 ], [ -104.893008708953857, 38.781425833702087 ], [ -104.892998814582825, 38.781422257423401 ], [ -104.892963767051697, 38.781410813331604 ], [ -104.892979264259338, 38.781344056129456 ], [ -104.892982602119446, 38.781320571899414 ], [ -104.89298141002655, 38.781258702278137 ], [ -104.892966866493225, 38.781179428100586 ], [ -104.892958641052246, 38.781105399131775 ], [ -104.89296019077301, 38.781087398529053 ], [ -104.892953038215637, 38.781068682670593 ], [ -104.892943978309631, 38.781052708625793 ], [ -104.892939925193787, 38.781028032302856 ], [ -104.892953276634216, 38.781013369560242 ], [ -104.892963409423828, 38.78096616268158 ], [ -104.89296817779541, 38.780949115753174 ], [ -104.89296555519104, 38.780937314033508 ], [ -104.892964839935303, 38.780905723571777 ], [ -104.892960906028748, 38.780900239944458 ], [ -104.892956852912903, 38.780887722969055 ], [ -104.892957210540771, 38.780881762504578 ], [ -104.892945051193237, 38.780868053436279 ], [ -104.892916917800903, 38.7808518409729 ], [ -104.892886638641357, 38.780831694602966 ], [ -104.892876982688904, 38.780802607536316 ], [ -104.892854809761047, 38.780736088752747 ], [ -104.892853617668152, 38.780730724334717 ], [ -104.892880320549011, 38.780708909034729 ], [ -104.892882347106934, 38.780700922012329 ], [ -104.892881512641907, 38.780690550804138 ], [ -104.892874956130981, 38.780654191970825 ], [ -104.892846941947937, 38.780638456344604 ], [ -104.892835021018982, 38.780628561973572 ], [ -104.892824649810791, 38.780616402626038 ], [ -104.892818570137024, 38.780609965324402 ], [ -104.89281165599823, 38.780599117279053 ], [ -104.892811059951782, 38.780569553375244 ], [ -104.89281165599823, 38.780553340911865 ], [ -104.892805337905884, 38.780532002449036 ], [ -104.892811894416809, 38.780520439147949 ], [ -104.892807364463806, 38.780509114265442 ], [ -104.892814040184021, 38.780490756034851 ], [ -104.892805814743042, 38.780481219291687 ], [ -104.892796993255615, 38.780477643013 ], [ -104.892799615859985, 38.780460596084595 ], [ -104.892784595489502, 38.780423521995544 ], [ -104.892771124839783, 38.78039276599884 ], [ -104.892742395401001, 38.780340433120728 ], [ -104.892735004425049, 38.780333995819092 ], [ -104.89271342754364, 38.780312538146973 ], [ -104.892695665359497, 38.780306935310364 ], [ -104.892695188522339, 38.780296921730042 ], [ -104.892675638198853, 38.7802654504776 ], [ -104.892674446105957, 38.780204296112061 ], [ -104.892667055130005, 38.780194878578186 ], [ -104.892655968666077, 38.780200242996216 ], [ -104.892579674720764, 38.780141353607178 ], [ -104.892568111419678, 38.780133485794067 ], [ -104.892561078071594, 38.780131697654724 ], [ -104.892548203468323, 38.780123949050903 ], [ -104.892533302307129, 38.780113935470581 ], [ -104.892493367195129, 38.780068278312683 ], [ -104.892488837242126, 38.780061364173889 ], [ -104.892459869384766, 38.780020236968994 ], [ -104.89243495464325, 38.779972910881042 ], [ -104.89242696762085, 38.779961705207825 ], [ -104.892411589622498, 38.779950976371765 ], [ -104.892399430274963, 38.779893040657043 ], [ -104.892393708229065, 38.779842972755432 ], [ -104.892401456832886, 38.779820561408997 ], [ -104.892387747764587, 38.779786586761475 ], [ -104.892395377159119, 38.779763698577881 ], [ -104.892404198646545, 38.77974796295166 ], [ -104.892374277114868, 38.779716014862061 ], [ -104.892360091209412, 38.779712915420532 ], [ -104.892319917678833, 38.779698252677917 ], [ -104.892269611358643, 38.779659032821655 ], [ -104.892256379127502, 38.779601097106934 ], [ -104.892255663871765, 38.779596447944641 ], [ -104.892254948616028, 38.779595732688904 ], [ -104.892254233360291, 38.779587864875793 ], [ -104.892255425453186, 38.779586553573608 ], [ -104.892240762710571, 38.779538035392761 ], [ -104.892265796661377, 38.779515266418457 ], [ -104.892272591590881, 38.779513597488403 ], [ -104.89223313331604, 38.779516816139221 ], [ -104.892171740531921, 38.779517292976379 ], [ -104.892122387886047, 38.779496073722839 ], [ -104.892121434211731, 38.779488801956177 ], [ -104.892080903053284, 38.779444098472595 ], [ -104.8920658826828, 38.779433131217957 ], [ -104.892034530639648, 38.779392242431641 ], [ -104.891999006271362, 38.77933669090271 ], [ -104.891993641853333, 38.779329657554626 ], [ -104.891990900039673, 38.779320240020752 ], [ -104.891999244689941, 38.779294013977051 ], [ -104.891989588737488, 38.779295086860657 ], [ -104.891963005065918, 38.779269576072693 ], [ -104.891961932182312, 38.77924644947052 ], [ -104.891960978507996, 38.779223918914795 ], [ -104.891928672790527, 38.779178380966187 ], [ -104.89191734790802, 38.779160261154175 ], [ -104.891885638237, 38.779130458831787 ], [ -104.891879200935364, 38.779120802879333 ], [ -104.891886591911316, 38.779091835021973 ], [ -104.891886353492737, 38.779083371162415 ], [ -104.891864061355591, 38.779040098190308 ], [ -104.891860365867615, 38.778974175453186 ], [ -104.891851544380188, 38.778937101364136 ], [ -104.891854763031006, 38.778897166252136 ], [ -104.891849160194397, 38.778876781463623 ], [ -104.891863703727722, 38.778845548629761 ], [ -104.891860961914062, 38.778806328773499 ], [ -104.891852736473083, 38.778799533843994 ], [ -104.891852378845215, 38.778796434402466 ], [ -104.891855597496033, 38.778766274452209 ], [ -104.891867995262146, 38.778741955757141 ], [ -104.891867160797119, 38.778737425804138 ], [ -104.891857624053955, 38.778724789619446 ], [ -104.891854643821716, 38.778713464736938 ], [ -104.891835570335388, 38.778681039810181 ], [ -104.89183783531189, 38.77866804599762 ], [ -104.891837120056152, 38.778654217720032 ], [ -104.891843438148499, 38.778640031814575 ], [ -104.891850113868713, 38.77862286567688 ], [ -104.891854643821716, 38.778621435165405 ], [ -104.891853928565979, 38.77860689163208 ], [ -104.891850590705872, 38.778590679168701 ], [ -104.891831517219543, 38.778570890426636 ], [ -104.891828894615173, 38.77856183052063 ], [ -104.891816973686218, 38.778556108474731 ], [ -104.891806960105896, 38.778544306755066 ], [ -104.891796112060547, 38.778544306755066 ], [ -104.891809940338135, 38.778509616851807 ], [ -104.89182436466217, 38.778498768806458 ], [ -104.891825199127197, 38.778494119644165 ], [ -104.891849517822266, 38.778461337089539 ], [ -104.891851902008057, 38.778457641601562 ], [ -104.891857147216797, 38.778450012207031 ], [ -104.891841530799866, 38.778396844863892 ], [ -104.891830325126648, 38.778359532356262 ], [ -104.891839742660522, 38.778340935707092 ], [ -104.891895890235901, 38.778278350830078 ], [ -104.89189624786377, 38.778275489807129 ], [ -104.89190936088562, 38.7782222032547 ], [ -104.891930937767029, 38.778194785118103 ], [ -104.891948461532593, 38.778176188468933 ], [ -104.891948461532593, 38.778158187866211 ], [ -104.891949534416199, 38.778099298477173 ], [ -104.891956090927124, 38.77802312374115 ], [ -104.891959428787231, 38.778013229370117 ], [ -104.892002820968628, 38.777956366539001 ], [ -104.892001390457153, 38.777943253517151 ], [ -104.892006993293762, 38.777922391891479 ], [ -104.892007827758789, 38.777910709381104 ], [ -104.892029166221619, 38.777854084968567 ], [ -104.89206075668335, 38.777817726135254 ], [ -104.892062664031982, 38.777797341346741 ], [ -104.892062902450562, 38.777770757675171 ], [ -104.892068982124329, 38.777764081954956 ], [ -104.892069220542908, 38.777715444564819 ], [ -104.892072916030884, 38.77769935131073 ], [ -104.892083048820496, 38.777681827545166 ], [ -104.892095327377319, 38.777644276618958 ], [ -104.892090916633606, 38.777619481086731 ], [ -104.892077684402466, 38.777595996856689 ], [ -104.892096161842346, 38.777570605278015 ], [ -104.89210057258606, 38.777554035186768 ], [ -104.892097234725952, 38.777524352073669 ], [ -104.892094135284424, 38.777515053749084 ], [ -104.892089605331421, 38.777490973472595 ], [ -104.892088413238525, 38.777486681938171 ], [ -104.892096757888794, 38.777472257614136 ], [ -104.892090439796448, 38.777435898780823 ], [ -104.892090320587158, 38.777421474456787 ], [ -104.892096638679504, 38.777407288551331 ], [ -104.892119884490967, 38.777386426925659 ], [ -104.892122387886047, 38.777366757392883 ], [ -104.892118811607361, 38.777349710464478 ], [ -104.892119765281677, 38.777328610420227 ], [ -104.892115831375122, 38.777300596237183 ], [ -104.892113924026489, 38.777276158332825 ], [ -104.892110466957092, 38.777269601821899 ], [ -104.892066597938538, 38.777237057685852 ], [ -104.892058491706848, 38.777227401733398 ], [ -104.892033696174622, 38.777185559272766 ], [ -104.892012000083923, 38.777161240577698 ], [ -104.892006516456604, 38.777151584625244 ], [ -104.891980051994324, 38.777137994766235 ], [ -104.891977190971375, 38.777133584022522 ], [ -104.892003536224365, 38.777114272117615 ], [ -104.891998052597046, 38.777099370956421 ], [ -104.891979694366455, 38.777081847190857 ], [ -104.891980290412903, 38.777042865753174 ], [ -104.891989946365356, 38.777033686637878 ], [ -104.89200496673584, 38.776984691619873 ], [ -104.891995549201965, 38.77695107460022 ], [ -104.89200222492218, 38.776922702789307 ], [ -104.892027616500854, 38.776861548423767 ], [ -104.892042279243469, 38.77682888507843 ], [ -104.89204740524292, 38.77682089805603 ], [ -104.892044186592102, 38.776826858520508 ], [ -104.892071485519409, 38.776789784431458 ], [ -104.892079830169678, 38.776783585548401 ], [ -104.89208972454071, 38.776707768440247 ], [ -104.892097353935242, 38.776653051376343 ], [ -104.892091631889343, 38.776641368865967 ], [ -104.892084836959839, 38.776621580123901 ], [ -104.892085790634155, 38.776606678962708 ], [ -104.892065048217773, 38.776554822921753 ], [ -104.892071008682251, 38.776522517204285 ], [ -104.892077565193176, 38.776490449905396 ], [ -104.89208722114563, 38.776446104049683 ], [ -104.892094135284424, 38.776432394981384 ], [ -104.892101287841797, 38.776425838470459 ], [ -104.892145037651062, 38.776394367218018 ], [ -104.892162680625916, 38.776365637779236 ], [ -104.892166376113892, 38.776355385780334 ], [ -104.892178773880005, 38.776302576065063 ], [ -104.892205357551575, 38.776278257369995 ], [ -104.892179369926453, 38.776255369186401 ], [ -104.892178773880005, 38.776243805885315 ], [ -104.892178535461426, 38.776237487792969 ], [ -104.892191052436829, 38.776219010353088 ], [ -104.892214417457581, 38.776208877563477 ], [ -104.892212748527527, 38.776205062866211 ], [ -104.892205119132996, 38.776195406913757 ], [ -104.892218112945557, 38.776174306869507 ], [ -104.892244935035706, 38.776149392127991 ], [ -104.892243981361389, 38.776116371154785 ], [ -104.892245411872864, 38.776109099388123 ], [ -104.89224898815155, 38.776092648506165 ], [ -104.892241239547729, 38.77607250213623 ], [ -104.892239809036255, 38.776048183441162 ], [ -104.892258763313293, 38.776002526283264 ], [ -104.892256617546082, 38.775999307632446 ], [ -104.892245531082153, 38.775980114936829 ], [ -104.892249941825867, 38.775970935821533 ], [ -104.892269134521484, 38.775946497917175 ], [ -104.892290830612183, 38.775918483734131 ], [ -104.892295360565186, 38.775910615921021 ], [ -104.892284154891968, 38.77588951587677 ], [ -104.892280220985413, 38.775844693183899 ], [ -104.892282485961914, 38.775838136672974 ], [ -104.892271399497986, 38.775800824165344 ], [ -104.892263770103455, 38.775788426399231 ], [ -104.892246127128601, 38.775754332542419 ], [ -104.89220404624939, 38.775704264640808 ], [ -104.892205119132996, 38.775697469711304 ], [ -104.892168045043945, 38.77568519115448 ], [ -104.892153143882751, 38.775668740272522 ], [ -104.892141342163086, 38.77567458152771 ], [ -104.892123818397522, 38.775678634643555 ], [ -104.892112731933594, 38.775717377662659 ], [ -104.892112135887146, 38.775719165802002 ], [ -104.892110466957092, 38.775709390640259 ], [ -104.892122030258179, 38.775713682174683 ], [ -104.892122745513916, 38.775713205337524 ], [ -104.892122745513916, 38.775713205337524 ], [ -104.892122268676758, 38.775709867477417 ], [ -104.8921217918396, 38.775707483291626 ], [ -104.892125844955444, 38.775656819343567 ], [ -104.892159342765808, 38.775631070137024 ], [ -104.892170548439026, 38.775619745254517 ], [ -104.89218008518219, 38.77561628818512 ], [ -104.892209529876709, 38.775578498840332 ], [ -104.892222285270691, 38.775551795959473 ], [ -104.892218947410583, 38.775517106056213 ], [ -104.892240524291992, 38.775476694107056 ], [ -104.892264604568481, 38.775429606437683 ], [ -104.892318964004517, 38.775412321090698 ], [ -104.892320275306702, 38.775396943092346 ], [ -104.892331123352051, 38.775390386581421 ], [ -104.892340898513794, 38.775387525558472 ], [ -104.892328977584839, 38.775382995605469 ], [ -104.892319440841675, 38.77537727355957 ], [ -104.892315983772278, 38.775379061698914 ], [ -104.892315864562988, 38.775382161140442 ], [ -104.892322301864624, 38.775375008583069 ], [ -104.892320871353149, 38.775385856628418 ], [ -104.892309784889221, 38.775386810302734 ], [ -104.892290592193604, 38.775368213653564 ], [ -104.892286062240601, 38.775359630584717 ], [ -104.892266273498535, 38.775352954864502 ], [ -104.892259001731873, 38.77535080909729 ], [ -104.892229914665222, 38.775346517562866 ], [ -104.892199754714966, 38.775352239608765 ], [ -104.892170906066895, 38.775363564491272 ], [ -104.892172574996948, 38.775362133979797 ], [ -104.892173528671265, 38.775360941886902 ], [ -104.89217209815979, 38.775357604026794 ], [ -104.892182469367981, 38.775350570678711 ], [ -104.892193198204041, 38.775362849235535 ], [ -104.89219069480896, 38.775365948677063 ], [ -104.892195343971252, 38.775368213653564 ], [ -104.892220854759216, 38.775406718254089 ], [ -104.892220020294189, 38.775404572486877 ], [ -104.892191648483276, 38.775375247001648 ], [ -104.892187237739563, 38.775354385375977 ], [ -104.892166137695312, 38.775300979614258 ], [ -104.892184019088745, 38.775265574455261 ] ] ] } },
{ "type": "Feature", "properties": { "full_id": null, "osm_id": null, "osm_type": "trail", "type": null, "route": null, "name": "middle sweetwater canyon", "kind": "trail" }, "geometry": { "type": "MultiLineString", "coordinates": [ [ [ -104.895387643091752, 38.783560736262885 ], [ -104.895385384559631, 38.783558130264282 ], [ -104.895369172096252, 38.78350567817688 ], [ -104.895358204841614, 38.783503532409668 ], [ -104.89534866809845, 38.783514022827148 ], [ -104.89534068107605, 38.783518314361572 ], [ -104.895336866378784, 38.78351628780365 ], [ -104.895337581634521, 38.783518314361572 ], [ -104.895335078239441, 38.783521056175232 ], [ -104.89530885219574, 38.783560156822205 ], [ -104.895298838615417, 38.783563733100891 ], [ -104.895259737968445, 38.783554553985596 ], [ -104.895259141921997, 38.783550620079041 ], [ -104.895227193832397, 38.78350031375885 ], [ -104.895221352577209, 38.783479571342468 ], [ -104.895197987556458, 38.783453822135925 ], [ -104.895187020301819, 38.783432841300964 ], [ -104.89517879486084, 38.783424019813538 ], [ -104.895188927650452, 38.783382654190063 ], [ -104.895211458206177, 38.783331990242004 ], [ -104.895242691040039, 38.783326864242554 ], [ -104.89532458782196, 38.783328056335449 ], [ -104.8953458070755, 38.783324003219604 ], [ -104.895405769348145, 38.78331983089447 ], [ -104.895438551902771, 38.783337593078613 ], [ -104.895527839660645, 38.783363819122314 ], [ -104.895567655563354, 38.783376812934875 ], [ -104.895625352859497, 38.78340220451355 ], [ -104.895725250244141, 38.783414959907532 ], [ -104.895731449127197, 38.783416867256165 ], [ -104.895754933357239, 38.783441424369812 ], [ -104.895793318748474, 38.783479332923889 ], [ -104.895805478096008, 38.783492922782898 ], [ -104.895815849304199, 38.783493757247925 ], [ -104.895830273628235, 38.783509731292725 ], [ -104.895847320556641, 38.783512353897095 ], [ -104.895856261253357, 38.783516764640808 ], [ -104.895878314971924, 38.783516645431519 ], [ -104.895879983901978, 38.783497214317322 ], [ -104.895906686782837, 38.783444046974182 ], [ -104.895909309387207, 38.78342604637146 ], [ -104.89591109752655, 38.783414125442505 ], [ -104.895919680595398, 38.783410549163818 ], [ -104.895990371704102, 38.783351182937622 ], [ -104.895990133285522, 38.783342838287354 ], [ -104.895994544029236, 38.783337354660034 ], [ -104.896005511283875, 38.783331155776978 ], [ -104.89601743221283, 38.783324003219604 ], [ -104.896026492118835, 38.783313751220703 ], [ -104.896040797233582, 38.783306241035461 ], [ -104.896044492721558, 38.783296823501587 ], [ -104.896046996116638, 38.783283114433289 ], [ -104.896050095558167, 38.783244967460632 ], [ -104.896052002906799, 38.78323769569397 ], [ -104.896049618721008, 38.783184289932251 ], [ -104.896050214767456, 38.783173561096191 ], [ -104.896053671836853, 38.783161640167236 ], [ -104.896045684814453, 38.783141493797302 ], [ -104.896043539047241, 38.783120393753052 ], [ -104.896045088768005, 38.783110737800598 ], [ -104.896048784255981, 38.783100962638855 ], [ -104.896047711372375, 38.783078789710999 ], [ -104.896043539047241, 38.783068776130676 ], [ -104.896021962165833, 38.783044457435608 ], [ -104.895968437194824, 38.782957792282104 ], [ -104.895976781845093, 38.782939195632935 ], [ -104.89598548412323, 38.782891631126404 ], [ -104.895975947380066, 38.782869219779968 ], [ -104.89598023891449, 38.782853245735168 ], [ -104.89596951007843, 38.782811880111694 ], [ -104.895969986915588, 38.782798171043396 ], [ -104.895999550819397, 38.782734513282776 ], [ -104.895985126495361, 38.782705545425415 ], [ -104.895961880683899, 38.782673835754395 ], [ -104.895960688591003, 38.782667517662048 ], [ -104.895975470542908, 38.782657146453857 ], [ -104.895997405052185, 38.782644748687744 ], [ -104.896009683609009, 38.782640218734741 ], [ -104.896011471748352, 38.782640814781189 ], [ -104.896019577980042, 38.782642126083374 ], [ -104.896034479141235, 38.782644987106323 ], [ -104.896084904670715, 38.78265118598938 ], [ -104.896113991737366, 38.782655835151672 ], [ -104.896172404289246, 38.782642126083374 ], [ -104.896175861358643, 38.782636404037476 ], [ -104.896171569824219, 38.782627582550049 ], [ -104.896193385124207, 38.78256893157959 ], [ -104.896196484565735, 38.782564520835876 ], [ -104.896194458007812, 38.78254508972168 ], [ -104.896183729171753, 38.782544255256653 ], [ -104.896176099777222, 38.78254497051239 ], [ -104.896103858947754, 38.782562375068665 ], [ -104.896077275276184, 38.782554149627686 ], [ -104.896062254905701, 38.782536625862122 ], [ -104.896050453186035, 38.782503008842468 ], [ -104.896074414253235, 38.78250527381897 ], [ -104.896089434623718, 38.7825026512146 ], [ -104.896103024482727, 38.782479405403137 ], [ -104.896112084388733, 38.782460331916809 ], [ -104.896121382713318, 38.782444477081299 ], [ -104.896124124526978, 38.78244149684906 ], [ -104.89618968963623, 38.782436847686768 ], [ -104.896230936050415, 38.782408118247986 ], [ -104.8962322473526, 38.782389044761658 ], [ -104.896227836608887, 38.782390356063843 ], [ -104.896218538284302, 38.782389163970947 ], [ -104.896206617355347, 38.782373547554016 ], [ -104.896194219589233, 38.782373905181885 ], [ -104.896194219589233, 38.782373905181885 ], [ -104.896157264709473, 38.782310843467712 ], [ -104.896158456802368, 38.78226637840271 ], [ -104.896163582801819, 38.782229065895081 ], [ -104.896161437034607, 38.782220959663391 ], [ -104.896171927452087, 38.782159328460693 ], [ -104.896135330200195, 38.782121062278748 ], [ -104.896123051643372, 38.782110095024109 ], [ -104.896105051040649, 38.782097220420837 ], [ -104.896101236343384, 38.782086491584778 ], [ -104.896085977554321, 38.782045841217041 ], [ -104.896065711975098, 38.782046675682068 ], [ -104.896027565002441, 38.782034873962402 ], [ -104.89601719379425, 38.782030940055847 ], [ -104.89601469039917, 38.782023549079895 ], [ -104.896005630493164, 38.781977653503418 ], [ -104.896002769470215, 38.781961441040039 ], [ -104.895984172821045, 38.781899213790894 ], [ -104.895971655845642, 38.781878471374512 ], [ -104.895977139472961, 38.781862378120422 ], [ -104.895982146263123, 38.781842827796936 ], [ -104.89599084854126, 38.781816959381104 ], [ -104.895977377891541, 38.781766533851624 ], [ -104.895984053611755, 38.78175163269043 ], [ -104.895992040634155, 38.781732797622681 ], [ -104.89600133895874, 38.781724333763123 ], [ -104.896022319793701, 38.781706571578979 ], [ -104.896041512489319, 38.781674742698669 ], [ -104.89606237411499, 38.781653761863708 ], [ -104.896095991134644, 38.781600952148438 ], [ -104.896095991134644, 38.781575441360474 ], [ -104.896105170249939, 38.781565308570862 ], [ -104.896134376525879, 38.781532883644104 ], [ -104.896137237548828, 38.781489849090576 ], [ -104.896130084991455, 38.781456589698792 ], [ -104.89611828327179, 38.781423807144165 ], [ -104.896122694015503, 38.781403779983521 ], [ -104.896101713180542, 38.781335830688477 ], [ -104.896108508110046, 38.781323909759521 ], [ -104.896139025688171, 38.781257271766663 ], [ -104.896133661270142, 38.781230688095093 ], [ -104.896133184432983, 38.781220316886902 ], [ -104.896140336990356, 38.781216144561768 ], [ -104.896197438240051, 38.781175851821899 ], [ -104.896271586418152, 38.781147480010986 ], [ -104.896281719207764, 38.781139373779297 ], [ -104.896302223205566, 38.781121850013733 ], [ -104.89631745901535, 38.781109388522353 ], [ -104.896393768919822, 38.781058399674798 ], [ -104.896402716636658, 38.781049370765686 ], [ -104.896416425704956, 38.781040787696838 ], [ -104.896422147750854, 38.781020283699036 ], [ -104.896391786844376, 38.781029042443002 ], [ -104.896372957127667, 38.781038313149082 ], [ -104.896348181184678, 38.781054536881832 ], [ -104.896327369392552, 38.781068442935528 ], [ -104.896303534507751, 38.781083464622498 ], [ -104.896289110183716, 38.781086444854736 ], [ -104.896260380744934, 38.781110167503357 ], [ -104.896261215209961, 38.781116724014282 ], [ -104.896236062049866, 38.781130075454712 ], [ -104.896198153495789, 38.78113842010498 ], [ -104.896183729171753, 38.781150817871094 ], [ -104.896115779876709, 38.781169772148132 ], [ -104.896093249320984, 38.781178593635559 ], [ -104.896046876907349, 38.781185626983643 ], [ -104.895970106124878, 38.781232833862305 ], [ -104.895971894264221, 38.781257510185242 ], [ -104.895964980125427, 38.781266331672668 ], [ -104.89596962928772, 38.781273722648621 ], [ -104.895911574363708, 38.781314373016357 ], [ -104.895864963531494, 38.781359791755676 ], [ -104.895861625671387, 38.781368136405945 ], [ -104.895851016044617, 38.781381011009216 ], [ -104.895845770835876, 38.781391978263855 ], [ -104.895810604095459, 38.781425476074219 ], [ -104.895758032798767, 38.781467795372009 ], [ -104.895728707313538, 38.781485557556152 ], [ -104.895711779594421, 38.781492114067078 ], [ -104.895687103271484, 38.781513929367065 ], [ -104.895628809928894, 38.781574606895447 ], [ -104.895562052726746, 38.781609058380127 ], [ -104.895553588867188, 38.781603455543518 ], [ -104.895520567893982, 38.781586766242981 ], [ -104.895504832267761, 38.781582117080688 ], [ -104.895485520362854, 38.781579971313477 ], [ -104.895464658737183, 38.781577467918396 ], [ -104.895378112792969, 38.781563639640808 ], [ -104.895355582237244, 38.78156304359436 ], [ -104.895328640937805, 38.781567931175232 ], [ -104.895335912704468, 38.781586885452271 ], [ -104.895333647727966, 38.781609892845154 ], [ -104.895329833030701, 38.781630992889404 ], [ -104.895358204841614, 38.781678438186646 ], [ -104.895362854003906, 38.781699061393738 ], [ -104.895381927490234, 38.781747341156006 ], [ -104.895406484603882, 38.781789898872375 ], [ -104.89540433883667, 38.781817197799683 ], [ -104.895364284515381, 38.781807780265808 ], [ -104.895353078842163, 38.781799554824829 ], [ -104.895331144332886, 38.781782984733582 ], [ -104.895327687263489, 38.781774044036865 ], [ -104.895290493965149, 38.781780362129211 ] ] ] } },
{ "type": "Feature", "properties": { "full_id": null, "osm_id": null, "osm_type": "trail", "type": "trail", "route": null, "name": "Sweetwater Canyon Trail", "kind": null }, "geometry": { "type": "MultiLineString", "coordinates": [ [ [ -104.894760967153147, 38.785145304302944 ], [ -104.89459053536774, 38.785130121256316 ], [ -104.894610013286083, 38.785004860998221 ], [ -104.894644099643159, 38.784883396295363 ], [ -104.894536971092336, 38.784845438533296 ], [ -104.894361669827347, 38.784993473691117 ], [ -104.894235063358195, 38.784974494841912 ], [ -104.894118195848208, 38.784974494841912 ], [ -104.893655595287825, 38.785092163625592 ], [ -104.893404461144016, 38.785124019633727 ], [ -104.893128279221912, 38.785205349091434 ], [ -104.892790723539349, 38.785262758064547 ], [ -104.892631151762117, 38.785176644587544 ], [ -104.892532953745359, 38.785190996840925 ], [ -104.892404068848407, 38.785257973985203 ], [ -104.892281321327459, 38.785176644587544 ], [ -104.892244497071161, 38.785085746915655 ], [ -104.89223222231908, 38.784875246598986 ], [ -104.892219947566971, 38.784597767959333 ], [ -104.89217698593464, 38.784478164764373 ] ] ] } },
{ "type": "Feature", "properties": { "full_id": null, "osm_id": null, "osm_type": null, "type": "trail", "route": "trail", "name": "Mount Muscoco Trail", "kind": "trail" }, "geometry": { "type": "MultiLineString", "coordinates": [ [ [ -104.890893261338022, 38.786275197532632 ], [ -104.890905770467469, 38.785987550806041 ], [ -104.89088075220856, 38.785812036979053 ], [ -104.890824461125945, 38.785519512973927 ], [ -104.890968316114794, 38.785368375101058 ], [ -104.891049625456361, 38.785226987768652 ], [ -104.891068389150533, 38.78509535103472 ], [ -104.891137189362638, 38.785100226473638 ], [ -104.8911684621863, 38.785300119182487 ], [ -104.891162207621562, 38.785534139202703 ], [ -104.8911496984921, 38.785607270301497 ], [ -104.891199735009963, 38.785602394897232 ], [ -104.891406135646179, 38.785192859749849 ], [ -104.891643809106057, 38.784778446789538 ], [ -104.891612536282395, 38.78437378239807 ], [ -104.892171176967651, 38.784507296141371 ] ] ] } }
]
}
