{
"type": "FeatureCollection",
"name": "gogaoiFront",
"crs": { "type": "name", "properties": { "name": "urn:ogc:def:crs:OGC:1.3:CRS84" } },
"features": [
{ "type": "Feature", "properties": { "id": null, "name": "kissing camels", "type": "red rock", "fid": 6, "auxiliary_storage_labeling_positionx": null, "auxiliary_storage_labeling_positiony": null }, "geometry": { "type": "MultiPolygon", "coordinates": [ [ [ [ -104.881138221678924, 38.872720821092187 ], [ -104.88114827718087, 38.872903213356366 ], [ -104.881219083960843, 38.873485095617127 ], [ -104.881297758160827, 38.873938347972285 ], [ -104.881407902040763, 38.874183348041861 ], [ -104.881376432360796, 38.874471222044434 ], [ -104.881258421060849, 38.87461822108537 ], [ -104.881171879440856, 38.874752969939152 ], [ -104.881093205240916, 38.874795844520875 ], [ -104.881022398460956, 38.874795844520875 ], [ -104.880857182641009, 38.874697845438952 ], [ -104.880849315221027, 38.874918343183253 ], [ -104.880747038761072, 38.874942842890398 ], [ -104.88070770166108, 38.874765219822287 ], [ -104.880754906181068, 38.874661095748394 ], [ -104.88069196682109, 38.874544721602902 ], [ -104.880495281321174, 38.874465097077795 ], [ -104.880377270021199, 38.874514096796105 ], [ -104.88027330021653, 38.874376188711047 ], [ -104.880189210629894, 38.874076916064396 ], [ -104.880321351408881, 38.873945983885221 ], [ -104.880405440995503, 38.873861813071237 ], [ -104.880297325812705, 38.87369347114425 ], [ -104.880141159437542, 38.873300671763971 ], [ -104.880105121043258, 38.872963984853058 ], [ -104.880105121043258, 38.872589886414843 ], [ -104.880153172235637, 38.872384131434551 ], [ -104.880417453793598, 38.872318663815882 ], [ -104.880549594572571, 38.872140965689916 ], [ -104.880609658563017, 38.871963267119682 ], [ -104.880861927322869, 38.871944561981167 ], [ -104.881054132092331, 38.872243843606469 ], [ -104.881138221678924, 38.872720821092187 ] ] ] ] } },
{ "type": "Feature", "properties": { "id": null, "name": null, "type": "red rock", "fid": 7, "auxiliary_storage_labeling_positionx": null, "auxiliary_storage_labeling_positiony": null }, "geometry": { "type": "MultiPolygon", "coordinates": [ [ [ [ -104.877463847071439, 38.864193513574378 ], [ -104.877573034292681, 38.86417741659411 ], [ -104.877605909461721, 38.864215813249835 ], [ -104.87764974302047, 38.864241411008813 ], [ -104.877701795371479, 38.864241411008813 ], [ -104.877726451748288, 38.864288340209669 ], [ -104.877756587319908, 38.864331003092637 ], [ -104.877773024904471, 38.864394997369111 ], [ -104.877740149735402, 38.864454725308512 ], [ -104.877737410137982, 38.864548583397628 ], [ -104.877688097384393, 38.864648840765042 ], [ -104.877644263825644, 38.86476402990629 ], [ -104.877592211474607, 38.864866420097378 ], [ -104.877551117513292, 38.864938946393487 ], [ -104.877490846370023, 38.86497307638961 ], [ -104.877416877239639, 38.864985875133918 ], [ -104.877386741668005, 38.864981608886104 ], [ -104.877386741668005, 38.864936813268208 ], [ -104.877427835629319, 38.86486215384236 ], [ -104.877452492006128, 38.864776828688235 ], [ -104.877460710798388, 38.864687237166201 ], [ -104.87744427321384, 38.864636041960068 ], [ -104.877447012811274, 38.864551791212364 ], [ -104.877475069911526, 38.86449062198735 ], [ -104.877435789971202, 38.864438191181165 ], [ -104.87740773287095, 38.864337698694548 ], [ -104.877463847071439, 38.864193513574378 ] ] ] ] } },
{ "type": "Feature", "properties": { "id": null, "name": null, "type": "light rock", "fid": 8, "auxiliary_storage_labeling_positionx": null, "auxiliary_storage_labeling_positiony": null }, "geometry": { "type": "MultiPolygon", "coordinates": [ [ [ [ -104.879482357692197, 38.872978626199632 ], [ -104.87955214387668, 38.87348118877587 ], [ -104.879583864869602, 38.873708390346621 ], [ -104.879666339451248, 38.873984982582897 ], [ -104.879742469834312, 38.874059069606297 ], [ -104.879799567621603, 38.874271451978608 ], [ -104.879932795791973, 38.874676458464421 ], [ -104.879970860983477, 38.874839448228123 ], [ -104.879843977011731, 38.874953046933321 ], [ -104.879742469834312, 38.875145670409751 ], [ -104.879698060444184, 38.875155548522649 ], [ -104.879647306855489, 38.875007376684671 ], [ -104.879590209068184, 38.875002437618065 ], [ -104.87955214387668, 38.874878960841841 ], [ -104.879482357692197, 38.874671519374843 ], [ -104.879406227309147, 38.874539398601058 ], [ -104.879253966543018, 38.874203539079744 ], [ -104.879076328982549, 38.873986217367261 ], [ -104.878974821805144, 38.873734320914508 ], [ -104.878866970429144, 38.87340833594449 ], [ -104.878892347223498, 38.872983565406876 ], [ -104.878987510202307, 38.872909477262411 ], [ -104.879057296386776, 38.872860085123165 ], [ -104.879120738372677, 38.872860085123165 ], [ -104.879171491961387, 38.872874902768544 ], [ -104.879266654940196, 38.872825510605303 ], [ -104.879361817919019, 38.872845267474723 ], [ -104.879418915706324, 38.872894659624222 ], [ -104.879482357692197, 38.872978626199632 ] ] ] ] } },
{ "type": "Feature", "properties": { "id": null, "name": "visitor center", "type": "building", "fid": 22, "auxiliary_storage_labeling_positionx": -104.86938518487506, "auxiliary_storage_labeling_positiony": 38.878456684411866 }, "geometry": { "type": "MultiPolygon", "coordinates": [ [ [ [ -104.870018070287415, 38.878629250674685 ], [ -104.869876496221039, 38.878750766585647 ], [ -104.869814784448536, 38.878736636839243 ], [ -104.869756702780293, 38.878626424720785 ], [ -104.869698621112008, 38.878603817085626 ], [ -104.869622388922451, 38.878612294949654 ], [ -104.869531636315799, 38.878380566302155 ], [ -104.869553416941386, 38.878338176833658 ], [ -104.869586087879782, 38.878301439273834 ], [ -104.869553416941386, 38.878205356335272 ], [ -104.869626019026711, 38.878123403137977 ], [ -104.86982204465707, 38.878143184952876 ], [ -104.869883756429573, 38.878278831535262 ], [ -104.869938207993599, 38.878295787339859 ], [ -104.869992659557568, 38.878425781707335 ], [ -104.869949098306378, 38.878451215360123 ], [ -104.870018070287415, 38.878629250674685 ] ] ] ] } },
{ "type": "Feature", "properties": { "id": "1234328", "name": "dog park", "type": "field", "fid": null, "auxiliary_storage_labeling_positionx": null, "auxiliary_storage_labeling_positiony": null }, "geometry": { "type": "MultiPolygon", "coordinates": [ [ [ [ -104.869864503201541, 38.872192566444156 ], [ -104.869660551084436, 38.872235316636811 ], [ -104.869731149894207, 38.873530024575658 ], [ -104.869621329523454, 38.873847590845614 ], [ -104.869715461269806, 38.874574323701232 ], [ -104.869880191825942, 38.875569752443134 ], [ -104.870437137991928, 38.875588073086853 ], [ -104.870821509289598, 38.875527004256071 ], [ -104.870837197913986, 38.874897992245131 ], [ -104.870892108099355, 38.874501040052692 ], [ -104.87066462304567, 38.873951410279936 ], [ -104.870468515240717, 38.873682700844071 ], [ -104.870248874499211, 38.873310170172978 ], [ -104.87009983256749, 38.872510138689897 ], [ -104.869864503201541, 38.872192566444156 ] ] ] ] } },
{ "type": "Feature", "properties": { "id": null, "name": "airbnb", "type": "house", "fid": null, "auxiliary_storage_labeling_positionx": null, "auxiliary_storage_labeling_positiony": null }, "geometry": { "type": "MultiPolygon", "coordinates": [ [ [ [ -104.873192878702866, 38.863124421429085 ], [ -104.873079374419419, 38.863050182369918 ], [ -104.872965870135943, 38.8631456325746 ], [ -104.873129316304116, 38.863297645599012 ], [ -104.873251900930242, 38.863168611308438 ], [ -104.873192878702866, 38.863124421429085 ] ] ] ] } },
{ "type": "Feature", "properties": { "id": null, "name": "overlook parking", "type": "parking lot", "fid": null, "auxiliary_storage_labeling_positionx": null, "auxiliary_storage_labeling_positiony": null }, "geometry": { "type": "MultiPolygon", "coordinates": [ [ [ [ -104.879243274718661, 38.865867668527571 ], [ -104.879228386370343, 38.865517965934792 ], [ -104.879168832976987, 38.865479324658779 ], [ -104.878876028792973, 38.865434887165414 ], [ -104.878754440614841, 38.865423294771276 ], [ -104.878682480264558, 38.865492849107781 ], [ -104.878679998873167, 38.865548878940487 ], [ -104.8790149867108, 38.865769133716924 ], [ -104.879188684108115, 38.865875396742233 ], [ -104.879230867761748, 38.865885057009386 ], [ -104.879243274718661, 38.865867668527571 ] ] ] ] } },
{ "type": "Feature", "properties": { "id": null, "name": "meadow parking", "type": "parking lot", "fid": null, "auxiliary_storage_labeling_positionx": null, "auxiliary_storage_labeling_positiony": null }, "geometry": { "type": "MultiPolygon", "coordinates": [ [ [ [ -104.878304322892106, 38.869937546803271 ], [ -104.878112549641003, 38.869433625843946 ], [ -104.878014265849842, 38.869435492224461 ], [ -104.87796392537139, 38.869467220685706 ], [ -104.878172478781991, 38.869963675940788 ], [ -104.878239599419871, 38.869974874139629 ], [ -104.878292337063911, 38.86996927504044 ], [ -104.878304322892106, 38.869937546803271 ] ] ] ] } },
{ "type": "Feature", "properties": { "id": null, "name": "park mantainence", "type": "dirt pit", "fid": null, "auxiliary_storage_labeling_positionx": null, "auxiliary_storage_labeling_positiony": null }, "geometry": { "type": "MultiPolygon", "coordinates": [ [ [ [ -104.878032757454122, 38.867192685161022 ], [ -104.877994330005237, 38.867040094470056 ], [ -104.877990487260348, 38.866836639705966 ], [ -104.877829091975087, 38.866731920115114 ], [ -104.877656168455118, 38.866734912105557 ], [ -104.877613898261359, 38.866788767912134 ], [ -104.877613898261359, 38.866944351124189 ], [ -104.877660011200035, 38.867192685161022 ], [ -104.877733023352889, 38.867258508495219 ], [ -104.877917475107481, 38.867258508495219 ], [ -104.878025071964345, 38.867231580774963 ], [ -104.878032757454122, 38.867192685161022 ] ] ] ] } },
{ "type": "Feature", "properties": { "id": null, "name": "rockledge meadow", "type": "meadow", "fid": null, "auxiliary_storage_labeling_positionx": null, "auxiliary_storage_labeling_positiony": null }, "geometry": { "type": "MultiPolygon", "coordinates": [ [ [ [ -104.874449463415317, 38.872404648215536 ], [ -104.873991121558007, 38.871636897419066 ], [ -104.873838340938903, 38.871480102222577 ], [ -104.87351889055347, 38.871534169570779 ], [ -104.872914712650669, 38.871674744483634 ], [ -104.872914712650669, 38.871950486774402 ], [ -104.873178606447311, 38.872226227995462 ], [ -104.873505001406301, 38.872588474640509 ], [ -104.874018899852388, 38.872518188122392 ], [ -104.874407795973752, 38.872496561487466 ], [ -104.874449463415317, 38.872404648215536 ] ] ] ] } },
{ "type": "Feature", "properties": { "id": null, "name": "field parking lot", "type": "parking lot", "fid": null, "auxiliary_storage_labeling_positionx": null, "auxiliary_storage_labeling_positiony": null }, "geometry": { "type": "MultiPolygon", "coordinates": [ [ [ [ -104.87107512472322, 38.876587138810969 ], [ -104.870823866292454, 38.875575090360705 ], [ -104.870348660129906, 38.875668641662308 ], [ -104.869857067547954, 38.875638875352436 ], [ -104.869824294709161, 38.875983313318542 ], [ -104.86998269676333, 38.876536111503015 ], [ -104.870408743667667, 38.876740220514947 ], [ -104.870823866292454, 38.87669344558482 ], [ -104.87107512472322, 38.876587138810969 ] ] ] ] } }
]
}
