{
"type": "FeatureCollection",
"name": "gogfront",
"crs": { "type": "name", "properties": { "name": "urn:ogc:def:crs:OGC:1.3:CRS84" } },
"features": [
{ "type": "Feature", "properties": { "fid": 259, "full_id": "w39158378", "osm_id": "39158378", "osm_type": "way", "highway": "path", "name": "Chambers Trail", "tiger:cfcc": "", "tiger:county": "", "tiger:reviewed": "", "cycleway": "", "oneway": "", "tiger:name_base": "", "tiger:name_type": "", "service": "", "access": "", "alt_name": "", "ref": "", "surface": "ground", "tiger:name_direction_prefix": "", "cycleway:both": "", "maxspeed:type": "", "sidewalk": "", "sidewalk:both:bicycle": "", "lanes": "", "bicycle": "designated", "foot": "designated", "old_railway_operator": "", "segregated": "", "bridge": "", "layer": "", "tiger:separated": "", "tiger:source": "", "tiger:tlid": "", "maxspeed": "", "name_1": "", "tiger:name_base_1": "", "tiger:name_type_1": "", "cycleway:right": "", "route": "", "tracktype": "", "horse": "", "motor_vehicle": "", "railway": "", "tiger:name_base_2": "", "tiger:zip_right": "", "name_2": "", "destination": "", "destination:ref": "", "alt_name_1": "", "parking:lane:both": "", "mtb:scale": "", "old_ref": "", "NHS": "", "hgv": "", "hgv:national_network": "", "source:hgv:national_network": "", "sac_scale": "hiking", "description": "", "website": "", "trail_visibility": "", "mtb:scale:imba": "", "admin_level": "", "border_type": "", "boundary": "", "is_in:country": "", "is_in:country_code": "", "is_in:iso_3166_2": "", "is_in:state": "", "tiger:CLASSFP": "", "tiger:CPI": "", "tiger:FUNCSTAT": "", "tiger:LSAD": "", "tiger:MTFCC": "", "tiger:NAME": "", "tiger:NAMELSAD": "", "tiger:PCICBSA": "", "tiger:PCINECTA": "", "tiger:PLACEFP": "", "tiger:PLACENS": "", "tiger:PLCIDFP": "", "tiger:STATEFP": "", "wikidata": "", "wikipedia": "", "tunnel": "", "lit": "", "width": "", "waterway": "", "barrier": "", "fence_type": "", "junction": "", "shoulder": "", "lanes:backward": "", "lanes:forward": "", "turn:lanes:backward": "", "intermittent": "", "natural": "", "seasonal": "", "footway": "", "crossing": "", "tiger:name_base_3": "", "tiger:name_direction_prefix_3": "", "turn:lanes:forward": "", "turn:lanes": "", "lanes:both_ways": "", "turn:lanes:both_ways": "", "golf": "", "golf_cart": "", "power": "", "disused:highway": "", "tourism": "", "auxiliary_storage_labeling_positionx": -104.87598745462063, "auxiliary_storage_labeling_positiony": 38.874699064315912, "auxiliary_storage_labeling_show": null, "length": 1891.8861674897435 }, "geometry": { "type": "LineString", "coordinates": [ [ -104.877609151781328, 38.877043965772344 ], [ -104.8776478, 38.8769978 ], [ -104.8776366, 38.876948 ], [ -104.8776218, 38.8768919 ], [ -104.8776048, 38.8768215 ], [ -104.8775327, 38.8767042 ], [ -104.8774892, 38.8766261 ], [ -104.877419, 38.8764968 ], [ -104.8773004, 38.8762786 ], [ -104.8771459, 38.8760247 ], [ -104.8770343, 38.8758376 ], [ -104.8769657, 38.8756572 ], [ -104.8767168, 38.8752429 ], [ -104.8765709, 38.875136 ], [ -104.8765022, 38.8750826 ], [ -104.8764335, 38.8749757 ], [ -104.8762619, 38.8748821 ], [ -104.8761503, 38.8748153 ], [ -104.87597, 38.8746616 ], [ -104.8759529, 38.8746148 ], [ -104.87591, 38.8745681 ], [ -104.8758499, 38.8745213 ], [ -104.8758155, 38.8744411 ], [ -104.8757812, 38.8743943 ], [ -104.875764, 38.8743342 ], [ -104.8756868, 38.8742273 ], [ -104.8756611, 38.8741404 ], [ -104.8756181, 38.8740602 ], [ -104.8755924, 38.8740068 ], [ -104.8755581, 38.87398 ], [ -104.8755237, 38.8739466 ], [ -104.8754894, 38.8738865 ], [ -104.8754465, 38.8737461 ], [ -104.875395, 38.8735056 ], [ -104.8753864, 38.8734054 ], [ -104.8753349, 38.8733452 ], [ -104.8753091, 38.8732918 ], [ -104.8752748, 38.873245 ], [ -104.8752319, 38.8732049 ], [ -104.8751032, 38.8730913 ], [ -104.8750602, 38.8730245 ], [ -104.8749538, 38.8729408 ], [ -104.8748492, 38.8728448 ], [ -104.8747553, 38.8727383 ], [ -104.8746052, 38.8725849 ] ] } },
{ "type": "Feature", "properties": { "fid": 260, "full_id": "w39158392", "osm_id": "39158392", "osm_type": "way", "highway": "path", "name": "Niobrara Trail", "tiger:cfcc": "", "tiger:county": "", "tiger:reviewed": "", "cycleway": "", "oneway": "", "tiger:name_base": "", "tiger:name_type": "", "service": "", "access": "", "alt_name": "", "ref": "", "surface": "dirt", "tiger:name_direction_prefix": "", "cycleway:both": "", "maxspeed:type": "", "sidewalk": "", "sidewalk:both:bicycle": "", "lanes": "", "bicycle": "designated", "foot": "designated", "old_railway_operator": "", "segregated": "", "bridge": "", "layer": "", "tiger:separated": "", "tiger:source": "", "tiger:tlid": "", "maxspeed": "", "name_1": "", "tiger:name_base_1": "", "tiger:name_type_1": "", "cycleway:right": "", "route": "", "tracktype": "", "horse": "", "motor_vehicle": "", "railway": "", "tiger:name_base_2": "", "tiger:zip_right": "", "name_2": "", "destination": "", "destination:ref": "", "alt_name_1": "", "parking:lane:both": "", "mtb:scale": "", "old_ref": "", "NHS": "", "hgv": "", "hgv:national_network": "", "source:hgv:national_network": "", "sac_scale": "hiking", "description": "", "website": "", "trail_visibility": "", "mtb:scale:imba": "", "admin_level": "", "border_type": "", "boundary": "", "is_in:country": "", "is_in:country_code": "", "is_in:iso_3166_2": "", "is_in:state": "", "tiger:CLASSFP": "", "tiger:CPI": "", "tiger:FUNCSTAT": "", "tiger:LSAD": "", "tiger:MTFCC": "", "tiger:NAME": "", "tiger:NAMELSAD": "", "tiger:PCICBSA": "", "tiger:PCINECTA": "", "tiger:PLACEFP": "", "tiger:PLACENS": "", "tiger:PLCIDFP": "", "tiger:STATEFP": "", "wikidata": "", "wikipedia": "", "tunnel": "", "lit": "", "width": "", "waterway": "", "barrier": "", "fence_type": "", "junction": "", "shoulder": "", "lanes:backward": "", "lanes:forward": "", "turn:lanes:backward": "", "intermittent": "", "natural": "", "seasonal": "", "footway": "", "crossing": "", "tiger:name_base_3": "", "tiger:name_direction_prefix_3": "", "turn:lanes:forward": "", "turn:lanes": "", "lanes:both_ways": "", "turn:lanes:both_ways": "", "golf": "", "golf_cart": "", "power": "", "disused:highway": "", "tourism": "", "auxiliary_storage_labeling_positionx": -104.87586722453526, "auxiliary_storage_labeling_positiony": 38.866551555532169, "auxiliary_storage_labeling_show": 0, "length": 477.83122560622098 }, "geometry": { "type": "LineString", "coordinates": [ [ -104.8771202, 38.8668899 ], [ -104.8771888, 38.8668765 ], [ -104.8772403, 38.8668565 ], [ -104.8772833, 38.8668164 ], [ -104.8773004, 38.8667496 ], [ -104.8772833, 38.8666493 ], [ -104.8771974, 38.866362 ], [ -104.8771545, 38.8662016 ], [ -104.8771202, 38.866088 ], [ -104.8770944, 38.8659543 ], [ -104.8770773, 38.8658206 ], [ -104.8770515, 38.865707 ], [ -104.8770328, 38.8656814 ] ] } },
{ "type": "Feature", "properties": { "fid": 265, "full_id": "w39158425", "osm_id": "39158425", "osm_type": "way", "highway": "path", "name": "", "tiger:cfcc": "", "tiger:county": "", "tiger:reviewed": "", "cycleway": "", "oneway": "", "tiger:name_base": "", "tiger:name_type": "", "service": "", "access": "", "alt_name": "", "ref": "", "surface": "ground", "tiger:name_direction_prefix": "", "cycleway:both": "", "maxspeed:type": "", "sidewalk": "", "sidewalk:both:bicycle": "", "lanes": "", "bicycle": "", "foot": "designated", "old_railway_operator": "", "segregated": "", "bridge": "", "layer": "", "tiger:separated": "", "tiger:source": "", "tiger:tlid": "", "maxspeed": "", "name_1": "", "tiger:name_base_1": "", "tiger:name_type_1": "", "cycleway:right": "", "route": "", "tracktype": "", "horse": "", "motor_vehicle": "", "railway": "", "tiger:name_base_2": "", "tiger:zip_right": "", "name_2": "", "destination": "", "destination:ref": "", "alt_name_1": "", "parking:lane:both": "", "mtb:scale": "", "old_ref": "", "NHS": "", "hgv": "", "hgv:national_network": "", "source:hgv:national_network": "", "sac_scale": "hiking", "description": "", "website": "", "trail_visibility": "", "mtb:scale:imba": "", "admin_level": "", "border_type": "", "boundary": "", "is_in:country": "", "is_in:country_code": "", "is_in:iso_3166_2": "", "is_in:state": "", "tiger:CLASSFP": "", "tiger:CPI": "", "tiger:FUNCSTAT": "", "tiger:LSAD": "", "tiger:MTFCC": "", "tiger:NAME": "", "tiger:NAMELSAD": "", "tiger:PCICBSA": "", "tiger:PCINECTA": "", "tiger:PLACEFP": "", "tiger:PLACENS": "", "tiger:PLCIDFP": "", "tiger:STATEFP": "", "wikidata": "", "wikipedia": "", "tunnel": "", "lit": "", "width": "", "waterway": "", "barrier": "", "fence_type": "", "junction": "", "shoulder": "", "lanes:backward": "", "lanes:forward": "", "turn:lanes:backward": "", "intermittent": "", "natural": "", "seasonal": "", "footway": "", "crossing": "", "tiger:name_base_3": "", "tiger:name_direction_prefix_3": "", "turn:lanes:forward": "", "turn:lanes": "", "lanes:both_ways": "", "turn:lanes:both_ways": "", "golf": "", "golf_cart": "", "power": "", "disused:highway": "", "tourism": "", "auxiliary_storage_labeling_positionx": null, "auxiliary_storage_labeling_positiony": null, "auxiliary_storage_labeling_show": null, "length": 1500.3507193784326 }, "geometry": { "type": "LineString", "coordinates": [ [ -104.877959737295541, 38.86939625903095 ], [ -104.877938641550969, 38.869445533090527 ], [ -104.878100375592709, 38.869856148925464 ], [ -104.878224606088509, 38.870098867392471 ], [ -104.878271485520884, 38.87021931384286 ], [ -104.878344148641105, 38.87040910783535 ], [ -104.87842149970453, 38.870593426516095 ], [ -104.878435563534239, 38.870659124148148 ], [ -104.878409779846436, 38.870735771308794 ], [ -104.878395716016712, 38.870821543033436 ], [ -104.87840509190319, 38.870885415527106 ], [ -104.878433219562638, 38.870920089142487 ], [ -104.878451971335579, 38.870960237518112 ], [ -104.878428531619377, 38.87110440649824 ], [ -104.878423843676131, 38.871190177778054 ], [ -104.878355868499185, 38.871305147629087 ], [ -104.878241013889848, 38.871474864688352 ], [ -104.878076935876493, 38.871631806984674 ], [ -104.878011304671148, 38.871739476499179 ], [ -104.877807379140293, 38.872330743468424 ], [ -104.877833162828082, 38.872646448817378 ], [ -104.8778412, 38.8728374 ], [ -104.877824, 38.8729176 ], [ -104.8777897, 38.8730579 ], [ -104.8777725, 38.8731915 ], [ -104.8777467, 38.8733987 ], [ -104.8777433, 38.8735255 ], [ -104.8777467, 38.8735657 ], [ -104.8777382, 38.8738664 ], [ -104.8777382, 38.8740669 ], [ -104.8777467, 38.8742139 ], [ -104.8777553, 38.8743943 ], [ -104.8777725, 38.8744478 ], [ -104.8778583, 38.8745614 ], [ -104.877927, 38.8746816 ], [ -104.8779613, 38.8748153 ], [ -104.8779699, 38.8749489 ], [ -104.8779613, 38.8751427 ], [ -104.8779098, 38.8752897 ], [ -104.877824, 38.8754902 ], [ -104.8777897, 38.8756505 ], [ -104.8777725, 38.8757842 ], [ -104.8778068, 38.8758911 ], [ -104.8778497, 38.8760314 ], [ -104.8778497, 38.8761383 ], [ -104.8778497, 38.876292 ], [ -104.877824, 38.8763522 ], [ -104.8777897, 38.8764123 ], [ -104.8777639, 38.8764657 ], [ -104.877721, 38.8764925 ], [ -104.8776695, 38.8764992 ], [ -104.8776352, 38.8765793 ], [ -104.8776266, 38.8766796 ], [ -104.8776094, 38.8767664 ], [ -104.8776048, 38.8768215 ] ] } },
{ "type": "Feature", "properties": { "fid": 310, "full_id": "w57731033", "osm_id": "57731033", "osm_type": "way", "highway": "path", "name": "Niobrara Trail", "tiger:cfcc": "", "tiger:county": "", "tiger:reviewed": "", "cycleway": "", "oneway": "", "tiger:name_base": "", "tiger:name_type": "", "service": "", "access": "", "alt_name": "", "ref": "", "surface": "ground", "tiger:name_direction_prefix": "", "cycleway:both": "", "maxspeed:type": "", "sidewalk": "", "sidewalk:both:bicycle": "", "lanes": "", "bicycle": "no", "foot": "designated", "old_railway_operator": "", "segregated": "", "bridge": "", "layer": "", "tiger:separated": "", "tiger:source": "", "tiger:tlid": "", "maxspeed": "", "name_1": "", "tiger:name_base_1": "", "tiger:name_type_1": "", "cycleway:right": "", "route": "", "tracktype": "", "horse": "", "motor_vehicle": "", "railway": "", "tiger:name_base_2": "", "tiger:zip_right": "", "name_2": "", "destination": "", "destination:ref": "", "alt_name_1": "", "parking:lane:both": "", "mtb:scale": "", "old_ref": "", "NHS": "", "hgv": "", "hgv:national_network": "", "source:hgv:national_network": "", "sac_scale": "hiking", "description": "", "website": "", "trail_visibility": "", "mtb:scale:imba": "", "admin_level": "", "border_type": "", "boundary": "", "is_in:country": "", "is_in:country_code": "", "is_in:iso_3166_2": "", "is_in:state": "", "tiger:CLASSFP": "", "tiger:CPI": "", "tiger:FUNCSTAT": "", "tiger:LSAD": "", "tiger:MTFCC": "", "tiger:NAME": "", "tiger:NAMELSAD": "", "tiger:PCICBSA": "", "tiger:PCINECTA": "", "tiger:PLACEFP": "", "tiger:PLACENS": "", "tiger:PLCIDFP": "", "tiger:STATEFP": "", "wikidata": "", "wikipedia": "", "tunnel": "", "lit": "", "width": "", "waterway": "", "barrier": "", "fence_type": "", "junction": "", "shoulder": "", "lanes:backward": "", "lanes:forward": "", "turn:lanes:backward": "", "intermittent": "", "natural": "", "seasonal": "", "footway": "", "crossing": "", "tiger:name_base_3": "", "tiger:name_direction_prefix_3": "", "turn:lanes:forward": "", "turn:lanes": "", "lanes:both_ways": "", "turn:lanes:both_ways": "", "golf": "", "golf_cart": "", "power": "", "disused:highway": "", "tourism": "", "auxiliary_storage_labeling_positionx": -104.87879520191407, "auxiliary_storage_labeling_positiony": 38.866381985770701, "auxiliary_storage_labeling_show": 0, "length": 982.13862707912949 }, "geometry": { "type": "LineString", "coordinates": [ [ -104.8789795, 38.867351 ], [ -104.8788775, 38.8672904 ], [ -104.8788239, 38.8672779 ], [ -104.8787783, 38.8672486 ], [ -104.8787515, 38.867209 ], [ -104.8786871, 38.8671588 ], [ -104.8785771, 38.8671066 ], [ -104.878542, 38.8670989 ], [ -104.8784913, 38.8670878 ], [ -104.8783974, 38.8670711 ], [ -104.8783223, 38.8670461 ], [ -104.8782526, 38.8670043 ], [ -104.8781721, 38.8669354 ], [ -104.8781158, 38.8668832 ], [ -104.8780917, 38.8668122 ], [ -104.8780541, 38.8667558 ], [ -104.8780031, 38.8667077 ], [ -104.877971, 38.8666597 ], [ -104.8779012, 38.8666012 ], [ -104.8777081, 38.8664718 ], [ -104.8775525, 38.8663694 ], [ -104.8773675, 38.8662525 ], [ -104.8771556, 38.8661251 ], [ -104.8771202, 38.866088 ] ] } },
{ "type": "Feature", "properties": { "fid": 311, "full_id": "w57731034", "osm_id": "57731034", "osm_type": "way", "highway": "path", "name": "", "tiger:cfcc": "", "tiger:county": "", "tiger:reviewed": "", "cycleway": "", "oneway": "", "tiger:name_base": "", "tiger:name_type": "", "service": "", "access": "", "alt_name": "", "ref": "", "surface": "", "tiger:name_direction_prefix": "", "cycleway:both": "", "maxspeed:type": "", "sidewalk": "", "sidewalk:both:bicycle": "", "lanes": "", "bicycle": "designated", "foot": "designated", "old_railway_operator": "", "segregated": "", "bridge": "", "layer": "", "tiger:separated": "", "tiger:source": "", "tiger:tlid": "", "maxspeed": "", "name_1": "", "tiger:name_base_1": "", "tiger:name_type_1": "", "cycleway:right": "", "route": "", "tracktype": "", "horse": "", "motor_vehicle": "", "railway": "", "tiger:name_base_2": "", "tiger:zip_right": "", "name_2": "", "destination": "", "destination:ref": "", "alt_name_1": "", "parking:lane:both": "", "mtb:scale": "", "old_ref": "", "NHS": "", "hgv": "", "hgv:national_network": "", "source:hgv:national_network": "", "sac_scale": "", "description": "", "website": "", "trail_visibility": "", "mtb:scale:imba": "", "admin_level": "", "border_type": "", "boundary": "", "is_in:country": "", "is_in:country_code": "", "is_in:iso_3166_2": "", "is_in:state": "", "tiger:CLASSFP": "", "tiger:CPI": "", "tiger:FUNCSTAT": "", "tiger:LSAD": "", "tiger:MTFCC": "", "tiger:NAME": "", "tiger:NAMELSAD": "", "tiger:PCICBSA": "", "tiger:PCINECTA": "", "tiger:PLACEFP": "", "tiger:PLACENS": "", "tiger:PLCIDFP": "", "tiger:STATEFP": "", "wikidata": "", "wikipedia": "", "tunnel": "", "lit": "", "width": "", "waterway": "", "barrier": "", "fence_type": "", "junction": "", "shoulder": "", "lanes:backward": "", "lanes:forward": "", "turn:lanes:backward": "", "intermittent": "", "natural": "", "seasonal": "", "footway": "", "crossing": "", "tiger:name_base_3": "", "tiger:name_direction_prefix_3": "", "turn:lanes:forward": "", "turn:lanes": "", "lanes:both_ways": "", "turn:lanes:both_ways": "", "golf": "", "golf_cart": "", "power": "", "disused:highway": "", "tourism": "", "auxiliary_storage_labeling_positionx": null, "auxiliary_storage_labeling_positiony": null, "auxiliary_storage_labeling_show": null, "length": 86.445227888452706 }, "geometry": { "type": "LineString", "coordinates": [ [ -104.877412, 38.8669701 ], [ -104.877338, 38.8668372 ], [ -104.8773004, 38.8667496 ] ] } },
{ "type": "Feature", "properties": { "fid": 312, "full_id": "w57731035", "osm_id": "57731035", "osm_type": "way", "highway": "path", "name": "", "tiger:cfcc": "", "tiger:county": "", "tiger:reviewed": "", "cycleway": "", "oneway": "", "tiger:name_base": "", "tiger:name_type": "", "service": "", "access": "", "alt_name": "", "ref": "", "surface": "ground", "tiger:name_direction_prefix": "", "cycleway:both": "", "maxspeed:type": "", "sidewalk": "", "sidewalk:both:bicycle": "", "lanes": "", "bicycle": "designated", "foot": "designated", "old_railway_operator": "", "segregated": "", "bridge": "", "layer": "", "tiger:separated": "", "tiger:source": "", "tiger:tlid": "", "maxspeed": "", "name_1": "", "tiger:name_base_1": "", "tiger:name_type_1": "", "cycleway:right": "", "route": "", "tracktype": "", "horse": "", "motor_vehicle": "", "railway": "", "tiger:name_base_2": "", "tiger:zip_right": "", "name_2": "", "destination": "", "destination:ref": "", "alt_name_1": "", "parking:lane:both": "", "mtb:scale": "", "old_ref": "", "NHS": "", "hgv": "", "hgv:national_network": "", "source:hgv:national_network": "", "sac_scale": "hiking", "description": "", "website": "", "trail_visibility": "", "mtb:scale:imba": "", "admin_level": "", "border_type": "", "boundary": "", "is_in:country": "", "is_in:country_code": "", "is_in:iso_3166_2": "", "is_in:state": "", "tiger:CLASSFP": "", "tiger:CPI": "", "tiger:FUNCSTAT": "", "tiger:LSAD": "", "tiger:MTFCC": "", "tiger:NAME": "", "tiger:NAMELSAD": "", "tiger:PCICBSA": "", "tiger:PCINECTA": "", "tiger:PLACEFP": "", "tiger:PLACENS": "", "tiger:PLCIDFP": "", "tiger:STATEFP": "", "wikidata": "", "wikipedia": "", "tunnel": "", "lit": "", "width": "", "waterway": "", "barrier": "", "fence_type": "", "junction": "", "shoulder": "", "lanes:backward": "", "lanes:forward": "", "turn:lanes:backward": "", "intermittent": "", "natural": "", "seasonal": "", "footway": "", "crossing": "", "tiger:name_base_3": "", "tiger:name_direction_prefix_3": "", "turn:lanes:forward": "", "turn:lanes": "", "lanes:both_ways": "", "turn:lanes:both_ways": "", "golf": "", "golf_cart": "", "power": "", "disused:highway": "", "tourism": "", "auxiliary_storage_labeling_positionx": null, "auxiliary_storage_labeling_positiony": null, "auxiliary_storage_labeling_show": null, "length": 290.76089636480771 }, "geometry": { "type": "LineString", "coordinates": [ [ -104.878542, 38.8670989 ], [ -104.8784994, 38.8671296 ], [ -104.8784672, 38.8671714 ], [ -104.8784484, 38.8671881 ], [ -104.8783706, 38.8672027 ], [ -104.8782499, 38.8672319 ], [ -104.8780917, 38.8672695 ], [ -104.877928, 38.8673092 ], [ -104.8778261, 38.8673259 ], [ -104.8777537, 38.867305 ], [ -104.8776947, 38.8672988 ], [ -104.8776089, 38.8673155 ] ] } },
{ "type": "Feature", "properties": { "fid": 326, "full_id": "w58662621", "osm_id": "58662621", "osm_type": "way", "highway": "path", "name": "", "tiger:cfcc": "", "tiger:county": "", "tiger:reviewed": "", "cycleway": "", "oneway": "", "tiger:name_base": "", "tiger:name_type": "", "service": "", "access": "", "alt_name": "", "ref": "", "surface": "ground", "tiger:name_direction_prefix": "", "cycleway:both": "", "maxspeed:type": "", "sidewalk": "", "sidewalk:both:bicycle": "", "lanes": "", "bicycle": "designated", "foot": "designated", "old_railway_operator": "", "segregated": "", "bridge": "", "layer": "", "tiger:separated": "", "tiger:source": "", "tiger:tlid": "", "maxspeed": "", "name_1": "", "tiger:name_base_1": "", "tiger:name_type_1": "", "cycleway:right": "", "route": "", "tracktype": "", "horse": "", "motor_vehicle": "", "railway": "", "tiger:name_base_2": "", "tiger:zip_right": "", "name_2": "", "destination": "", "destination:ref": "", "alt_name_1": "", "parking:lane:both": "", "mtb:scale": "", "old_ref": "", "NHS": "", "hgv": "", "hgv:national_network": "", "source:hgv:national_network": "", "sac_scale": "hiking", "description": "", "website": "", "trail_visibility": "", "mtb:scale:imba": "", "admin_level": "", "border_type": "", "boundary": "", "is_in:country": "", "is_in:country_code": "", "is_in:iso_3166_2": "", "is_in:state": "", "tiger:CLASSFP": "", "tiger:CPI": "", "tiger:FUNCSTAT": "", "tiger:LSAD": "", "tiger:MTFCC": "", "tiger:NAME": "", "tiger:NAMELSAD": "", "tiger:PCICBSA": "", "tiger:PCINECTA": "", "tiger:PLACEFP": "", "tiger:PLACENS": "", "tiger:PLCIDFP": "", "tiger:STATEFP": "", "wikidata": "", "wikipedia": "", "tunnel": "", "lit": "", "width": "", "waterway": "", "barrier": "", "fence_type": "", "junction": "", "shoulder": "", "lanes:backward": "", "lanes:forward": "", "turn:lanes:backward": "", "intermittent": "", "natural": "", "seasonal": "", "footway": "", "crossing": "", "tiger:name_base_3": "", "tiger:name_direction_prefix_3": "", "turn:lanes:forward": "", "turn:lanes": "", "lanes:both_ways": "", "turn:lanes:both_ways": "", "golf": "", "golf_cart": "", "power": "", "disused:highway": "", "tourism": "", "auxiliary_storage_labeling_positionx": null, "auxiliary_storage_labeling_positiony": null, "auxiliary_storage_labeling_show": null, "length": 968.36340148097179 }, "geometry": { "type": "LineString", "coordinates": [ [ -104.8771202, 38.8668899 ], [ -104.877412, 38.8669701 ], [ -104.877515, 38.867077 ], [ -104.8775922, 38.867204 ], [ -104.8776089, 38.8673155 ], [ -104.8776223, 38.8675661 ], [ -104.8776518, 38.8677916 ], [ -104.8776893, 38.8681592 ], [ -104.8777054, 38.8682845 ], [ -104.8777725, 38.8684661 ], [ -104.8778503, 38.8686792 ], [ -104.8779361, 38.8689151 ], [ -104.8779924, 38.8691365 ], [ -104.8780085, 38.8691991 ], [ -104.8779871, 38.8692618 ], [ -104.877969113182019, 38.86935245983819 ] ] } },
{ "type": "Feature", "properties": { "fid": 328, "full_id": "w58662623", "osm_id": "58662623", "osm_type": "way", "highway": "path", "name": "Niobrara Trail", "tiger:cfcc": "", "tiger:county": "", "tiger:reviewed": "", "cycleway": "", "oneway": "", "tiger:name_base": "", "tiger:name_type": "", "service": "", "access": "", "alt_name": "", "ref": "", "surface": "dirt", "tiger:name_direction_prefix": "", "cycleway:both": "", "maxspeed:type": "", "sidewalk": "", "sidewalk:both:bicycle": "", "lanes": "", "bicycle": "designated", "foot": "designated", "old_railway_operator": "", "segregated": "", "bridge": "", "layer": "", "tiger:separated": "", "tiger:source": "", "tiger:tlid": "", "maxspeed": "", "name_1": "", "tiger:name_base_1": "", "tiger:name_type_1": "", "cycleway:right": "", "route": "", "tracktype": "", "horse": "", "motor_vehicle": "", "railway": "", "tiger:name_base_2": "", "tiger:zip_right": "", "name_2": "", "destination": "", "destination:ref": "", "alt_name_1": "", "parking:lane:both": "", "mtb:scale": "1", "old_ref": "", "NHS": "", "hgv": "", "hgv:national_network": "", "source:hgv:national_network": "", "sac_scale": "hiking", "description": "", "website": "", "trail_visibility": "", "mtb:scale:imba": "0", "admin_level": "", "border_type": "", "boundary": "", "is_in:country": "", "is_in:country_code": "", "is_in:iso_3166_2": "", "is_in:state": "", "tiger:CLASSFP": "", "tiger:CPI": "", "tiger:FUNCSTAT": "", "tiger:LSAD": "", "tiger:MTFCC": "", "tiger:NAME": "", "tiger:NAMELSAD": "", "tiger:PCICBSA": "", "tiger:PCINECTA": "", "tiger:PLACEFP": "", "tiger:PLACENS": "", "tiger:PLCIDFP": "", "tiger:STATEFP": "", "wikidata": "", "wikipedia": "", "tunnel": "", "lit": "", "width": "", "waterway": "", "barrier": "", "fence_type": "", "junction": "", "shoulder": "", "lanes:backward": "", "lanes:forward": "", "turn:lanes:backward": "", "intermittent": "", "natural": "", "seasonal": "", "footway": "", "crossing": "", "tiger:name_base_3": "", "tiger:name_direction_prefix_3": "", "turn:lanes:forward": "", "turn:lanes": "", "lanes:both_ways": "", "turn:lanes:both_ways": "", "golf": "", "golf_cart": "", "power": "", "disused:highway": "", "tourism": "", "auxiliary_storage_labeling_positionx": null, "auxiliary_storage_labeling_positiony": null, "auxiliary_storage_labeling_show": null, "length": 296.4595355373794 }, "geometry": { "type": "LineString", "coordinates": [ [ -104.8770328, 38.8656814 ], [ -104.8769657, 38.86558 ], [ -104.8768627, 38.8655065 ], [ -104.8768283, 38.8654664 ], [ -104.8767597, 38.8653929 ], [ -104.8767082, 38.8653461 ], [ -104.8766481, 38.8653194 ], [ -104.8765537, 38.865286 ], [ -104.8764164, 38.8651991 ], [ -104.8762937, 38.8651328 ] ] } },
{ "type": "Feature", "properties": { "fid": 329, "full_id": "w58662625", "osm_id": "58662625", "osm_type": "way", "highway": "path", "name": "Niobrara Trail", "tiger:cfcc": "", "tiger:county": "", "tiger:reviewed": "", "cycleway": "", "oneway": "", "tiger:name_base": "", "tiger:name_type": "", "service": "", "access": "", "alt_name": "", "ref": "", "surface": "ground", "tiger:name_direction_prefix": "", "cycleway:both": "", "maxspeed:type": "", "sidewalk": "", "sidewalk:both:bicycle": "", "lanes": "", "bicycle": "", "foot": "yes", "old_railway_operator": "", "segregated": "", "bridge": "", "layer": "", "tiger:separated": "", "tiger:source": "", "tiger:tlid": "", "maxspeed": "", "name_1": "", "tiger:name_base_1": "", "tiger:name_type_1": "", "cycleway:right": "", "route": "", "tracktype": "", "horse": "", "motor_vehicle": "", "railway": "", "tiger:name_base_2": "", "tiger:zip_right": "", "name_2": "", "destination": "", "destination:ref": "", "alt_name_1": "", "parking:lane:both": "", "mtb:scale": "", "old_ref": "", "NHS": "", "hgv": "", "hgv:national_network": "", "source:hgv:national_network": "", "sac_scale": "", "description": "", "website": "", "trail_visibility": "", "mtb:scale:imba": "", "admin_level": "", "border_type": "", "boundary": "", "is_in:country": "", "is_in:country_code": "", "is_in:iso_3166_2": "", "is_in:state": "", "tiger:CLASSFP": "", "tiger:CPI": "", "tiger:FUNCSTAT": "", "tiger:LSAD": "", "tiger:MTFCC": "", "tiger:NAME": "", "tiger:NAMELSAD": "", "tiger:PCICBSA": "", "tiger:PCINECTA": "", "tiger:PLACEFP": "", "tiger:PLACENS": "", "tiger:PLCIDFP": "", "tiger:STATEFP": "", "wikidata": "", "wikipedia": "", "tunnel": "", "lit": "", "width": "", "waterway": "", "barrier": "", "fence_type": "", "junction": "", "shoulder": "", "lanes:backward": "", "lanes:forward": "", "turn:lanes:backward": "", "intermittent": "", "natural": "", "seasonal": "", "footway": "", "crossing": "", "tiger:name_base_3": "", "tiger:name_direction_prefix_3": "", "turn:lanes:forward": "", "turn:lanes": "", "lanes:both_ways": "", "turn:lanes:both_ways": "", "golf": "", "golf_cart": "", "power": "", "disused:highway": "", "tourism": "", "auxiliary_storage_labeling_positionx": -104.87445619354527, "auxiliary_storage_labeling_positiony": 38.868843759328676, "auxiliary_storage_labeling_show": null, "length": 2807.2972097844681 }, "geometry": { "type": "LineString", "coordinates": [ [ -104.8753301, 38.871353 ], [ -104.875289, 38.8713538 ], [ -104.8752461, 38.8713684 ], [ -104.8751871, 38.8714018 ], [ -104.8751308, 38.8714499 ], [ -104.8750745, 38.8715 ], [ -104.8750342, 38.8715376 ], [ -104.8750155, 38.8715188 ], [ -104.8750101, 38.8714123 ], [ -104.8749994, 38.8713329 ], [ -104.875002, 38.871241 ], [ -104.8749511, 38.8712974 ], [ -104.8748948, 38.871358 ], [ -104.8748679, 38.8713997 ], [ -104.8748599, 38.8714415 ], [ -104.8748384, 38.8713642 ], [ -104.8748197, 38.8712911 ], [ -104.8747982, 38.8711387 ], [ -104.8747714, 38.8711262 ], [ -104.8747392, 38.8710761 ], [ -104.8747204, 38.8709549 ], [ -104.8747097, 38.8707252 ], [ -104.8747124, 38.870579 ], [ -104.8746855, 38.8705164 ], [ -104.8746855, 38.8703974 ], [ -104.8746829, 38.8703243 ], [ -104.8746668, 38.8702721 ], [ -104.8746668, 38.8701572 ], [ -104.8746909, 38.8700946 ], [ -104.8746802, 38.8700131 ], [ -104.8746909, 38.8699338 ], [ -104.8746721, 38.8698565 ], [ -104.8746185, 38.8697228 ], [ -104.8746078, 38.8696832 ], [ -104.8746212, 38.8696289 ], [ -104.8746158, 38.8695641 ], [ -104.8745809, 38.8695057 ], [ -104.8745675, 38.8694388 ], [ -104.874589, 38.8693365 ], [ -104.8746104, 38.8692258 ], [ -104.8746426, 38.8690943 ], [ -104.8746453, 38.8690149 ], [ -104.8746641, 38.8689606 ], [ -104.8746373, 38.8689105 ], [ -104.8746426, 38.868875 ], [ -104.8746587, 38.868852 ], [ -104.8746641, 38.8686683 ], [ -104.8746426, 38.868614 ], [ -104.8746346, 38.8685617 ], [ -104.8746392, 38.868477 ], [ -104.8746405, 38.8684543 ], [ -104.8746438, 38.8683929 ], [ -104.8746549, 38.8683376 ], [ -104.8746432, 38.868258 ], [ -104.8746361, 38.8681692 ], [ -104.8746366, 38.8681321 ], [ -104.8746104, 38.8680361 ], [ -104.8746049, 38.8679901 ], [ -104.8746228, 38.867927 ], [ -104.8746228, 38.8678856 ], [ -104.8746013, 38.8678169 ], [ -104.8745925, 38.8677364 ], [ -104.8745888, 38.8676631 ], [ -104.8745592, 38.8676016 ], [ -104.8745269, 38.867561 ], [ -104.8745189, 38.867533 ], [ -104.8745143, 38.8674432 ], [ -104.8745303, 38.8673651 ], [ -104.8745099, 38.8673086 ], [ -104.8745037, 38.8672709 ], [ -104.8745047, 38.8672204 ], [ -104.8744889, 38.867173 ], [ -104.8744772, 38.867116 ], [ -104.8744401, 38.8670669 ], [ -104.8744097, 38.8670005 ], [ -104.8744079, 38.8669388 ], [ -104.8743653, 38.8668891 ], [ -104.8743295, 38.8668422 ], [ -104.8743068, 38.8667752 ], [ -104.8743074, 38.8667308 ], [ -104.8742817, 38.8666634 ], [ -104.8742589, 38.8666048 ], [ -104.8742352, 38.866562 ], [ -104.8742198, 38.8664449 ], [ -104.8741823, 38.8663519 ], [ -104.8741569, 38.8663083 ], [ -104.8741416, 38.8662675 ], [ -104.8741621, 38.8662438 ], [ -104.8741545, 38.8661862 ], [ -104.8741453, 38.8661275 ], [ -104.8741131, 38.8660513 ], [ -104.8740931, 38.8659792 ], [ -104.8740924, 38.8659067 ], [ -104.874131, 38.8658445 ], [ -104.8741239, 38.8657824 ], [ -104.8741208, 38.8657378 ], [ -104.8741611, 38.865668 ], [ -104.8741928, 38.8656023 ], [ -104.874225, 38.8655479 ], [ -104.8742218, 38.8654281 ], [ -104.8741739, 38.8653114 ], [ -104.8741646, 38.8652535 ], [ -104.8741579, 38.865186 ], [ -104.8741369, 38.8651184 ], [ -104.874123, 38.8650743 ], [ -104.8741132, 38.865032 ], [ -104.8741025, 38.8649921 ], [ -104.8740869, 38.864944 ], [ -104.8740695, 38.864885 ], [ -104.8740416, 38.864772 ] ] } },
{ "type": "Feature", "properties": { "fid": 331, "full_id": "w58662631", "osm_id": "58662631", "osm_type": "way", "highway": "path", "name": "Galloway-Homestead Trail", "tiger:cfcc": "", "tiger:county": "", "tiger:reviewed": "", "cycleway": "", "oneway": "", "tiger:name_base": "", "tiger:name_type": "", "service": "", "access": "", "alt_name": "", "ref": "", "surface": "ground", "tiger:name_direction_prefix": "", "cycleway:both": "", "maxspeed:type": "", "sidewalk": "", "sidewalk:both:bicycle": "", "lanes": "", "bicycle": "", "foot": "designated", "old_railway_operator": "", "segregated": "", "bridge": "", "layer": "", "tiger:separated": "", "tiger:source": "", "tiger:tlid": "", "maxspeed": "", "name_1": "", "tiger:name_base_1": "", "tiger:name_type_1": "", "cycleway:right": "", "route": "", "tracktype": "", "horse": "", "motor_vehicle": "", "railway": "", "tiger:name_base_2": "", "tiger:zip_right": "", "name_2": "", "destination": "", "destination:ref": "", "alt_name_1": "", "parking:lane:both": "", "mtb:scale": "", "old_ref": "", "NHS": "", "hgv": "", "hgv:national_network": "", "source:hgv:national_network": "", "sac_scale": "hiking", "description": "", "website": "", "trail_visibility": "", "mtb:scale:imba": "", "admin_level": "", "border_type": "", "boundary": "", "is_in:country": "", "is_in:country_code": "", "is_in:iso_3166_2": "", "is_in:state": "", "tiger:CLASSFP": "", "tiger:CPI": "", "tiger:FUNCSTAT": "", "tiger:LSAD": "", "tiger:MTFCC": "", "tiger:NAME": "", "tiger:NAMELSAD": "", "tiger:PCICBSA": "", "tiger:PCINECTA": "", "tiger:PLACEFP": "", "tiger:PLACENS": "", "tiger:PLCIDFP": "", "tiger:STATEFP": "", "wikidata": "", "wikipedia": "", "tunnel": "", "lit": "", "width": "", "waterway": "", "barrier": "", "fence_type": "", "junction": "", "shoulder": "", "lanes:backward": "", "lanes:forward": "", "turn:lanes:backward": "", "intermittent": "", "natural": "", "seasonal": "", "footway": "", "crossing": "", "tiger:name_base_3": "", "tiger:name_direction_prefix_3": "", "turn:lanes:forward": "", "turn:lanes": "", "lanes:both_ways": "", "turn:lanes:both_ways": "", "golf": "", "golf_cart": "", "power": "", "disused:highway": "", "tourism": "", "auxiliary_storage_labeling_positionx": -104.87435717014347, "auxiliary_storage_labeling_positiony": 38.875745300526077, "auxiliary_storage_labeling_show": null, "length": 2248.6587859606821 }, "geometry": { "type": "LineString", "coordinates": [ [ -104.877419, 38.8764968 ], [ -104.8773222, 38.8765179 ], [ -104.8772524, 38.8765241 ], [ -104.877188, 38.8765492 ], [ -104.8771076, 38.8765492 ], [ -104.8770459, 38.8765262 ], [ -104.8769359, 38.8765074 ], [ -104.8767938, 38.8764761 ], [ -104.8767079, 38.8764698 ], [ -104.8765631, 38.8764761 ], [ -104.8764692, 38.8764531 ], [ -104.8763941, 38.8764615 ], [ -104.8763378, 38.876451 ], [ -104.8761071, 38.8764573 ], [ -104.8760615, 38.8764469 ], [ -104.8759784, 38.8764552 ], [ -104.8758952, 38.8764489 ], [ -104.8757799, 38.8764239 ], [ -104.8757209, 38.8763947 ], [ -104.8756941, 38.8763404 ], [ -104.8756619, 38.8763049 ], [ -104.8756297, 38.8762923 ], [ -104.8755868, 38.8762923 ], [ -104.8755224, 38.876284 ], [ -104.8754714, 38.8762944 ], [ -104.8754285, 38.8763174 ], [ -104.8754232, 38.8763529 ], [ -104.8754232, 38.8763967 ], [ -104.8754071, 38.8764072 ], [ -104.8753695, 38.8763988 ], [ -104.8753078, 38.8763947 ], [ -104.8751978, 38.8763905 ], [ -104.8751147, 38.8763842 ], [ -104.8750557, 38.8763717 ], [ -104.8749457, 38.8763299 ], [ -104.874825, 38.8762944 ], [ -104.8747553, 38.8762631 ], [ -104.8746855, 38.8762213 ], [ -104.8746239, 38.8761483 ], [ -104.8745809, 38.8760898 ], [ -104.8745541, 38.8760355 ], [ -104.8745166, 38.8759896 ], [ -104.8744817, 38.8759227 ], [ -104.8744227, 38.875833 ], [ -104.8743905, 38.875764 ], [ -104.8743395, 38.8756659 ], [ -104.8742805, 38.8755323 ], [ -104.8742027, 38.8753944 ], [ -104.8741706, 38.8753047 ], [ -104.8741491, 38.8752107 ], [ -104.874074, 38.8750102 ], [ -104.8740472, 38.8749392 ], [ -104.8740364, 38.8748327 ], [ -104.8740096, 38.8745675 ], [ -104.8740069, 38.8744214 ], [ -104.8739828, 38.8742606 ], [ -104.8739882, 38.8740246 ], [ -104.8739909, 38.8737991 ], [ -104.8739962, 38.8736571 ], [ -104.8740284, 38.8735464 ], [ -104.8740713, 38.8734566 ], [ -104.8741276, 38.8734107 ], [ -104.8742108, 38.8733815 ], [ -104.8742644, 38.873323 ], [ -104.8743422, 38.8732583 ], [ -104.8744146, 38.873229 ], [ -104.8745166, 38.8732123 ], [ -104.8746346, 38.8731664 ], [ -104.8746668, 38.8731455 ], [ -104.8747741, 38.8731351 ], [ -104.8748867, 38.8731434 ], [ -104.8749672, 38.8730912 ], [ -104.8750602, 38.8730245 ] ] } },
{ "type": "Feature", "properties": { "fid": 332, "full_id": "w58662632", "osm_id": "58662632", "osm_type": "way", "highway": "path", "name": "Ute Trail", "tiger:cfcc": "", "tiger:county": "", "tiger:reviewed": "", "cycleway": "", "oneway": "", "tiger:name_base": "", "tiger:name_type": "", "service": "", "access": "", "alt_name": "", "ref": "", "surface": "ground", "tiger:name_direction_prefix": "", "cycleway:both": "", "maxspeed:type": "", "sidewalk": "", "sidewalk:both:bicycle": "", "lanes": "", "bicycle": "designated", "foot": "designated", "old_railway_operator": "", "segregated": "", "bridge": "", "layer": "", "tiger:separated": "", "tiger:source": "", "tiger:tlid": "", "maxspeed": "", "name_1": "", "tiger:name_base_1": "", "tiger:name_type_1": "", "cycleway:right": "", "route": "", "tracktype": "", "horse": "", "motor_vehicle": "", "railway": "", "tiger:name_base_2": "", "tiger:zip_right": "", "name_2": "", "destination": "", "destination:ref": "", "alt_name_1": "", "parking:lane:both": "", "mtb:scale": "", "old_ref": "", "NHS": "", "hgv": "", "hgv:national_network": "", "source:hgv:national_network": "", "sac_scale": "hiking", "description": "", "website": "", "trail_visibility": "", "mtb:scale:imba": "", "admin_level": "", "border_type": "", "boundary": "", "is_in:country": "", "is_in:country_code": "", "is_in:iso_3166_2": "", "is_in:state": "", "tiger:CLASSFP": "", "tiger:CPI": "", "tiger:FUNCSTAT": "", "tiger:LSAD": "", "tiger:MTFCC": "", "tiger:NAME": "", "tiger:NAMELSAD": "", "tiger:PCICBSA": "", "tiger:PCINECTA": "", "tiger:PLACEFP": "", "tiger:PLACENS": "", "tiger:PLCIDFP": "", "tiger:STATEFP": "", "wikidata": "", "wikipedia": "", "tunnel": "", "lit": "", "width": "", "waterway": "", "barrier": "", "fence_type": "", "junction": "", "shoulder": "", "lanes:backward": "", "lanes:forward": "", "turn:lanes:backward": "", "intermittent": "", "natural": "", "seasonal": "", "footway": "", "crossing": "", "tiger:name_base_3": "", "tiger:name_direction_prefix_3": "", "turn:lanes:forward": "", "turn:lanes": "", "lanes:both_ways": "", "turn:lanes:both_ways": "", "golf": "", "golf_cart": "", "power": "", "disused:highway": "", "tourism": "", "auxiliary_storage_labeling_positionx": -104.87726152603553, "auxiliary_storage_labeling_positiony": 38.873116467596084, "auxiliary_storage_labeling_show": null, "length": 1999.276674507299 }, "geometry": { "type": "LineString", "coordinates": [ [ -104.8777433, 38.8735255 ], [ -104.8776306, 38.8734149 ], [ -104.877475, 38.873252 ], [ -104.8773436, 38.8730891 ], [ -104.8772122, 38.8729805 ], [ -104.8771505, 38.8728573 ], [ -104.8770861, 38.8727362 ], [ -104.8770244, 38.872613 ], [ -104.8769627, 38.8725274 ], [ -104.8768313, 38.8724146 ], [ -104.8767428, 38.8723478 ], [ -104.8766784, 38.8722141 ], [ -104.8765926, 38.8721285 ], [ -104.8764934, 38.8720847 ], [ -104.8763861, 38.8720283 ], [ -104.8763512, 38.871951 ], [ -104.8763056, 38.8718571 ], [ -104.8762654, 38.8717777 ], [ -104.8762305, 38.8716858 ], [ -104.8762439, 38.8715981 ], [ -104.8762654, 38.8715459 ], [ -104.876252, 38.8715041 ], [ -104.8761849, 38.8714519 ], [ -104.8761393, 38.8714102 ], [ -104.8760669, 38.8713141 ], [ -104.8759542, 38.8712034 ], [ -104.875804, 38.871074 ], [ -104.8756967, 38.8709633 ], [ -104.8756082, 38.870838 ], [ -104.8755331, 38.8707169 ], [ -104.875498, 38.870679 ], [ -104.8754551, 38.8705921 ], [ -104.8754379, 38.8705386 ], [ -104.8753275, 38.8703605 ], [ -104.8753177, 38.8703448 ], [ -104.875292, 38.8702914 ], [ -104.8753006, 38.8702045 ], [ -104.8753091, 38.8700976 ], [ -104.8752662, 38.8700308 ], [ -104.8751289, 38.8697635 ], [ -104.8750345, 38.8695296 ], [ -104.8749916, 38.8693558 ], [ -104.8750002, 38.869142 ], [ -104.8750317, 38.8688082 ], [ -104.875042042670401, 38.868709128104548 ] ] } },
{ "type": "Feature", "properties": { "fid": 333, "full_id": "w58662633", "osm_id": "58662633", "osm_type": "way", "highway": "path", "name": "Ute Trail Connection", "tiger:cfcc": "", "tiger:county": "", "tiger:reviewed": "", "cycleway": "", "oneway": "", "tiger:name_base": "", "tiger:name_type": "", "service": "", "access": "", "alt_name": "", "ref": "", "surface": "ground", "tiger:name_direction_prefix": "", "cycleway:both": "", "maxspeed:type": "", "sidewalk": "", "sidewalk:both:bicycle": "", "lanes": "", "bicycle": "designated", "foot": "designated", "old_railway_operator": "", "segregated": "", "bridge": "", "layer": "", "tiger:separated": "", "tiger:source": "", "tiger:tlid": "", "maxspeed": "", "name_1": "", "tiger:name_base_1": "", "tiger:name_type_1": "", "cycleway:right": "", "route": "", "tracktype": "", "horse": "", "motor_vehicle": "", "railway": "", "tiger:name_base_2": "", "tiger:zip_right": "", "name_2": "", "destination": "", "destination:ref": "", "alt_name_1": "", "parking:lane:both": "", "mtb:scale": "", "old_ref": "", "NHS": "", "hgv": "", "hgv:national_network": "", "source:hgv:national_network": "", "sac_scale": "hiking", "description": "", "website": "", "trail_visibility": "", "mtb:scale:imba": "", "admin_level": "", "border_type": "", "boundary": "", "is_in:country": "", "is_in:country_code": "", "is_in:iso_3166_2": "", "is_in:state": "", "tiger:CLASSFP": "", "tiger:CPI": "", "tiger:FUNCSTAT": "", "tiger:LSAD": "", "tiger:MTFCC": "", "tiger:NAME": "", "tiger:NAMELSAD": "", "tiger:PCICBSA": "", "tiger:PCINECTA": "", "tiger:PLACEFP": "", "tiger:PLACENS": "", "tiger:PLCIDFP": "", "tiger:STATEFP": "", "wikidata": "", "wikipedia": "", "tunnel": "", "lit": "", "width": "", "waterway": "", "barrier": "", "fence_type": "", "junction": "", "shoulder": "", "lanes:backward": "", "lanes:forward": "", "turn:lanes:backward": "", "intermittent": "", "natural": "", "seasonal": "", "footway": "", "crossing": "", "tiger:name_base_3": "", "tiger:name_direction_prefix_3": "", "turn:lanes:forward": "", "turn:lanes": "", "lanes:both_ways": "", "turn:lanes:both_ways": "", "golf": "", "golf_cart": "", "power": "", "disused:highway": "", "tourism": "", "auxiliary_storage_labeling_positionx": -104.87668107512259, "auxiliary_storage_labeling_positiony": 38.86951151248963, "auxiliary_storage_labeling_show": null, "length": 1008.2866258814064 }, "geometry": { "type": "LineString", "coordinates": [ [ -104.8779785, 38.8693825 ], [ -104.8779111, 38.8693865 ], [ -104.8777633, 38.8693625 ], [ -104.8776215, 38.8693241 ], [ -104.8774675, 38.869209 ], [ -104.8773258, 38.8691802 ], [ -104.8772087, 38.869257 ], [ -104.8771409, 38.8693625 ], [ -104.8771039, 38.8694633 ], [ -104.8769745, 38.8695304 ], [ -104.8768451, 38.8695448 ], [ -104.876802, 38.8696312 ], [ -104.876765, 38.8697655 ], [ -104.8767157, 38.8698807 ], [ -104.8766233, 38.8699286 ], [ -104.876537, 38.8700054 ], [ -104.8764322, 38.8699718 ], [ -104.8762946, 38.869928 ], [ -104.8762305, 38.8699338 ], [ -104.8761581, 38.8699484 ], [ -104.8760776, 38.8699881 ], [ -104.8758791, 38.8700653 ], [ -104.8758067, 38.8701008 ], [ -104.8757289, 38.8701781 ], [ -104.8756753, 38.8702157 ], [ -104.8755841, 38.8702387 ], [ -104.8754875, 38.8702825 ], [ -104.8754044, 38.8703285 ], [ -104.8753275, 38.8703605 ] ] } },
{ "type": "Feature", "properties": { "fid": 334, "full_id": "w58662634", "osm_id": "58662634", "osm_type": "way", "highway": "path", "name": "Valley Reservoir Trail", "tiger:cfcc": "", "tiger:county": "", "tiger:reviewed": "", "cycleway": "", "oneway": "", "tiger:name_base": "", "tiger:name_type": "", "service": "", "access": "", "alt_name": "", "ref": "", "surface": "ground", "tiger:name_direction_prefix": "", "cycleway:both": "", "maxspeed:type": "", "sidewalk": "", "sidewalk:both:bicycle": "", "lanes": "", "bicycle": "designated", "foot": "designated", "old_railway_operator": "", "segregated": "", "bridge": "", "layer": "", "tiger:separated": "", "tiger:source": "", "tiger:tlid": "", "maxspeed": "", "name_1": "", "tiger:name_base_1": "", "tiger:name_type_1": "", "cycleway:right": "", "route": "", "tracktype": "", "horse": "", "motor_vehicle": "", "railway": "", "tiger:name_base_2": "", "tiger:zip_right": "", "name_2": "", "destination": "", "destination:ref": "", "alt_name_1": "", "parking:lane:both": "", "mtb:scale": "", "old_ref": "", "NHS": "", "hgv": "", "hgv:national_network": "", "source:hgv:national_network": "", "sac_scale": "hiking", "description": "", "website": "", "trail_visibility": "", "mtb:scale:imba": "", "admin_level": "", "border_type": "", "boundary": "", "is_in:country": "", "is_in:country_code": "", "is_in:iso_3166_2": "", "is_in:state": "", "tiger:CLASSFP": "", "tiger:CPI": "", "tiger:FUNCSTAT": "", "tiger:LSAD": "", "tiger:MTFCC": "", "tiger:NAME": "", "tiger:NAMELSAD": "", "tiger:PCICBSA": "", "tiger:PCINECTA": "", "tiger:PLACEFP": "", "tiger:PLACENS": "", "tiger:PLCIDFP": "", "tiger:STATEFP": "", "wikidata": "", "wikipedia": "", "tunnel": "", "lit": "", "width": "", "waterway": "", "barrier": "", "fence_type": "", "junction": "", "shoulder": "", "lanes:backward": "", "lanes:forward": "", "turn:lanes:backward": "", "intermittent": "", "natural": "", "seasonal": "", "footway": "", "crossing": "", "tiger:name_base_3": "", "tiger:name_direction_prefix_3": "", "turn:lanes:forward": "", "turn:lanes": "", "lanes:both_ways": "", "turn:lanes:both_ways": "", "golf": "", "golf_cart": "", "power": "", "disused:highway": "", "tourism": "", "auxiliary_storage_labeling_positionx": -104.876071485377, "auxiliary_storage_labeling_positiony": 38.871946995120339, "auxiliary_storage_labeling_show": 0, "length": 885.33885572581664 }, "geometry": { "type": "LineString", "coordinates": [ [ -104.8750602, 38.8730245 ], [ -104.8750602, 38.8729309 ], [ -104.8750774, 38.872824 ], [ -104.8750774, 38.8726904 ], [ -104.8750774, 38.8725367 ], [ -104.8750946, 38.8722092 ], [ -104.8751117, 38.8720756 ], [ -104.8751117, 38.8720221 ], [ -104.8751117, 38.8719486 ], [ -104.8751546, 38.8718818 ], [ -104.8751718, 38.8718283 ], [ -104.8752405, 38.8717816 ], [ -104.8752491, 38.8717415 ], [ -104.8752319, 38.8716746 ], [ -104.8752061, 38.8716279 ], [ -104.8752147, 38.8715744 ], [ -104.8753177, 38.871394 ], [ -104.8753301, 38.871353 ], [ -104.8753521, 38.8712804 ], [ -104.8753778, 38.8711868 ], [ -104.8754636, 38.8710732 ], [ -104.8754808, 38.8710198 ], [ -104.875498, 38.8708527 ], [ -104.875498, 38.870679 ] ] } },
{ "type": "Feature", "properties": { "fid": 619, "full_id": "w538817765", "osm_id": "538817765", "osm_type": "way", "highway": "path", "name": "Niobrara Trail", "tiger:cfcc": "", "tiger:county": "", "tiger:reviewed": "", "cycleway": "", "oneway": "", "tiger:name_base": "", "tiger:name_type": "", "service": "", "access": "", "alt_name": "", "ref": "", "surface": "dirt", "tiger:name_direction_prefix": "", "cycleway:both": "", "maxspeed:type": "", "sidewalk": "", "sidewalk:both:bicycle": "", "lanes": "", "bicycle": "designated", "foot": "designated", "old_railway_operator": "", "segregated": "", "bridge": "", "layer": "", "tiger:separated": "", "tiger:source": "", "tiger:tlid": "", "maxspeed": "", "name_1": "", "tiger:name_base_1": "", "tiger:name_type_1": "", "cycleway:right": "", "route": "", "tracktype": "", "horse": "", "motor_vehicle": "", "railway": "", "tiger:name_base_2": "", "tiger:zip_right": "", "name_2": "", "destination": "", "destination:ref": "", "alt_name_1": "", "parking:lane:both": "", "mtb:scale": "1", "old_ref": "", "NHS": "", "hgv": "", "hgv:national_network": "", "source:hgv:national_network": "", "sac_scale": "hiking", "description": "", "website": "", "trail_visibility": "", "mtb:scale:imba": "0", "admin_level": "", "border_type": "", "boundary": "", "is_in:country": "", "is_in:country_code": "", "is_in:iso_3166_2": "", "is_in:state": "", "tiger:CLASSFP": "", "tiger:CPI": "", "tiger:FUNCSTAT": "", "tiger:LSAD": "", "tiger:MTFCC": "", "tiger:NAME": "", "tiger:NAMELSAD": "", "tiger:PCICBSA": "", "tiger:PCINECTA": "", "tiger:PLACEFP": "", "tiger:PLACENS": "", "tiger:PLCIDFP": "", "tiger:STATEFP": "", "wikidata": "", "wikipedia": "", "tunnel": "", "lit": "", "width": "", "waterway": "", "barrier": "", "fence_type": "", "junction": "", "shoulder": "", "lanes:backward": "", "lanes:forward": "", "turn:lanes:backward": "", "intermittent": "", "natural": "", "seasonal": "", "footway": "", "crossing": "", "tiger:name_base_3": "", "tiger:name_direction_prefix_3": "", "turn:lanes:forward": "", "turn:lanes": "", "lanes:both_ways": "", "turn:lanes:both_ways": "", "golf": "", "golf_cart": "", "power": "", "disused:highway": "", "tourism": "", "auxiliary_storage_labeling_positionx": -104.87568702307109, "auxiliary_storage_labeling_positiony": 38.864977105210713, "auxiliary_storage_labeling_show": null, "length": 811.90586322680872 }, "geometry": { "type": "LineString", "coordinates": [ [ -104.8762937, 38.8651328 ], [ -104.8762361, 38.8650788 ], [ -104.876219, 38.8650387 ], [ -104.8762104, 38.8649853 ], [ -104.8762018, 38.8649318 ], [ -104.8761675, 38.8648984 ], [ -104.876116, 38.864865 ], [ -104.8757898, 38.8646311 ], [ -104.8757211, 38.8645976 ], [ -104.8756353, 38.864591 ], [ -104.8755495, 38.8645976 ], [ -104.8752748, 38.8646778 ], [ -104.8749658, 38.8647714 ], [ -104.8748113, 38.8648115 ], [ -104.8745453, 38.8648917 ], [ -104.874338158028337, 38.864972117847707 ], [ -104.874276932118818, 38.864956227132367 ], [ -104.8741146, 38.8647182 ], [ -104.874024375242087, 38.864676152691487 ], [ -104.873983557969069, 38.864707934243825 ], [ -104.874021824162526, 38.864765538271222 ] ] } },
{ "type": "Feature", "properties": { "fid": 621, "full_id": "w538817767", "osm_id": "538817767", "osm_type": "way", "highway": "path", "name": "Niobrara Trail", "tiger:cfcc": "", "tiger:county": "", "tiger:reviewed": "", "cycleway": "", "oneway": "", "tiger:name_base": "", "tiger:name_type": "", "service": "", "access": "", "alt_name": "", "ref": "", "surface": "", "tiger:name_direction_prefix": "", "cycleway:both": "", "maxspeed:type": "", "sidewalk": "", "sidewalk:both:bicycle": "", "lanes": "", "bicycle": "", "foot": "", "old_railway_operator": "", "segregated": "", "bridge": "", "layer": "", "tiger:separated": "", "tiger:source": "", "tiger:tlid": "", "maxspeed": "", "name_1": "", "tiger:name_base_1": "", "tiger:name_type_1": "", "cycleway:right": "", "route": "", "tracktype": "", "horse": "", "motor_vehicle": "", "railway": "", "tiger:name_base_2": "", "tiger:zip_right": "", "name_2": "", "destination": "", "destination:ref": "", "alt_name_1": "", "parking:lane:both": "", "mtb:scale": "", "old_ref": "", "NHS": "", "hgv": "", "hgv:national_network": "", "source:hgv:national_network": "", "sac_scale": "", "description": "", "website": "", "trail_visibility": "", "mtb:scale:imba": "", "admin_level": "", "border_type": "", "boundary": "", "is_in:country": "", "is_in:country_code": "", "is_in:iso_3166_2": "", "is_in:state": "", "tiger:CLASSFP": "", "tiger:CPI": "", "tiger:FUNCSTAT": "", "tiger:LSAD": "", "tiger:MTFCC": "", "tiger:NAME": "", "tiger:NAMELSAD": "", "tiger:PCICBSA": "", "tiger:PCINECTA": "", "tiger:PLACEFP": "", "tiger:PLACENS": "", "tiger:PLCIDFP": "", "tiger:STATEFP": "", "wikidata": "", "wikipedia": "", "tunnel": "", "lit": "", "width": "", "waterway": "", "barrier": "", "fence_type": "", "junction": "", "shoulder": "", "lanes:backward": "", "lanes:forward": "", "turn:lanes:backward": "", "intermittent": "", "natural": "", "seasonal": "", "footway": "", "crossing": "", "tiger:name_base_3": "", "tiger:name_direction_prefix_3": "", "turn:lanes:forward": "", "turn:lanes": "", "lanes:both_ways": "", "turn:lanes:both_ways": "", "golf": "", "golf_cart": "", "power": "", "disused:highway": "", "tourism": "", "auxiliary_storage_labeling_positionx": -104.87792223287194, "auxiliary_storage_labeling_positiony": 38.864740254995901, "auxiliary_storage_labeling_show": 0, "length": 563.54561668047472 }, "geometry": { "type": "LineString", "coordinates": [ [ -104.8770328, 38.8656814 ], [ -104.8770318, 38.8656143 ], [ -104.8770365, 38.8655507 ], [ -104.8770528, 38.8654889 ], [ -104.8771089, 38.8654271 ], [ -104.8771112, 38.8653598 ], [ -104.8771813, 38.865318 ], [ -104.8773074, 38.8653162 ], [ -104.8773938, 38.8652816 ], [ -104.8775619, 38.8652743 ], [ -104.8776833, 38.8652925 ], [ -104.8778024, 38.8652853 ], [ -104.8778678, 38.8652671 ], [ -104.8779565, 38.8652543 ], [ -104.8779962, 38.8651907 ], [ -104.8780452, 38.8651998 ], [ -104.8781386, 38.8652743 ], [ -104.878218, 38.8653198 ], [ -104.878281876573695, 38.865357760050792 ], [ -104.878381362635679, 38.865419729707611 ], [ -104.878404102306973, 38.865434115513075 ], [ -104.878442475502311, 38.865466206914789 ] ] } },
{ "type": "Feature", "properties": { "fid": 903, "full_id": "w498615758", "osm_id": "498615758", "osm_type": "way", "highway": "path", "name": "Fontanero Trail", "tiger:cfcc": "", "tiger:county": "", "tiger:reviewed": "", "cycleway": "", "oneway": "", "tiger:name_base": "", "tiger:name_type": "", "service": "", "access": "destination", "alt_name": "", "ref": "", "surface": "dirt", "tiger:name_direction_prefix": "", "cycleway:both": "", "maxspeed:type": "", "sidewalk": "", "sidewalk:both:bicycle": "", "lanes": "", "bicycle": "designated", "foot": "designated", "old_railway_operator": "", "segregated": "", "bridge": "", "layer": "", "tiger:separated": "", "tiger:source": "", "tiger:tlid": "", "maxspeed": "", "name_1": "", "tiger:name_base_1": "", "tiger:name_type_1": "", "cycleway:right": "", "route": "", "tracktype": "", "horse": "designated", "motor_vehicle": "no", "railway": "", "tiger:name_base_2": "", "tiger:zip_right": "", "name_2": "", "destination": "", "destination:ref": "", "alt_name_1": "", "parking:lane:both": "", "mtb:scale": "", "old_ref": "", "NHS": "", "hgv": "", "hgv:national_network": "", "source:hgv:national_network": "", "sac_scale": "", "description": "", "website": "", "trail_visibility": "", "mtb:scale:imba": "", "admin_level": "", "border_type": "", "boundary": "", "is_in:country": "", "is_in:country_code": "", "is_in:iso_3166_2": "", "is_in:state": "", "tiger:CLASSFP": "", "tiger:CPI": "", "tiger:FUNCSTAT": "", "tiger:LSAD": "", "tiger:MTFCC": "", "tiger:NAME": "", "tiger:NAMELSAD": "", "tiger:PCICBSA": "", "tiger:PCINECTA": "", "tiger:PLACEFP": "", "tiger:PLACENS": "", "tiger:PLCIDFP": "", "tiger:STATEFP": "", "wikidata": "", "wikipedia": "", "tunnel": "", "lit": "", "width": "", "waterway": "", "barrier": "", "fence_type": "", "junction": "", "shoulder": "", "lanes:backward": "", "lanes:forward": "", "turn:lanes:backward": "", "intermittent": "", "natural": "", "seasonal": "", "footway": "", "crossing": "", "tiger:name_base_3": "", "tiger:name_direction_prefix_3": "", "turn:lanes:forward": "", "turn:lanes": "", "lanes:both_ways": "", "turn:lanes:both_ways": "", "golf": "", "golf_cart": "", "power": "", "disused:highway": "", "tourism": "", "auxiliary_storage_labeling_positionx": -104.87628704156856, "auxiliary_storage_labeling_positiony": 38.864080680426511, "auxiliary_storage_labeling_show": null, "length": 527.63425248226997 }, "geometry": { "type": "LineString", "coordinates": [ [ -104.8761675, 38.8648984 ], [ -104.8761597, 38.8648532 ], [ -104.8761227, 38.8647836 ], [ -104.8760642, 38.8646805 ], [ -104.8759872, 38.8645893 ], [ -104.8758978, 38.8645269 ], [ -104.8758023, 38.8644718 ], [ -104.8756883, 38.8644622 ], [ -104.8755435, 38.864467 ], [ -104.8754665, 38.8644574 ], [ -104.8752939, 38.8644526 ], [ -104.8751275, 38.8644262 ], [ -104.8750505, 38.8643724 ], [ -104.8749542, 38.8643131 ], [ -104.8747422, 38.8641827 ] ] } },
{ "type": "Feature", "properties": { "fid": 905, "full_id": "w58662632", "osm_id": "58662632", "osm_type": "way", "highway": "path", "name": "Ute Trail", "tiger:cfcc": "", "tiger:county": "", "tiger:reviewed": "", "cycleway": "", "oneway": "", "tiger:name_base": "", "tiger:name_type": "", "service": "", "access": "", "alt_name": "", "ref": "", "surface": "ground", "tiger:name_direction_prefix": "", "cycleway:both": "", "maxspeed:type": "", "sidewalk": "", "sidewalk:both:bicycle": "", "lanes": "", "bicycle": "designated", "foot": "designated", "old_railway_operator": "", "segregated": "", "bridge": "", "layer": "", "tiger:separated": "", "tiger:source": "", "tiger:tlid": "", "maxspeed": "", "name_1": "", "tiger:name_base_1": "", "tiger:name_type_1": "", "cycleway:right": "", "route": "", "tracktype": "", "horse": "", "motor_vehicle": "", "railway": "", "tiger:name_base_2": "", "tiger:zip_right": "", "name_2": "", "destination": "", "destination:ref": "", "alt_name_1": "", "parking:lane:both": "", "mtb:scale": "", "old_ref": "", "NHS": "", "hgv": "", "hgv:national_network": "", "source:hgv:national_network": "", "sac_scale": "hiking", "description": "", "website": "", "trail_visibility": "", "mtb:scale:imba": "", "admin_level": "", "border_type": "", "boundary": "", "is_in:country": "", "is_in:country_code": "", "is_in:iso_3166_2": "", "is_in:state": "", "tiger:CLASSFP": "", "tiger:CPI": "", "tiger:FUNCSTAT": "", "tiger:LSAD": "", "tiger:MTFCC": "", "tiger:NAME": "", "tiger:NAMELSAD": "", "tiger:PCICBSA": "", "tiger:PCINECTA": "", "tiger:PLACEFP": "", "tiger:PLACENS": "", "tiger:PLCIDFP": "", "tiger:STATEFP": "", "wikidata": "", "wikipedia": "", "tunnel": "", "lit": "", "width": "", "waterway": "", "barrier": "", "fence_type": "", "junction": "", "shoulder": "", "lanes:backward": "", "lanes:forward": "", "turn:lanes:backward": "", "intermittent": "", "natural": "", "seasonal": "", "footway": "", "crossing": "", "tiger:name_base_3": "", "tiger:name_direction_prefix_3": "", "turn:lanes:forward": "", "turn:lanes": "", "lanes:both_ways": "", "turn:lanes:both_ways": "", "golf": "", "golf_cart": "", "power": "", "disused:highway": "", "tourism": "", "auxiliary_storage_labeling_positionx": -104.8760236574086, "auxiliary_storage_labeling_positiony": 38.867892105974342, "auxiliary_storage_labeling_show": null, "length": 1014.5772248702386 }, "geometry": { "type": "LineString", "coordinates": [ [ -104.875042042670401, 38.868709128104548 ], [ -104.875045, 38.8686808 ], [ -104.8750517, 38.8684871 ], [ -104.8751289, 38.8684069 ], [ -104.875189, 38.8683601 ], [ -104.8754207, 38.8682933 ], [ -104.8754894, 38.8682866 ], [ -104.8756353, 38.86832 ], [ -104.8756954, 38.86832 ], [ -104.8757469, 38.8683066 ], [ -104.8757898, 38.8682799 ], [ -104.8759217, 38.8682117 ], [ -104.8760864, 38.8680861 ], [ -104.8761404, 38.8680292 ], [ -104.8761838, 38.8679591 ], [ -104.8762104, 38.8678723 ], [ -104.8762533, 38.8677587 ], [ -104.8762876, 38.8676785 ], [ -104.8763305, 38.867605 ], [ -104.8763906, 38.8675381 ], [ -104.8764164, 38.867478 ], [ -104.8764421, 38.8673777 ], [ -104.8764764, 38.8672441 ], [ -104.8765108, 38.8671773 ], [ -104.8765365, 38.8671639 ], [ -104.876588, 38.867077 ], [ -104.8766395, 38.8670102 ], [ -104.8767168, 38.8669434 ], [ -104.8767854, 38.8669033 ], [ -104.8769399, 38.8668899 ], [ -104.8771202, 38.8668899 ] ] } },
{ "type": "Feature", "properties": { "fid": 720, "full_id": "w662407761", "osm_id": "662407761", "osm_type": "way", "highway": "cycleway", "name": "Foothills Trail", "tiger:cfcc": "", "tiger:county": "", "tiger:reviewed": "", "cycleway": "", "oneway": "", "tiger:name_base": "", "tiger:name_type": "", "service": "", "access": "", "alt_name": "", "ref": "", "surface": "concrete", "tiger:name_direction_prefix": "", "cycleway:both": "", "maxspeed:type": "", "sidewalk": "", "sidewalk:both:bicycle": "", "lanes": "", "bicycle": "", "foot": "yes", "old_railway_operator": "", "segregated": "", "bridge": "", "layer": "", "tiger:separated": "", "tiger:source": "", "tiger:tlid": "", "maxspeed": "", "name_1": "", "tiger:name_base_1": "", "tiger:name_type_1": "", "cycleway:right": "", "route": "", "tracktype": "", "horse": "", "motor_vehicle": "", "railway": "", "tiger:name_base_2": "", "tiger:zip_right": "", "name_2": "", "destination": "", "destination:ref": "", "alt_name_1": "", "parking:lane:both": "", "mtb:scale": "", "old_ref": "", "NHS": "", "hgv": "", "hgv:national_network": "", "source:hgv:national_network": "", "sac_scale": "", "description": "", "website": "", "trail_visibility": "", "mtb:scale:imba": "", "admin_level": "", "border_type": "", "boundary": "", "is_in:country": "", "is_in:country_code": "", "is_in:iso_3166_2": "", "is_in:state": "", "tiger:CLASSFP": "", "tiger:CPI": "", "tiger:FUNCSTAT": "", "tiger:LSAD": "", "tiger:MTFCC": "", "tiger:NAME": "", "tiger:NAMELSAD": "", "tiger:PCICBSA": "", "tiger:PCINECTA": "", "tiger:PLACEFP": "", "tiger:PLACENS": "", "tiger:PLCIDFP": "", "tiger:STATEFP": "", "wikidata": "", "wikipedia": "", "tunnel": "", "lit": "", "width": "", "waterway": "", "barrier": "", "fence_type": "", "junction": "", "shoulder": "", "lanes:backward": "", "lanes:forward": "", "turn:lanes:backward": "", "intermittent": "", "natural": "", "seasonal": "", "footway": "", "crossing": "", "tiger:name_base_3": "", "tiger:name_direction_prefix_3": "", "turn:lanes:forward": "", "turn:lanes": "", "lanes:both_ways": "", "turn:lanes:both_ways": "", "golf": "", "golf_cart": "", "power": "", "disused:highway": "", "tourism": "", "auxiliary_storage_labeling_positionx": -104.86948210204655, "auxiliary_storage_labeling_positiony": 38.872644330400462, "auxiliary_storage_labeling_show": null, "length": 2112.315215567206 }, "geometry": { "type": "LineString", "coordinates": [ [ -104.86947483773892, 38.87173515014878 ], [ -104.8695331, 38.8720216 ], [ -104.8695615, 38.8722174 ], [ -104.8695738, 38.8726395 ], [ -104.8695368, 38.8732344 ], [ -104.8694136, 38.8737525 ], [ -104.869352129759122, 38.874154961948896 ], [ -104.869495386973526, 38.874883699017822 ], [ -104.869614386002482, 38.875387218989474 ], [ -104.869660803036723, 38.875961783150537 ], [ -104.869790770732536, 38.87633940297826 ], [ -104.869926126592347, 38.876578940396705 ], [ -104.8703509662583, 38.876830930491657 ], [ -104.87061021924157, 38.877281461540129 ], [ -104.870771508852329, 38.87760257316139 ], [ -104.871000186289976, 38.877739195156153 ], [ -104.871799517761815, 38.877660552600531 ], [ -104.872258380970408, 38.877675132985537 ], [ -104.872651692292038, 38.877689713367573 ], [ -104.873053596246336, 38.877512391274713 ] ] } },
{ "type": "Feature", "properties": { "fid": 721, "full_id": "w662407762", "osm_id": "662407762", "osm_type": "way", "highway": "cycleway", "name": "Gateway Trail", "tiger:cfcc": "", "tiger:county": "", "tiger:reviewed": "", "cycleway": "", "oneway": "", "tiger:name_base": "", "tiger:name_type": "", "service": "", "access": "", "alt_name": "", "ref": "", "surface": "concrete", "tiger:name_direction_prefix": "", "cycleway:both": "", "maxspeed:type": "", "sidewalk": "", "sidewalk:both:bicycle": "", "lanes": "", "bicycle": "designated", "foot": "designated", "old_railway_operator": "", "segregated": "", "bridge": "", "layer": "", "tiger:separated": "", "tiger:source": "", "tiger:tlid": "", "maxspeed": "", "name_1": "", "tiger:name_base_1": "", "tiger:name_type_1": "", "cycleway:right": "", "route": "", "tracktype": "", "horse": "", "motor_vehicle": "", "railway": "", "tiger:name_base_2": "", "tiger:zip_right": "", "name_2": "", "destination": "", "destination:ref": "", "alt_name_1": "", "parking:lane:both": "", "mtb:scale": "", "old_ref": "", "NHS": "", "hgv": "", "hgv:national_network": "", "source:hgv:national_network": "", "sac_scale": "hiking", "description": "", "website": "", "trail_visibility": "", "mtb:scale:imba": "", "admin_level": "", "border_type": "", "boundary": "", "is_in:country": "", "is_in:country_code": "", "is_in:iso_3166_2": "", "is_in:state": "", "tiger:CLASSFP": "", "tiger:CPI": "", "tiger:FUNCSTAT": "", "tiger:LSAD": "", "tiger:MTFCC": "", "tiger:NAME": "", "tiger:NAMELSAD": "", "tiger:PCICBSA": "", "tiger:PCINECTA": "", "tiger:PLACEFP": "", "tiger:PLACENS": "", "tiger:PLCIDFP": "", "tiger:STATEFP": "", "wikidata": "", "wikipedia": "", "tunnel": "", "lit": "", "width": "", "waterway": "", "barrier": "", "fence_type": "", "junction": "", "shoulder": "", "lanes:backward": "", "lanes:forward": "", "turn:lanes:backward": "", "intermittent": "", "natural": "", "seasonal": "", "footway": "", "crossing": "", "tiger:name_base_3": "", "tiger:name_direction_prefix_3": "", "turn:lanes:forward": "", "turn:lanes": "", "lanes:both_ways": "", "turn:lanes:both_ways": "", "golf": "", "golf_cart": "", "power": "", "disused:highway": "", "tourism": "", "auxiliary_storage_labeling_positionx": -104.87553021982778, "auxiliary_storage_labeling_positiony": 38.877638027939156, "auxiliary_storage_labeling_show": null, "length": 1636.97464203086 }, "geometry": { "type": "LineString", "coordinates": [ [ -104.877606208910763, 38.877046256781391 ], [ -104.877409036583231, 38.876975235466439 ], [ -104.877055892116019, 38.876970653443685 ], [ -104.876806, 38.8769647 ], [ -104.8767069, 38.8769785 ], [ -104.8765879, 38.8769825 ], [ -104.876477, 38.876978 ], [ -104.8763761, 38.8769651 ], [ -104.8762329, 38.8769426 ], [ -104.8761506, 38.876933 ], [ -104.8759532, 38.876933 ], [ -104.8757902, 38.8769864 ], [ -104.8756185, 38.8770332 ], [ -104.875464, 38.8770666 ], [ -104.8753229, 38.8771598 ], [ -104.8752696, 38.8771877 ], [ -104.8751821, 38.877246 ], [ -104.8749235, 38.8774193 ], [ -104.8748415, 38.8775279 ], [ -104.8745605, 38.8779434 ], [ -104.8745288, 38.8781412 ], [ -104.8744659, 38.8781523 ], [ -104.8744021, 38.8778929 ], [ -104.8743537, 38.8775016 ], [ -104.874365, 38.8774158 ], [ -104.8741649, 38.8772879 ], [ -104.8740549, 38.8771617 ], [ -104.8738733, 38.8771673 ], [ -104.8737775, 38.8771906 ], [ -104.87350716952804, 38.877352307253254 ], [ -104.873238105290909, 38.877485036900147 ], [ -104.873062733760946, 38.877526618192611 ] ] } },
{ "type": "Feature", "properties": { "fid": 2, "full_id": "w7683747", "osm_id": "7683747", "osm_type": "way", "highway": "unclassified", "name": "Juniper Way Loop", "tiger:cfcc": "A41", "tiger:county": "El Paso, CO", "tiger:reviewed": "no", "cycleway": "", "oneway": "yes", "tiger:name_base": "Juniper;Ridge", "tiger:name_type": "Way;Rd", "service": "", "access": null, "alt_name": null, "ref": null, "surface": "asphalt", "tiger:name_direction_prefix": "", "cycleway:both": null, "maxspeed:type": null, "sidewalk": null, "sidewalk:both:bicycle": null, "lanes": "", "bicycle": "", "foot": "", "old_railway_operator": null, "segregated": null, "bridge": "", "layer": "", "tiger:separated": null, "tiger:source": null, "tiger:tlid": null, "maxspeed": "", "name_1": null, "tiger:name_base_1": null, "tiger:name_type_1": null, "cycleway:right": "lane", "route": null, "tracktype": null, "horse": null, "motor_vehicle": null, "railway": null, "tiger:name_base_2": null, "tiger:zip_right": null, "name_2": null, "destination": null, "destination:ref": null, "alt_name_1": null, "parking:lane:both": null, "mtb:scale": null, "old_ref": null, "NHS": null, "hgv": null, "hgv:national_network": null, "source:hgv:national_network": null, "sac_scale": "", "description": null, "website": null, "trail_visibility": null, "mtb:scale:imba": null, "admin_level": null, "border_type": null, "boundary": null, "is_in:country": null, "is_in:country_code": null, "is_in:iso_3166_2": null, "is_in:state": null, "tiger:CLASSFP": null, "tiger:CPI": null, "tiger:FUNCSTAT": null, "tiger:LSAD": null, "tiger:MTFCC": null, "tiger:NAME": null, "tiger:NAMELSAD": null, "tiger:PCICBSA": null, "tiger:PCINECTA": null, "tiger:PLACEFP": null, "tiger:PLACENS": null, "tiger:PLCIDFP": null, "tiger:STATEFP": null, "wikidata": null, "wikipedia": null, "tunnel": "", "lit": null, "width": null, "waterway": null, "barrier": null, "fence_type": null, "junction": null, "shoulder": null, "lanes:backward": "", "lanes:forward": "", "turn:lanes:backward": null, "intermittent": null, "natural": null, "seasonal": null, "footway": null, "crossing": null, "tiger:name_base_3": null, "tiger:name_direction_prefix_3": null, "turn:lanes:forward": null, "turn:lanes": null, "lanes:both_ways": null, "turn:lanes:both_ways": null, "golf": null, "golf_cart": null, "power": null, "disused:highway": null, "tourism": null, "auxiliary_storage_labeling_positionx": null, "auxiliary_storage_labeling_positiony": null, "auxiliary_storage_labeling_show": null, "length": null }, "geometry": { "type": "LineString", "coordinates": [ [ -104.877973, 38.8771868 ], [ -104.8779744, 38.8771939 ], [ -104.8779998, 38.8773996 ], [ -104.8780771, 38.8778406 ], [ -104.8781177, 38.8782951 ], [ -104.8781543, 38.8788763 ], [ -104.8781629, 38.8791903 ], [ -104.8781457, 38.8794442 ], [ -104.8781114, 38.879658 ], [ -104.8780427, 38.879952 ], [ -104.8780427, 38.8800723 ], [ -104.8780771, 38.8802059 ], [ -104.8782144, 38.8803997 ], [ -104.8788238, 38.8810812 ], [ -104.8789354, 38.8811814 ], [ -104.8790813, 38.8812683 ], [ -104.8792615, 38.8813151 ], [ -104.879773, 38.881409 ], [ -104.8798533, 38.8814237 ], [ -104.879924, 38.8814367 ], [ -104.8803173, 38.8815088 ], [ -104.8804046, 38.8815236 ], [ -104.8807548, 38.8815831 ], [ -104.8814588, 38.8817026 ], [ -104.8815961, 38.8817493 ], [ -104.8817077, 38.8818362 ], [ -104.881845, 38.8819632 ], [ -104.8819738, 38.8821235 ], [ -104.882051, 38.8822705 ], [ -104.8821111, 38.8824843 ], [ -104.8821712, 38.8825912 ], [ -104.8822828, 38.8826781 ], [ -104.8823622, 38.8826999 ], [ -104.8824287, 38.8827182 ], [ -104.882566, 38.8827248 ], [ -104.8827033, 38.8826781 ], [ -104.8827548, 38.8826246 ], [ -104.8827978, 38.8825311 ], [ -104.8827978, 38.8824175 ], [ -104.882772, 38.8822772 ], [ -104.8827205, 38.8820433 ], [ -104.8827119, 38.8819164 ], [ -104.8827548, 38.8816491 ], [ -104.8827463, 38.8815489 ], [ -104.8827071, 38.8814342 ], [ -104.8827033, 38.881422 ], [ -104.8826347, 38.8812416 ], [ -104.8826261, 38.8811079 ], [ -104.8826427, 38.8810184 ], [ -104.8826519, 38.8809743 ], [ -104.882772, 38.8807404 ], [ -104.8828235, 38.8806001 ], [ -104.8829179, 38.8804331 ], [ -104.8830638, 38.8803195 ], [ -104.8832355, 38.880226 ], [ -104.8833986, 38.8801725 ], [ -104.8836132, 38.8801725 ], [ -104.8837076, 38.8801792 ], [ -104.8837677, 38.8801525 ], [ -104.8838191, 38.880079 ], [ -104.8838277, 38.8799654 ], [ -104.8837848, 38.8797917 ], [ -104.8836389, 38.8794977 ], [ -104.8835187, 38.8792839 ], [ -104.8834668, 38.879207 ], [ -104.8834329, 38.8791569 ], [ -104.8834072, 38.8790166 ], [ -104.8833533, 38.8781474 ], [ -104.883338, 38.8777569 ], [ -104.883317, 38.8773029 ], [ -104.8832916, 38.8767417 ], [ -104.883168795763368, 38.876542180015882 ] ] } },
{ "type": "Feature", "properties": { "fid": 4, "full_id": "w37223087", "osm_id": "37223087", "osm_type": "way", "highway": "unclassified", "name": "Gateway Road", "tiger:cfcc": "", "tiger:county": "", "tiger:reviewed": "", "cycleway": "", "oneway": "yes", "tiger:name_base": "", "tiger:name_type": "", "service": "", "access": null, "alt_name": null, "ref": null, "surface": "asphalt", "tiger:name_direction_prefix": "", "cycleway:both": null, "maxspeed:type": null, "sidewalk": null, "sidewalk:both:bicycle": null, "lanes": "", "bicycle": "", "foot": "", "old_railway_operator": null, "segregated": null, "bridge": "", "layer": "", "tiger:separated": null, "tiger:source": null, "tiger:tlid": null, "maxspeed": "", "name_1": null, "tiger:name_base_1": null, "tiger:name_type_1": null, "cycleway:right": "", "route": null, "tracktype": null, "horse": null, "motor_vehicle": null, "railway": null, "tiger:name_base_2": null, "tiger:zip_right": null, "name_2": null, "destination": null, "destination:ref": null, "alt_name_1": null, "parking:lane:both": null, "mtb:scale": null, "old_ref": null, "NHS": null, "hgv": null, "hgv:national_network": null, "source:hgv:national_network": null, "sac_scale": "", "description": null, "website": null, "trail_visibility": null, "mtb:scale:imba": null, "admin_level": null, "border_type": null, "boundary": null, "is_in:country": null, "is_in:country_code": null, "is_in:iso_3166_2": null, "is_in:state": null, "tiger:CLASSFP": null, "tiger:CPI": null, "tiger:FUNCSTAT": null, "tiger:LSAD": null, "tiger:MTFCC": null, "tiger:NAME": null, "tiger:NAMELSAD": null, "tiger:PCICBSA": null, "tiger:PCINECTA": null, "tiger:PLACEFP": null, "tiger:PLACENS": null, "tiger:PLCIDFP": null, "tiger:STATEFP": null, "wikidata": null, "wikipedia": null, "tunnel": "", "lit": null, "width": null, "waterway": null, "barrier": null, "fence_type": null, "junction": null, "shoulder": null, "lanes:backward": "", "lanes:forward": "", "turn:lanes:backward": null, "intermittent": null, "natural": null, "seasonal": null, "footway": null, "crossing": null, "tiger:name_base_3": null, "tiger:name_direction_prefix_3": null, "turn:lanes:forward": null, "turn:lanes": null, "lanes:both_ways": null, "turn:lanes:both_ways": null, "golf": null, "golf_cart": null, "power": null, "disused:highway": null, "tourism": null, "auxiliary_storage_labeling_positionx": null, "auxiliary_storage_labeling_positiony": null, "auxiliary_storage_labeling_show": null, "length": null }, "geometry": { "type": "LineString", "coordinates": [ [ -104.8776366, 38.876948 ], [ -104.8777157, 38.8770038 ], [ -104.877811, 38.8770655 ], [ -104.8778977, 38.8771309 ], [ -104.8779744, 38.8771939 ] ] } },
{ "type": "Feature", "properties": { "fid": 26, "full_id": "w51024533", "osm_id": "51024533", "osm_type": "way", "highway": "unclassified", "name": "Juniper Way Loop", "tiger:cfcc": "A41", "tiger:county": "El Paso, CO", "tiger:reviewed": "no", "cycleway": "lane", "oneway": "yes", "tiger:name_base": "Ridge", "tiger:name_type": "Rd", "service": "", "access": null, "alt_name": null, "ref": null, "surface": "asphalt", "tiger:name_direction_prefix": "", "cycleway:both": null, "maxspeed:type": null, "sidewalk": null, "sidewalk:both:bicycle": null, "lanes": "", "bicycle": "", "foot": "", "old_railway_operator": null, "segregated": null, "bridge": "", "layer": "", "tiger:separated": null, "tiger:source": null, "tiger:tlid": null, "maxspeed": "", "name_1": null, "tiger:name_base_1": null, "tiger:name_type_1": null, "cycleway:right": "", "route": null, "tracktype": null, "horse": null, "motor_vehicle": null, "railway": null, "tiger:name_base_2": null, "tiger:zip_right": null, "name_2": null, "destination": null, "destination:ref": null, "alt_name_1": null, "parking:lane:both": null, "mtb:scale": null, "old_ref": null, "NHS": null, "hgv": null, "hgv:national_network": null, "source:hgv:national_network": null, "sac_scale": "", "description": null, "website": null, "trail_visibility": null, "mtb:scale:imba": null, "admin_level": null, "border_type": null, "boundary": null, "is_in:country": null, "is_in:country_code": null, "is_in:iso_3166_2": null, "is_in:state": null, "tiger:CLASSFP": null, "tiger:CPI": null, "tiger:FUNCSTAT": null, "tiger:LSAD": null, "tiger:MTFCC": null, "tiger:NAME": null, "tiger:NAMELSAD": null, "tiger:PCICBSA": null, "tiger:PCINECTA": null, "tiger:PLACEFP": null, "tiger:PLACENS": null, "tiger:PLCIDFP": null, "tiger:STATEFP": null, "wikidata": null, "wikipedia": null, "tunnel": "", "lit": null, "width": null, "waterway": null, "barrier": null, "fence_type": null, "junction": null, "shoulder": null, "lanes:backward": "", "lanes:forward": "", "turn:lanes:backward": null, "intermittent": null, "natural": null, "seasonal": null, "footway": null, "crossing": null, "tiger:name_base_3": null, "tiger:name_direction_prefix_3": null, "turn:lanes:forward": null, "turn:lanes": null, "lanes:both_ways": null, "turn:lanes:both_ways": null, "golf": null, "golf_cart": null, "power": null, "disused:highway": null, "tourism": null, "auxiliary_storage_labeling_positionx": null, "auxiliary_storage_labeling_positiony": null, "auxiliary_storage_labeling_show": null, "length": null }, "geometry": { "type": "LineString", "coordinates": [ [ -104.8779634, 38.8768889 ], [ -104.8779566, 38.8769562 ], [ -104.8779537, 38.8769964 ], [ -104.8779553, 38.8770441 ], [ -104.8779584, 38.8770938 ], [ -104.8779661, 38.8771528 ], [ -104.877973, 38.8771868 ] ] } },
{ "type": "Feature", "properties": { "fid": 295, "full_id": "w37223248", "osm_id": "37223248", "osm_type": "way", "highway": "unclassified", "name": "Ridge Road", "tiger:cfcc": "A41", "tiger:county": "El Paso, CO", "tiger:reviewed": "", "cycleway": "", "oneway": "", "tiger:name_base": "Ridge", "tiger:name_type": "Rd", "service": "", "access": "", "alt_name": "", "ref": "", "surface": "asphalt", "tiger:name_direction_prefix": "", "cycleway:both": "", "maxspeed:type": "", "sidewalk": "", "sidewalk:both:bicycle": "", "lanes": "", "bicycle": "", "foot": "", "old_railway_operator": "", "segregated": "", "bridge": "", "layer": "", "tiger:separated": "", "tiger:source": "", "tiger:tlid": "", "maxspeed": "", "name_1": "", "tiger:name_base_1": "", "tiger:name_type_1": "", "cycleway:right": "", "route": "", "tracktype": "", "horse": "", "motor_vehicle": "", "railway": "", "tiger:name_base_2": "", "tiger:zip_right": "", "name_2": "", "destination": "", "destination:ref": "", "alt_name_1": "", "parking:lane:both": "", "mtb:scale": "", "old_ref": "", "NHS": "", "hgv": "", "hgv:national_network": "", "source:hgv:national_network": "", "sac_scale": "", "description": "", "website": "", "trail_visibility": "", "mtb:scale:imba": "", "admin_level": "", "border_type": "", "boundary": "", "is_in:country": "", "is_in:country_code": "", "is_in:iso_3166_2": "", "is_in:state": "", "tiger:CLASSFP": "", "tiger:CPI": "", "tiger:FUNCSTAT": "", "tiger:LSAD": "", "tiger:MTFCC": "", "tiger:NAME": "", "tiger:NAMELSAD": "", "tiger:PCICBSA": "", "tiger:PCINECTA": "", "tiger:PLACEFP": "", "tiger:PLACENS": "", "tiger:PLCIDFP": "", "tiger:STATEFP": "", "wikidata": "", "wikipedia": "", "tunnel": "", "lit": "", "width": "", "waterway": "", "barrier": "", "fence_type": "", "junction": "", "shoulder": "", "lanes:backward": "", "lanes:forward": "", "turn:lanes:backward": "", "intermittent": "", "natural": "", "seasonal": "", "footway": "", "crossing": "", "tiger:name_base_3": "", "tiger:name_direction_prefix_3": "", "turn:lanes:forward": "", "turn:lanes": "", "lanes:both_ways": null, "turn:lanes:both_ways": null, "golf": "", "golf_cart": "", "power": "", "disused:highway": "", "tourism": "", "auxiliary_storage_labeling_positionx": null, "auxiliary_storage_labeling_positiony": null, "auxiliary_storage_labeling_show": null, "length": null }, "geometry": { "type": "LineString", "coordinates": [ [ -104.878871788586721, 38.867750785593081 ], [ -104.878906744599561, 38.867681231953007 ], [ -104.8789487, 38.867551 ], [ -104.8789661, 38.8674888 ], [ -104.8789795, 38.867351 ], [ -104.8789795, 38.8672674 ], [ -104.87895, 38.8669751 ], [ -104.8789634, 38.8667662 ], [ -104.8790465, 38.8664362 ], [ -104.8791619, 38.8660708 ], [ -104.8791619, 38.8659935 ], [ -104.8791404, 38.8659371 ], [ -104.8790894, 38.8658828 ], [ -104.8789446, 38.8657763 ], [ -104.8786844, 38.8656072 ], [ -104.8786443, 38.8655725 ], [ -104.8785557, 38.8654944 ], [ -104.878376, 38.8653607 ], [ -104.8782642, 38.8652966 ], [ -104.8781212, 38.8652145 ], [ -104.8780729, 38.8651644 ], [ -104.8780461, 38.8651143 ], [ -104.8780353, 38.865083 ], [ -104.8780353, 38.8650078 ], [ -104.8781426, 38.8646506 ], [ -104.8783733, 38.8639343 ], [ -104.878443, 38.8636753 ], [ -104.8785262, 38.8634644 ], [ -104.878604, 38.8632785 ], [ -104.8786978, 38.8629193 ], [ -104.8789547, 38.8622084 ], [ -104.8789789, 38.8621378 ], [ -104.8789875, 38.8620762 ], [ -104.8789911, 38.8620164 ], [ -104.8789814, 38.8618525 ], [ -104.8789838, 38.8617903 ], [ -104.8789985, 38.8617197 ], [ -104.8790362, 38.8616363 ], [ -104.8790947, 38.8615546 ], [ -104.8791851, 38.861434 ], [ -104.879284, 38.8613083 ], [ -104.8793887, 38.8611937 ], [ -104.879479, 38.8610816 ], [ -104.8795469, 38.8609816 ], [ -104.8796169, 38.8608659 ] ] } },
{ "type": "Feature", "properties": { "fid": 300, "full_id": "w37223262", "osm_id": "37223262", "osm_type": "way", "highway": "unclassified", "name": "Gateway Road", "tiger:cfcc": "A41", "tiger:county": "El Paso, CO", "tiger:reviewed": "", "cycleway": "", "oneway": "", "tiger:name_base": "Gateway", "tiger:name_type": "Rd", "service": "", "access": "", "alt_name": "", "ref": "", "surface": "asphalt", "tiger:name_direction_prefix": "", "cycleway:both": "", "maxspeed:type": "", "sidewalk": "", "sidewalk:both:bicycle": "", "lanes": "", "bicycle": "", "foot": "", "old_railway_operator": "", "segregated": "", "bridge": "", "layer": "", "tiger:separated": "", "tiger:source": "", "tiger:tlid": "", "maxspeed": "", "name_1": "", "tiger:name_base_1": "", "tiger:name_type_1": "", "cycleway:right": "", "route": "", "tracktype": "", "horse": "", "motor_vehicle": "", "railway": "", "tiger:name_base_2": "", "tiger:zip_right": "", "name_2": "", "destination": "", "destination:ref": "", "alt_name_1": "", "parking:lane:both": "", "mtb:scale": "", "old_ref": "", "NHS": "", "hgv": "", "hgv:national_network": "", "source:hgv:national_network": "", "sac_scale": "", "description": "", "website": "", "trail_visibility": "", "mtb:scale:imba": "", "admin_level": "", "border_type": "", "boundary": "", "is_in:country": "", "is_in:country_code": "", "is_in:iso_3166_2": "", "is_in:state": "", "tiger:CLASSFP": "", "tiger:CPI": "", "tiger:FUNCSTAT": "", "tiger:LSAD": "", "tiger:MTFCC": "", "tiger:NAME": "", "tiger:NAMELSAD": "", "tiger:PCICBSA": "", "tiger:PCINECTA": "", "tiger:PLACEFP": "", "tiger:PLACENS": "", "tiger:PLCIDFP": "", "tiger:STATEFP": "", "wikidata": "", "wikipedia": "", "tunnel": "", "lit": "", "width": "", "waterway": "", "barrier": "", "fence_type": "", "junction": "", "shoulder": "", "lanes:backward": "", "lanes:forward": "", "turn:lanes:backward": "", "intermittent": "", "natural": "", "seasonal": "", "footway": "", "crossing": "", "tiger:name_base_3": "", "tiger:name_direction_prefix_3": "", "turn:lanes:forward": "", "turn:lanes": "", "lanes:both_ways": null, "turn:lanes:both_ways": null, "golf": "", "golf_cart": "", "power": "", "disused:highway": "", "tourism": "", "auxiliary_storage_labeling_positionx": null, "auxiliary_storage_labeling_positiony": null, "auxiliary_storage_labeling_show": null, "length": null }, "geometry": { "type": "LineString", "coordinates": [ [ -104.870026092991083, 38.878308267345169 ], [ -104.870310693024905, 38.878160563410418 ], [ -104.8706787, 38.8778501 ], [ -104.8708318, 38.8777285 ], [ -104.8711063, 38.8775578 ], [ -104.8713338, 38.8774262 ], [ -104.871464631370245, 38.877363662201397 ], [ -104.871741502605914, 38.877309956208528 ], [ -104.872071735602773, 38.877244117677044 ], [ -104.872716092669748, 38.877122891015077 ], [ -104.8729873, 38.8770722 ], [ -104.8736396, 38.8769987 ], [ -104.8750816, 38.8768851 ], [ -104.8761373, 38.8768116 ], [ -104.8771326, 38.8768689 ], [ -104.8772903, 38.8768796 ], [ -104.8774055, 38.8768912 ], [ -104.8774715, 38.8769032 ], [ -104.8775322, 38.8769175 ], [ -104.8775946, 38.8769357 ], [ -104.8776112, 38.8769406 ], [ -104.8776366, 38.876948 ], [ -104.8776541, 38.8769535 ], [ -104.8776896, 38.8769643 ] ] } },
{ "type": "Feature", "properties": { "fid": 1448, "full_id": "w7677924", "osm_id": "7677924", "osm_type": "way", "highway": "residential", "name": "West Fontanero Street", "tiger:cfcc": "A41", "tiger:county": "El Paso, CO", "tiger:reviewed": "no", "cycleway": "", "oneway": "", "tiger:name_base": "Fontanero", "tiger:name_type": "St", "service": "", "access": "", "alt_name": "", "ref": "", "surface": "asphalt", "tiger:name_direction_prefix": "W", "cycleway:both": "", "maxspeed:type": "", "sidewalk": "", "sidewalk:both:bicycle": "", "lanes": "", "bicycle": "", "foot": "", "old_railway_operator": "", "segregated": "", "bridge": "", "layer": "", "tiger:separated": "", "tiger:source": "", "tiger:tlid": "", "maxspeed": "", "name_1": "", "tiger:name_base_1": "", "tiger:name_type_1": "", "cycleway:right": "", "route": "", "tracktype": "", "horse": "", "motor_vehicle": "", "railway": "", "tiger:name_base_2": "", "tiger:zip_right": "", "name_2": "", "destination": "", "destination:ref": "", "alt_name_1": "", "parking:lane:both": "", "mtb:scale": "", "old_ref": "", "NHS": "", "hgv": "", "hgv:national_network": "", "source:hgv:national_network": "", "sac_scale": "", "description": "", "website": "", "trail_visibility": "", "mtb:scale:imba": "", "admin_level": "", "border_type": "", "boundary": "", "is_in:country": "", "is_in:country_code": "", "is_in:iso_3166_2": "", "is_in:state": "", "tiger:CLASSFP": "", "tiger:CPI": "", "tiger:FUNCSTAT": "", "tiger:LSAD": "", "tiger:MTFCC": "", "tiger:NAME": "", "tiger:NAMELSAD": "", "tiger:PCICBSA": "", "tiger:PCINECTA": "", "tiger:PLACEFP": "", "tiger:PLACENS": "", "tiger:PLCIDFP": "", "tiger:STATEFP": "", "wikidata": "", "wikipedia": "", "tunnel": "", "lit": "", "width": "", "waterway": "", "barrier": "", "fence_type": "", "junction": "", "shoulder": "", "lanes:backward": "", "lanes:forward": "", "turn:lanes:backward": "", "intermittent": "", "natural": "", "seasonal": "", "footway": "", "crossing": "", "tiger:name_base_3": "", "tiger:name_direction_prefix_3": "", "turn:lanes:forward": "", "turn:lanes": "", "lanes:both_ways": null, "turn:lanes:both_ways": null, "golf": "", "golf_cart": "", "power": "", "disused:highway": "", "tourism": "", "auxiliary_storage_labeling_positionx": null, "auxiliary_storage_labeling_positiony": null, "auxiliary_storage_labeling_show": null, "length": null }, "geometry": { "type": "LineString", "coordinates": [ [ -104.8750392, 38.8641299 ], [ -104.8749822, 38.8641654 ], [ -104.8749231, 38.8641843 ], [ -104.8748616, 38.8641944 ], [ -104.8747999, 38.8641923 ], [ -104.8747422, 38.8641827 ], [ -104.8746815, 38.8641552 ], [ -104.8746193, 38.8641117 ], [ -104.874225, 38.8638141 ], [ -104.8734713, 38.8632487 ], [ -104.8731359, 38.8629656 ] ] } },
{ "type": "Feature", "properties": { "fid": 1450, "full_id": "w51024544", "osm_id": "51024544", "osm_type": "way", "highway": "unclassified", "name": "Juniper Way Loop", "tiger:cfcc": "A41", "tiger:county": "El Paso, CO", "tiger:reviewed": "", "cycleway": "", "oneway": "yes", "tiger:name_base": "Juniper", "tiger:name_type": "Way", "service": "", "access": null, "alt_name": null, "ref": null, "surface": "asphalt", "tiger:name_direction_prefix": "", "cycleway:both": null, "maxspeed:type": null, "sidewalk": null, "sidewalk:both:bicycle": null, "lanes": "", "bicycle": "", "foot": "", "old_railway_operator": null, "segregated": null, "bridge": "", "layer": "", "tiger:separated": null, "tiger:source": null, "tiger:tlid": null, "maxspeed": "", "name_1": null, "tiger:name_base_1": null, "tiger:name_type_1": null, "cycleway:right": "lane", "route": null, "tracktype": null, "horse": null, "motor_vehicle": null, "railway": null, "tiger:name_base_2": null, "tiger:zip_right": null, "name_2": null, "destination": null, "destination:ref": null, "alt_name_1": null, "parking:lane:both": null, "mtb:scale": null, "old_ref": null, "NHS": null, "hgv": null, "hgv:national_network": null, "source:hgv:national_network": null, "sac_scale": "", "description": null, "website": null, "trail_visibility": null, "mtb:scale:imba": null, "admin_level": null, "border_type": null, "boundary": null, "is_in:country": null, "is_in:country_code": null, "is_in:iso_3166_2": null, "is_in:state": null, "tiger:CLASSFP": null, "tiger:CPI": null, "tiger:FUNCSTAT": null, "tiger:LSAD": null, "tiger:MTFCC": null, "tiger:NAME": null, "tiger:NAMELSAD": null, "tiger:PCICBSA": null, "tiger:PCINECTA": null, "tiger:PLACEFP": null, "tiger:PLACENS": null, "tiger:PLCIDFP": null, "tiger:STATEFP": null, "wikidata": null, "wikipedia": null, "tunnel": "", "lit": null, "width": null, "waterway": null, "barrier": null, "fence_type": null, "junction": null, "shoulder": null, "lanes:backward": "", "lanes:forward": "", "turn:lanes:backward": null, "intermittent": null, "natural": null, "seasonal": null, "footway": null, "crossing": null, "tiger:name_base_3": null, "tiger:name_direction_prefix_3": null, "turn:lanes:forward": null, "turn:lanes": null, "lanes:both_ways": null, "turn:lanes:both_ways": null, "golf": null, "golf_cart": null, "power": null, "disused:highway": null, "tourism": null, "auxiliary_storage_labeling_positionx": null, "auxiliary_storage_labeling_positiony": null, "auxiliary_storage_labeling_show": null, "length": null }, "geometry": { "type": "LineString", "coordinates": [ [ -104.8830772, 38.8764519 ], [ -104.8828626, 38.8762514 ], [ -104.8826909, 38.876071 ], [ -104.8825622, 38.8759106 ], [ -104.8824506, 38.8756968 ], [ -104.8823991, 38.8754496 ], [ -104.8823905, 38.8751957 ], [ -104.8824077, 38.8746076 ], [ -104.8824334, 38.8744874 ], [ -104.8825193, 38.8742936 ], [ -104.8825279, 38.8741867 ], [ -104.882442, 38.8740397 ], [ -104.8822704, 38.8738325 ], [ -104.8822017, 38.8737189 ], [ -104.8819785, 38.8732979 ], [ -104.8817811, 38.8729839 ], [ -104.8814378, 38.8721219 ], [ -104.881249, 38.8714403 ], [ -104.8811288, 38.8709925 ], [ -104.8809743, 38.8706918 ], [ -104.8809142, 38.8705314 ], [ -104.8808799, 38.8701706 ], [ -104.880837, 38.8700704 ], [ -104.8807683, 38.8699902 ], [ -104.8799959, 38.8694957 ], [ -104.8798156, 38.8694088 ], [ -104.8794036, 38.8692484 ], [ -104.8792491, 38.8691415 ], [ -104.8789831, 38.8689009 ], [ -104.8788801, 38.8687539 ], [ -104.8788543, 38.8686135 ], [ -104.8788972, 38.8684665 ], [ -104.8790946, 38.868099 ], [ -104.8790861, 38.867972 ], [ -104.8790088, 38.8678317 ], [ -104.878923, 38.8677782 ], [ -104.87882, 38.8677582 ], [ -104.878717, 38.8677582 ], [ -104.8785539, 38.8678116 ], [ -104.8784282, 38.8679115 ], [ -104.8783252, 38.8680318 ], [ -104.8782822, 38.8682055 ], [ -104.8782994, 38.868386 ], [ -104.8783767, 38.8685731 ], [ -104.8785226, 38.8688872 ], [ -104.878594, 38.8691438 ], [ -104.8786341, 38.8692881 ], [ -104.8786341, 38.8695087 ], [ -104.878576, 38.8701709 ], [ -104.8785731, 38.8702042 ], [ -104.8785397, 38.8705845 ], [ -104.8785435, 38.8707326 ], [ -104.8785483, 38.8709187 ], [ -104.8785912, 38.8713798 ], [ -104.8785912, 38.8718074 ], [ -104.8785998, 38.8725158 ], [ -104.8785741, 38.8727964 ], [ -104.8784711, 38.8730169 ], [ -104.8783681, 38.8732308 ], [ -104.8783595, 38.8734045 ], [ -104.8784367, 38.8736183 ], [ -104.8784539, 38.8737386 ], [ -104.8784024, 38.8738856 ], [ -104.8782565, 38.8741329 ], [ -104.8782136, 38.87432 ], [ -104.8781964, 38.874781 ], [ -104.8782393, 38.8751485 ], [ -104.878308, 38.8756296 ], [ -104.8782822, 38.8758435 ], [ -104.8782703, 38.8758777 ], [ -104.8781964, 38.8760907 ], [ -104.8780116, 38.8766962 ], [ -104.8779861, 38.8767859 ], [ -104.8779697, 38.8768606 ], [ -104.8779634, 38.8768889 ] ] } },
{ "type": "Feature", "properties": { "fid": 904, "full_id": "w232488516", "osm_id": "232488516", "osm_type": "way", "highway": "", "name": "Camp Creek", "tiger:cfcc": "", "tiger:county": "", "tiger:reviewed": "", "cycleway": "", "oneway": "", "tiger:name_base": "", "tiger:name_type": "", "service": "", "access": "", "alt_name": "", "ref": "", "surface": "", "tiger:name_direction_prefix": "", "cycleway:both": "", "maxspeed:type": "", "sidewalk": "", "sidewalk:both:bicycle": "", "lanes": "", "bicycle": "", "foot": "", "old_railway_operator": "", "segregated": "", "bridge": "", "layer": "", "tiger:separated": "", "tiger:source": "", "tiger:tlid": "", "maxspeed": "", "name_1": "", "tiger:name_base_1": "", "tiger:name_type_1": "", "cycleway:right": "", "route": "", "tracktype": "", "horse": "", "motor_vehicle": "", "railway": "", "tiger:name_base_2": "", "tiger:zip_right": "", "name_2": "", "destination": "", "destination:ref": "", "alt_name_1": "", "parking:lane:both": "", "mtb:scale": "", "old_ref": "", "NHS": "", "hgv": "", "hgv:national_network": "", "source:hgv:national_network": "", "sac_scale": "", "description": "", "website": "", "trail_visibility": "", "mtb:scale:imba": "", "admin_level": "", "border_type": "", "boundary": "", "is_in:country": "", "is_in:country_code": "", "is_in:iso_3166_2": "", "is_in:state": "", "tiger:CLASSFP": "", "tiger:CPI": "", "tiger:FUNCSTAT": "", "tiger:LSAD": "", "tiger:MTFCC": "", "tiger:NAME": "", "tiger:NAMELSAD": "", "tiger:PCICBSA": "", "tiger:PCINECTA": "", "tiger:PLACEFP": "", "tiger:PLACENS": "", "tiger:PLCIDFP": "", "tiger:STATEFP": "", "wikidata": "", "wikipedia": "", "tunnel": "", "lit": "", "width": "", "waterway": "stream", "barrier": "", "fence_type": "", "junction": "", "shoulder": "", "lanes:backward": "", "lanes:forward": "", "turn:lanes:backward": "", "intermittent": "yes", "natural": "", "seasonal": "", "footway": "", "crossing": "", "tiger:name_base_3": "", "tiger:name_direction_prefix_3": "", "turn:lanes:forward": "", "turn:lanes": "", "lanes:both_ways": "", "turn:lanes:both_ways": "", "golf": "", "golf_cart": "", "power": "", "disused:highway": "", "tourism": "", "auxiliary_storage_labeling_positionx": -104.87568871548334, "auxiliary_storage_labeling_positiony": 38.881311777831847, "auxiliary_storage_labeling_show": null, "length": 10666.126175533816 }, "geometry": { "type": "LineString", "coordinates": [ [ -104.874561955159649, 38.87255426738988 ], [ -104.874203544614076, 38.872563268625804 ], [ -104.873301737434957, 38.872644279697852 ], [ -104.872145574384788, 38.872716289462169 ], [ -104.8712155, 38.872733 ], [ -104.8708333, 38.8726025 ], [ -104.8706496, 38.8722997 ], [ -104.8704176, 38.8720888 ], [ -104.8703478, 38.8719124 ], [ -104.8702727, 38.8718142 ], [ -104.8701345, 38.8717547 ], [ -104.8699391, 38.8717313 ], [ -104.8696351, 38.8717001 ] ] } }
]
}
