{"type":"FeatureCollection","name":"pup-trails-map","features":[{"type":"Feature","properties":{"name":"Chambers Trail","kind":"trail"},"geometry":{"type":"LineString","coordinates":[[-104.877609,38.877044],[-104.877648,38.876998],[-104.877637,38.876948],[-104.877622,38.876892],[-104.877605,38.876821],[-104.877533,38.876704],[-104.877489,38.876626],[-104.877419,38.876497],[-104.8773,38.876279],[-104.877146,38.876025],[-104.877034,38.875838],[-104.876966,38.875657],[-104.876717,38.875243],[-104.876571,38.875136],[-104.876502,38.875083],[-104.876434,38.874976],[-104.876262,38.874882],[-104.87615,38.874815],[-104.87597,38.874662],[-104.875953,38.874615],[-104.87591,38.874568],[-104.87585,38.874521],[-104.875816,38.874441],[-104.875781,38.874394],[-104.875764,38.874334],[-104.875687,38.874227],[-104.875661,38.87414],[-104.875618,38.87406],[-104.875592,38.874007],[-104.875558,38.87398],[-104.875524,38.873947],[-104.875489,38.873886],[-104.875446,38.873746],[-104.875395,38.873506],[-104.875386,38.873405],[-104.875335,38.873345],[-104.875309,38.873292],[-104.875275,38.873245],[-104.875232,38.873205],[-104.875103,38.873091],[-104.87506,38.873024],[-104.874954,38.872941],[-104.874849,38.872845],[-104.874755,38.872738],[-104.874605,38.872585]]}},{"type":"Feature","properties":{"name":"Niobrara Trail","kind":"trail"},"geometry":{"type":"LineString","coordinates":[[-104.87712,38.86689],[-104.877189,38.866876],[-104.87724,38.866856],[-104.877283,38.866816],[-104.8773,38.86675],[-104.877283,38.866649],[-104.877197,38.866362],[-104.877155,38.866202],[-104.87712,38.866088],[-104.877094,38.865954],[-104.877077,38.865821],[-104.877051,38.865707],[-104.877033,38.865681]]}},{"type":"Feature","properties":{"name":"","kind":"trail"},"geometry":{"type":"LineString","coordinates":[[-104.87796,38.869396],[-104.877939,38.869446],[-104.8781,38.869856],[-104.878225,38.870099],[-104.878271,38.870219],[-104.878344,38.870409],[-104.878421,38.870593],[-104.878436,38.870659],[-104.87841,38.870736],[-104.878396,38.870822],[-104.878405,38.870885],[-104.878433,38.87092],[-104.878452,38.87096],[-104.878429,38.871104],[-104.878424,38.87119],[-104.878356,38.871305],[-104.878241,38.871475],[-104.878077,38.871632],[-104.878011,38.871739],[-104.877807,38.872331],[-104.877833,38.872646],[-104.877841,38.872837],[-104.877824,38.872918],[-104.87779,38.873058],[-104.877773,38.873191],[-104.877747,38.873399],[-104.877743,38.873525],[-104.877747,38.873566],[-104.877738,38.873866],[-104.877738,38.874067],[-104.877747,38.874214],[-104.877755,38.874394],[-104.877773,38.874448],[-104.877858,38.874561],[-104.877927,38.874682],[-104.877961,38.874815],[-104.87797,38.874949],[-104.877961,38.875143],[-104.87791,38.87529],[-104.877824,38.87549],[-104.87779,38.87565],[-104.877773,38.875784],[-104.877807,38.875891],[-104.87785,38.876031],[-104.87785,38.876138],[-104.87785,38.876292],[-104.877824,38.876352],[-104.87779,38.876412],[-104.877764,38.876466],[-104.877721,38.876492],[-104.877669,38.876499],[-104.877635,38.876579],[-104.877627,38.87668],[-104.877609,38.876766],[-104.877605,38.876821]]}},{"type":"Feature","properties":{"name":"Niobrara Trail","kind":"trail"},"geometry":{"type":"LineString","coordinates":[[-104.878979,38.867351],[-104.878878,38.86729],[-104.878824,38.867278],[-104.878778,38.867249],[-104.878752,38.867209],[-104.878687,38.867159],[-104.878577,38.867107],[-104.878542,38.867099],[-104.878491,38.867088],[-104.878397,38.867071],[-104.878322,38.867046],[-104.878253,38.867004],[-104.878172,38.866935],[-104.878116,38.866883],[-104.878092,38.866812],[-104.878054,38.866756],[-104.878003,38.866708],[-104.877971,38.86666],[-104.877901,38.866601],[-104.877708,38.866472],[-104.877552,38.866369],[-104.877368,38.866253],[-104.877156,38.866125],[-104.87712,38.866088]]}},{"type":"Feature","properties":{"name":"","kind":"trail"},"geometry":{"type":"LineString","coordinates":[[-104.877412,38.86697],[-104.877338,38.866837],[-104.8773,38.86675]]}},{"type":"Feature","properties":{"name":"","kind":"trail"},"geometry":{"type":"LineString","coordinates":[[-104.878542,38.867099],[-104.878499,38.86713],[-104.878467,38.867171],[-104.878448,38.867188],[-104.878371,38.867203],[-104.87825,38.867232],[-104.878092,38.867269],[-104.877928,38.867309],[-104.877826,38.867326],[-104.877754,38.867305],[-104.877695,38.867299],[-104.877609,38.867315]]}},{"type":"Feature","properties":{"name":"","kind":"trail"},"geometry":{"type":"LineString","coordinates":[[-104.87712,38.86689],[-104.877412,38.86697],[-104.877515,38.867077],[-104.877592,38.867204],[-104.877609,38.867315],[-104.877622,38.867566],[-104.877652,38.867792],[-104.877689,38.868159],[-104.877705,38.868285],[-104.877773,38.868466],[-104.87785,38.868679],[-104.877936,38.868915],[-104.877992,38.869137],[-104.878009,38.869199],[-104.877987,38.869262],[-104.877969,38.869352]]}},{"type":"Feature","properties":{"name":"Niobrara Trail","kind":"trail"},"geometry":{"type":"LineString","coordinates":[[-104.877033,38.865681],[-104.876966,38.86558],[-104.876863,38.865507],[-104.876828,38.865466],[-104.87676,38.865393],[-104.876708,38.865346],[-104.876648,38.865319],[-104.876554,38.865286],[-104.876416,38.865199],[-104.876294,38.865133]]}},{"type":"Feature","properties":{"name":"Niobrara Trail","kind":"trail"},"geometry":{"type":"LineString","coordinates":[[-104.87533,38.871353],[-104.875289,38.871354],[-104.875246,38.871368],[-104.875187,38.871402],[-104.875131,38.87145],[-104.875074,38.8715],[-104.875034,38.871538],[-104.875016,38.871519],[-104.87501,38.871412],[-104.874999,38.871333],[-104.875002,38.871241],[-104.874951,38.871297],[-104.874895,38.871358],[-104.874868,38.8714],[-104.87486,38.871442],[-104.874838,38.871364],[-104.87482,38.871291],[-104.874798,38.871139],[-104.874771,38.871126],[-104.874739,38.871076],[-104.87472,38.870955],[-104.87471,38.870725],[-104.874712,38.870579],[-104.874685,38.870516],[-104.874685,38.870397],[-104.874683,38.870324],[-104.874667,38.870272],[-104.874667,38.870157],[-104.874691,38.870095],[-104.87468,38.870013],[-104.874691,38.869934],[-104.874672,38.869856],[-104.874618,38.869723],[-104.874608,38.869683],[-104.874621,38.869629],[-104.874616,38.869564],[-104.874581,38.869506],[-104.874567,38.869439],[-104.874589,38.869337],[-104.87461,38.869226],[-104.874643,38.869094],[-104.874645,38.869015],[-104.874664,38.868961],[-104.874637,38.86891],[-104.874643,38.868875],[-104.874659,38.868852],[-104.874664,38.868668],[-104.874643,38.868614],[-104.874635,38.868562],[-104.874639,38.868477],[-104.87464,38.868454],[-104.874644,38.868393],[-104.874655,38.868338],[-104.874643,38.868258],[-104.874636,38.868169],[-104.874637,38.868132],[-104.87461,38.868036],[-104.874605,38.86799],[-104.874623,38.867927],[-104.874623,38.867886],[-104.874601,38.867817],[-104.874593,38.867736],[-104.874589,38.867663],[-104.874559,38.867602],[-104.874527,38.867561],[-104.874519,38.867533],[-104.874514,38.867443],[-104.87453,38.867365],[-104.87451,38.867309],[-104.874504,38.867271],[-104.874505,38.86722],[-104.874489,38.867173],[-104.874477,38.867116],[-104.87444,38.867067],[-104.87441,38.867001],[-104.874408,38.866939],[-104.874365,38.866889],[-104.87433,38.866842],[-104.874307,38.866775],[-104.874307,38.866731],[-104.874282,38.866663],[-104.874259,38.866605],[-104.874235,38.866562],[-104.87422,38.866445],[-104.874182,38.866352],[-104.874157,38.866308],[-104.874142,38.866267],[-104.874162,38.866244],[-104.874155,38.866186],[-104.874145,38.866127],[-104.874113,38.866051],[-104.874093,38.865979],[-104.874092,38.865907],[-104.874131,38.865845],[-104.874124,38.865782],[-104.874121,38.865738],[-104.874161,38.865668],[-104.874193,38.865602],[-104.874225,38.865548],[-104.874222,38.865428],[-104.874174,38.865311],[-104.874165,38.865254],[-104.874158,38.865186],[-104.874137,38.865118],[-104.874123,38.865074],[-104.874113,38.865032],[-104.874103,38.864992],[-104.874087,38.864944],[-104.87407,38.864885],[-104.874042,38.864772]]}},{"type":"Feature","properties":{"name":"Galloway-Homestead Trail","kind":"trail"},"geometry":{"type":"LineString","coordinates":[[-104.877419,38.876497],[-104.877322,38.876518],[-104.877252,38.876524],[-104.877188,38.876549],[-104.877108,38.876549],[-104.877046,38.876526],[-104.876936,38.876507],[-104.876794,38.876476],[-104.876708,38.87647],[-104.876563,38.876476],[-104.876469,38.876453],[-104.876394,38.876461],[-104.876338,38.876451],[-104.876107,38.876457],[-104.876062,38.876447],[-104.875978,38.876455],[-104.875895,38.876449],[-104.87578,38.876424],[-104.875721,38.876395],[-104.875694,38.87634],[-104.875662,38.876305],[-104.87563,38.876292],[-104.875587,38.876292],[-104.875522,38.876284],[-104.875471,38.876294],[-104.875428,38.876317],[-104.875423,38.876353],[-104.875423,38.876397],[-104.875407,38.876407],[-104.87537,38.876399],[-104.875308,38.876395],[-104.875198,38.87639],[-104.875115,38.876384],[-104.875056,38.876372],[-104.874946,38.87633],[-104.874825,38.876294],[-104.874755,38.876263],[-104.874685,38.876221],[-104.874624,38.876148],[-104.874581,38.87609],[-104.874554,38.876036],[-104.874517,38.87599],[-104.874482,38.875923],[-104.874423,38.875833],[-104.874391,38.875764],[-104.87434,38.875666],[-104.87428,38.875532],[-104.874203,38.875394],[-104.874171,38.875305],[-104.874149,38.875211],[-104.874074,38.87501],[-104.874047,38.874939],[-104.874036,38.874833],[-104.87401,38.874567],[-104.874007,38.874421],[-104.873983,38.874261],[-104.873988,38.874025],[-104.873991,38.873799],[-104.873996,38.873657],[-104.874028,38.873546],[-104.874071,38.873457],[-104.874128,38.873411],[-104.874211,38.873382],[-104.874264,38.873323],[-104.874342,38.873258],[-104.874415,38.873229],[-104.874517,38.873212],[-104.874635,38.873166],[-104.874667,38.873145],[-104.874774,38.873135],[-104.874887,38.873143],[-104.874967,38.873091],[-104.87506,38.873024]]}},{"type":"Feature","properties":{"name":"Ute Trail","kind":"trail"},"geometry":{"type":"LineString","coordinates":[[-104.877743,38.873525],[-104.877631,38.873415],[-104.877475,38.873252],[-104.877344,38.873089],[-104.877212,38.87298],[-104.87715,38.872857],[-104.877086,38.872736],[-104.877024,38.872613],[-104.876963,38.872527],[-104.876831,38.872415],[-104.876743,38.872348],[-104.876678,38.872214],[-104.876593,38.872129],[-104.876493,38.872085],[-104.876386,38.872028],[-104.876351,38.871951],[-104.876306,38.871857],[-104.876265,38.871778],[-104.876231,38.871686],[-104.876244,38.871598],[-104.876265,38.871546],[-104.876252,38.871504],[-104.876185,38.871452],[-104.876139,38.87141],[-104.876067,38.871314],[-104.875954,38.871203],[-104.875804,38.871074],[-104.875697,38.870963],[-104.875608,38.870838],[-104.875533,38.870717],[-104.875498,38.870679],[-104.875455,38.870592],[-104.875438,38.870539],[-104.875327,38.87036],[-104.875318,38.870345],[-104.875292,38.870291],[-104.875301,38.870204],[-104.875309,38.870098],[-104.875266,38.870031],[-104.875129,38.869763],[-104.875034,38.86953],[-104.874992,38.869356],[-104.875,38.869142],[-104.875032,38.868808],[-104.875042,38.868709]]}},{"type":"Feature","properties":{"name":"Ute Trail Connection","kind":"trail"},"geometry":{"type":"LineString","coordinates":[[-104.877978,38.869383],[-104.877911,38.869386],[-104.877763,38.869363],[-104.877622,38.869324],[-104.877467,38.869209],[-104.877326,38.86918],[-104.877209,38.869257],[-104.877141,38.869363],[-104.877104,38.869463],[-104.876975,38.86953],[-104.876845,38.869545],[-104.876802,38.869631],[-104.876765,38.869765],[-104.876716,38.869881],[-104.876623,38.869929],[-104.876537,38.870005],[-104.876432,38.869972],[-104.876295,38.869928],[-104.876231,38.869934],[-104.876158,38.869948],[-104.876078,38.869988],[-104.875879,38.870065],[-104.875807,38.870101],[-104.875729,38.870178],[-104.875675,38.870216],[-104.875584,38.870239],[-104.875488,38.870283],[-104.875404,38.870328],[-104.875327,38.87036]]}},{"type":"Feature","properties":{"name":"Valley Reservoir Trail","kind":"trail"},"geometry":{"type":"LineString","coordinates":[[-104.87506,38.873024],[-104.87506,38.872931],[-104.875077,38.872824],[-104.875077,38.87269],[-104.875077,38.872537],[-104.875095,38.872209],[-104.875112,38.872076],[-104.875112,38.872022],[-104.875112,38.871949],[-104.875155,38.871882],[-104.875172,38.871828],[-104.875241,38.871782],[-104.875249,38.871741],[-104.875232,38.871675],[-104.875206,38.871628],[-104.875215,38.871574],[-104.875318,38.871394],[-104.87533,38.871353],[-104.875352,38.87128],[-104.875378,38.871187],[-104.875464,38.871073],[-104.875481,38.87102],[-104.875498,38.870853],[-104.875498,38.870679]]}},{"type":"Feature","properties":{"name":"Niobrara Trail","kind":"trail"},"geometry":{"type":"LineString","coordinates":[[-104.876294,38.865133],[-104.876236,38.865079],[-104.876219,38.865039],[-104.87621,38.864985],[-104.876202,38.864932],[-104.876167,38.864898],[-104.876116,38.864865],[-104.87579,38.864631],[-104.875721,38.864598],[-104.875635,38.864591],[-104.87555,38.864598],[-104.875275,38.864678],[-104.874966,38.864771],[-104.874811,38.864812],[-104.874545,38.864892],[-104.874338,38.864972],[-104.874277,38.864956],[-104.874115,38.864718],[-104.874024,38.864676],[-104.873984,38.864708],[-104.874022,38.864766]]}},{"type":"Feature","properties":{"name":"Niobrara Trail","kind":"trail"},"geometry":{"type":"LineString","coordinates":[[-104.877033,38.865681],[-104.877032,38.865614],[-104.877037,38.865551],[-104.877053,38.865489],[-104.877109,38.865427],[-104.877111,38.86536],[-104.877181,38.865318],[-104.877307,38.865316],[-104.877394,38.865282],[-104.877562,38.865274],[-104.877683,38.865293],[-104.877802,38.865285],[-104.877868,38.865267],[-104.877956,38.865254],[-104.877996,38.865191],[-104.878045,38.8652],[-104.878139,38.865274],[-104.878218,38.86532],[-104.878282,38.865358],[-104.878381,38.86542],[-104.878404,38.865434],[-104.878442,38.865466]]}},{"type":"Feature","properties":{"name":"Fontanero Trail","kind":"trail"},"geometry":{"type":"LineString","coordinates":[[-104.876167,38.864898],[-104.87616,38.864853],[-104.876123,38.864784],[-104.876064,38.86468],[-104.875987,38.864589],[-104.875898,38.864527],[-104.875802,38.864472],[-104.875688,38.864462],[-104.875544,38.864467],[-104.875467,38.864457],[-104.875294,38.864453],[-104.875128,38.864426],[-104.875051,38.864372],[-104.874954,38.864313],[-104.874742,38.864183]]}},{"type":"Feature","properties":{"name":"Ute Trail","kind":"trail"},"geometry":{"type":"LineString","coordinates":[[-104.875042,38.868709],[-104.875045,38.868681],[-104.875052,38.868487],[-104.875129,38.868407],[-104.875189,38.86836],[-104.875421,38.868293],[-104.875489,38.868287],[-104.875635,38.86832],[-104.875695,38.86832],[-104.875747,38.868307],[-104.87579,38.86828],[-104.875922,38.868212],[-104.876086,38.868086],[-104.87614,38.868029],[-104.876184,38.867959],[-104.87621,38.867872],[-104.876253,38.867759],[-104.876288,38.867678],[-104.87633,38.867605],[-104.876391,38.867538],[-104.876416,38.867478],[-104.876442,38.867378],[-104.876476,38.867244],[-104.876511,38.867177],[-104.876537,38.867164],[-104.876588,38.867077],[-104.876639,38.86701],[-104.876717,38.866943],[-104.876785,38.866903],[-104.87694,38.86689],[-104.87712,38.86689]]}},{"type":"Feature","properties":{"name":"Foothills Trail","kind":"trail"},"geometry":{"type":"LineString","coordinates":[[-104.869533,38.872022],[-104.869562,38.872217],[-104.869574,38.872639],[-104.869537,38.873234],[-104.869414,38.873753],[-104.869352,38.874155],[-104.869495,38.874884],[-104.869614,38.875387],[-104.869661,38.875962],[-104.869791,38.876339],[-104.869926,38.876579],[-104.870351,38.876831],[-104.87061,38.877281],[-104.870772,38.877603],[-104.871,38.877739],[-104.8718,38.877661],[-104.872258,38.877675],[-104.872652,38.87769],[-104.873054,38.877512]]}},{"type":"Feature","properties":{"name":"Gateway Trail","kind":"trail"},"geometry":{"type":"LineString","coordinates":[[-104.877606,38.877046],[-104.877409,38.876975],[-104.877056,38.876971],[-104.876806,38.876965],[-104.876707,38.876978],[-104.876588,38.876982],[-104.876477,38.876978],[-104.876376,38.876965],[-104.876233,38.876943],[-104.876151,38.876933],[-104.875953,38.876933],[-104.87579,38.876986],[-104.875619,38.877033],[-104.875464,38.877067],[-104.875323,38.87716],[-104.87527,38.877188],[-104.875182,38.877246],[-104.874923,38.877419],[-104.874842,38.877528],[-104.874561,38.877943],[-104.874529,38.878141],[-104.874466,38.878152],[-104.874402,38.877893],[-104.874354,38.877502],[-104.874365,38.877416],[-104.874165,38.877288],[-104.874055,38.877162],[-104.873873,38.877167],[-104.873778,38.877191],[-104.873507,38.877352],[-104.873238,38.877485],[-104.873063,38.877527]]}},{"type":"Feature","properties":{"name":"Juniper Way Loop","kind":"trail"},"geometry":{"type":"LineString","coordinates":[[-104.877973,38.877187],[-104.877974,38.877194],[-104.878,38.8774],[-104.878077,38.877841],[-104.878118,38.878295],[-104.878154,38.878876],[-104.878163,38.87919],[-104.878146,38.879444],[-104.878111,38.879658],[-104.878043,38.879952],[-104.878043,38.880072],[-104.878077,38.880206],[-104.878214,38.8804],[-104.878824,38.881081],[-104.878935,38.881181],[-104.879081,38.881268],[-104.879261,38.881315],[-104.879773,38.881409],[-104.879853,38.881424],[-104.879924,38.881437],[-104.880317,38.881509],[-104.880405,38.881524],[-104.880755,38.881583],[-104.881459,38.881703],[-104.881596,38.881749],[-104.881708,38.881836],[-104.881845,38.881963],[-104.881974,38.882123],[-104.882051,38.88227],[-104.882111,38.882484],[-104.882171,38.882591],[-104.882283,38.882678],[-104.882362,38.8827],[-104.882429,38.882718],[-104.882566,38.882725],[-104.882703,38.882678],[-104.882755,38.882625],[-104.882798,38.882531],[-104.882798,38.882418],[-104.882772,38.882277],[-104.882721,38.882043],[-104.882712,38.881916],[-104.882755,38.881649],[-104.882746,38.881549],[-104.882707,38.881434],[-104.882703,38.881422],[-104.882635,38.881242],[-104.882626,38.881108],[-104.882643,38.881018],[-104.882652,38.880974],[-104.882772,38.88074],[-104.882824,38.8806],[-104.882918,38.880433],[-104.883064,38.880319],[-104.883235,38.880226],[-104.883399,38.880173],[-104.883613,38.880173],[-104.883708,38.880179],[-104.883768,38.880153],[-104.883819,38.880079],[-104.883828,38.879965],[-104.883785,38.879792],[-104.883639,38.879498],[-104.883519,38.879284],[-104.883467,38.879207],[-104.883433,38.879157],[-104.883407,38.879017],[-104.883353,38.878147],[-104.883338,38.877757],[-104.883317,38.877303],[-104.883292,38.876742],[-104.883169,38.876542]]}},{"type":"Feature","properties":{"name":"Gateway Road","kind":"trail"},"geometry":{"type":"LineString","coordinates":[[-104.877637,38.876948],[-104.877716,38.877004],[-104.877811,38.877066],[-104.877898,38.877131],[-104.877974,38.877194]]}},{"type":"Feature","properties":{"name":"Juniper Way Loop","kind":"trail"},"geometry":{"type":"LineString","coordinates":[[-104.877963,38.876889],[-104.877957,38.876956],[-104.877954,38.876996],[-104.877955,38.877044],[-104.877958,38.877094],[-104.877966,38.877153],[-104.877973,38.877187]]}},{"type":"Feature","properties":{"name":"Ridge Road","kind":"trail"},"geometry":{"type":"LineString","coordinates":[[-104.878872,38.867751],[-104.878907,38.867681],[-104.878949,38.867551],[-104.878966,38.867489],[-104.878979,38.867351],[-104.878979,38.867267],[-104.87895,38.866975],[-104.878963,38.866766],[-104.879047,38.866436],[-104.879162,38.866071],[-104.879162,38.865994],[-104.87914,38.865937],[-104.879089,38.865883],[-104.878945,38.865776],[-104.878684,38.865607],[-104.878644,38.865572],[-104.878556,38.865494],[-104.878376,38.865361],[-104.878264,38.865297],[-104.878121,38.865215],[-104.878073,38.865164],[-104.878046,38.865114],[-104.878035,38.865083],[-104.878035,38.865008],[-104.878143,38.864651],[-104.878373,38.863934],[-104.878443,38.863675],[-104.878526,38.863464],[-104.878604,38.863278],[-104.878698,38.862919],[-104.878955,38.862208],[-104.878979,38.862138],[-104.878987,38.862076],[-104.878991,38.862016],[-104.878981,38.861852],[-104.878984,38.86179],[-104.878998,38.86172],[-104.879036,38.861636],[-104.879095,38.861555],[-104.879185,38.861434],[-104.879284,38.861308],[-104.879389,38.861194],[-104.879479,38.861082],[-104.879547,38.860982],[-104.879617,38.860866]]}},{"type":"Feature","properties":{"name":"Gateway Road","kind":"trail"},"geometry":{"type":"LineString","coordinates":[[-104.870026,38.878308],[-104.870311,38.878161],[-104.870679,38.87785],[-104.870832,38.877729],[-104.871106,38.877558],[-104.871334,38.877426],[-104.871465,38.877364],[-104.871742,38.87731],[-104.872072,38.877244],[-104.872716,38.877123],[-104.872987,38.877072],[-104.87364,38.876999],[-104.875082,38.876885],[-104.876137,38.876812],[-104.877133,38.876869],[-104.87729,38.87688],[-104.877405,38.876891],[-104.877471,38.876903],[-104.877532,38.876917],[-104.877595,38.876936],[-104.877611,38.876941],[-104.877637,38.876948],[-104.877654,38.876953],[-104.87769,38.876964]]}},{"type":"Feature","properties":{"name":"West Fontanero Street","kind":"trail"},"geometry":{"type":"LineString","coordinates":[[-104.875039,38.86413],[-104.874982,38.864165],[-104.874923,38.864184],[-104.874862,38.864194],[-104.8748,38.864192],[-104.874742,38.864183],[-104.874681,38.864155],[-104.874619,38.864112],[-104.874225,38.863814],[-104.873471,38.863249],[-104.873136,38.862966]]}},{"type":"Feature","properties":{"name":"Juniper Way Loop","kind":"trail"},"geometry":{"type":"LineString","coordinates":[[-104.883077,38.876452],[-104.882863,38.876251],[-104.882691,38.876071],[-104.882562,38.875911],[-104.882451,38.875697],[-104.882399,38.87545],[-104.88239,38.875196],[-104.882408,38.874608],[-104.882433,38.874487],[-104.882519,38.874294],[-104.882528,38.874187],[-104.882442,38.87404],[-104.88227,38.873832],[-104.882202,38.873719],[-104.881979,38.873298],[-104.881781,38.872984],[-104.881438,38.872122],[-104.881249,38.87144],[-104.881129,38.870992],[-104.880974,38.870692],[-104.880914,38.870531],[-104.88088,38.870171],[-104.880837,38.87007],[-104.880768,38.86999],[-104.879996,38.869496],[-104.879816,38.869409],[-104.879404,38.869248],[-104.879249,38.869141],[-104.878983,38.868901],[-104.87888,38.868754],[-104.878854,38.868614],[-104.878897,38.868466],[-104.879095,38.868099],[-104.879086,38.867972],[-104.879009,38.867832],[-104.878923,38.867778],[-104.87882,38.867758],[-104.878717,38.867758],[-104.878554,38.867812],[-104.878428,38.867911],[-104.878325,38.868032],[-104.878282,38.868206],[-104.878299,38.868386],[-104.878377,38.868573],[-104.878523,38.868887],[-104.878594,38.869144],[-104.878634,38.869288],[-104.878634,38.869509],[-104.878576,38.870171],[-104.878573,38.870204],[-104.87854,38.870584],[-104.878544,38.870733],[-104.878548,38.870919],[-104.878591,38.87138],[-104.878591,38.871807],[-104.8786,38.872516],[-104.878574,38.872796],[-104.878471,38.873017],[-104.878368,38.873231],[-104.87836,38.873404],[-104.878437,38.873618],[-104.878454,38.873739],[-104.878402,38.873886],[-104.878257,38.874133],[-104.878214,38.87432],[-104.878196,38.874781],[-104.878239,38.875149],[-104.878308,38.87563],[-104.878282,38.875844],[-104.87827,38.875878],[-104.878196,38.876091],[-104.878012,38.876696],[-104.877986,38.876786],[-104.87797,38.876861],[-104.877963,38.876889]]}},{"type":"Feature","properties":{"id":null,"name":"kissing camels","type":"red rock","fid":6,"auxiliary_storage_labeling_positionx":null,"auxiliary_storage_labeling_positiony":null,"kind":"redrock"},"geometry":{"type":"Polygon","coordinates":[[[-104.881138,38.872721],[-104.881148,38.872903],[-104.881219,38.873485],[-104.881298,38.873938],[-104.881408,38.874183],[-104.881376,38.874471],[-104.881258,38.874618],[-104.881172,38.874753],[-104.881093,38.874796],[-104.881022,38.874796],[-104.880857,38.874698],[-104.880849,38.874918],[-104.880747,38.874943],[-104.880708,38.874765],[-104.880755,38.874661],[-104.880692,38.874545],[-104.880495,38.874465],[-104.880377,38.874514],[-104.880273,38.874376],[-104.880189,38.874077],[-104.880321,38.873946],[-104.880405,38.873862],[-104.880297,38.873693],[-104.880141,38.873301],[-104.880105,38.872964],[-104.880105,38.87259],[-104.880153,38.872384],[-104.880417,38.872319],[-104.88055,38.872141],[-104.88061,38.871963],[-104.880862,38.871945],[-104.881054,38.872244],[-104.881138,38.872721]]]}},{"type":"Feature","properties":{"id":null,"name":"","type":"red rock","fid":7,"auxiliary_storage_labeling_positionx":null,"auxiliary_storage_labeling_positiony":null,"kind":"redrock"},"geometry":{"type":"Polygon","coordinates":[[[-104.877464,38.864194],[-104.877573,38.864177],[-104.877606,38.864216],[-104.87765,38.864241],[-104.877702,38.864241],[-104.877726,38.864288],[-104.877757,38.864331],[-104.877773,38.864395],[-104.87774,38.864455],[-104.877737,38.864549],[-104.877688,38.864649],[-104.877644,38.864764],[-104.877592,38.864866],[-104.877551,38.864939],[-104.877491,38.864973],[-104.877417,38.864986],[-104.877387,38.864982],[-104.877387,38.864937],[-104.877428,38.864862],[-104.877452,38.864777],[-104.877461,38.864687],[-104.877444,38.864636],[-104.877447,38.864552],[-104.877475,38.864491],[-104.877436,38.864438],[-104.877408,38.864338],[-104.877464,38.864194]]]}},{"type":"Feature","properties":{"id":null,"name":"","type":"light rock","fid":8,"auxiliary_storage_labeling_positionx":null,"auxiliary_storage_labeling_positiony":null,"kind":"lightrock"},"geometry":{"type":"Polygon","coordinates":[[[-104.879482,38.872979],[-104.879552,38.873481],[-104.879584,38.873708],[-104.879666,38.873985],[-104.879742,38.874059],[-104.8798,38.874271],[-104.879933,38.874676],[-104.879971,38.874839],[-104.879844,38.874953],[-104.879742,38.875146],[-104.879698,38.875156],[-104.879647,38.875007],[-104.87959,38.875002],[-104.879552,38.874879],[-104.879482,38.874672],[-104.879406,38.874539],[-104.879254,38.874204],[-104.879076,38.873986],[-104.878975,38.873734],[-104.878867,38.873408],[-104.878892,38.872984],[-104.878988,38.872909],[-104.879057,38.87286],[-104.879121,38.87286],[-104.879171,38.872875],[-104.879267,38.872826],[-104.879362,38.872845],[-104.879419,38.872895],[-104.879482,38.872979]]]}},{"type":"Feature","properties":{"id":null,"name":"visitor center","type":"building","fid":22,"auxiliary_storage_labeling_positionx":-104.86938518487506,"auxiliary_storage_labeling_positiony":38.878456684411866,"kind":"building"},"geometry":{"type":"Polygon","coordinates":[[[-104.870018,38.878629],[-104.869876,38.878751],[-104.869815,38.878737],[-104.869757,38.878626],[-104.869699,38.878604],[-104.869622,38.878612],[-104.869532,38.878381],[-104.869553,38.878338],[-104.869586,38.878301],[-104.869553,38.878205],[-104.869626,38.878123],[-104.869822,38.878143],[-104.869884,38.878279],[-104.869938,38.878296],[-104.869993,38.878426],[-104.869949,38.878451],[-104.870018,38.878629]]]}},{"type":"Feature","properties":{"id":"1234328","name":"dog park","type":"field","fid":null,"auxiliary_storage_labeling_positionx":null,"auxiliary_storage_labeling_positiony":null,"kind":"meadow"},"geometry":{"type":"Polygon","coordinates":[[[-104.869865,38.872193],[-104.869661,38.872235],[-104.869731,38.87353],[-104.869621,38.873848],[-104.869715,38.874574],[-104.86988,38.87557],[-104.870437,38.875588],[-104.870822,38.875527],[-104.870837,38.874898],[-104.870892,38.874501],[-104.870665,38.873951],[-104.870469,38.873683],[-104.870249,38.87331],[-104.8701,38.87251],[-104.869865,38.872193]]]}},{"type":"Feature","properties":{"id":null,"name":"airbnb","type":"house","fid":null,"auxiliary_storage_labeling_positionx":null,"auxiliary_storage_labeling_positiony":null,"kind":"building"},"geometry":{"type":"Polygon","coordinates":[[[-104.873193,38.863124],[-104.873079,38.86305],[-104.872966,38.863146],[-104.873129,38.863298],[-104.873252,38.863169],[-104.873193,38.863124]]]}},{"type":"Feature","properties":{"id":null,"name":"overlook parking","type":"parking lot","fid":null,"auxiliary_storage_labeling_positionx":null,"auxiliary_storage_labeling_positiony":null,"kind":"parking"},"geometry":{"type":"Polygon","coordinates":[[[-104.879243,38.865868],[-104.879228,38.865518],[-104.879169,38.865479],[-104.878876,38.865435],[-104.878754,38.865423],[-104.878682,38.865493],[-104.87868,38.865549],[-104.879015,38.865769],[-104.879189,38.865875],[-104.879231,38.865885],[-104.879243,38.865868]]]}},{"type":"Feature","properties":{"id":null,"name":"meadow parking","type":"parking lot","fid":null,"auxiliary_storage_labeling_positionx":null,"auxiliary_storage_labeling_positiony":null,"kind":"parking"},"geometry":{"type":"Polygon","coordinates":[[[-104.878304,38.869938],[-104.878113,38.869434],[-104.878014,38.869435],[-104.877964,38.869467],[-104.878172,38.869964],[-104.87824,38.869975],[-104.878292,38.869969],[-104.878304,38.869938]]]}},{"type":"Feature","properties":{"id":null,"name":"park mantainence","type":"dirt pit","fid":null,"auxiliary_storage_labeling_positionx":null,"auxiliary_storage_labeling_positiony":null,"kind":"meadow"},"geometry":{"type":"Polygon","coordinates":[[[-104.878033,38.867193],[-104.877994,38.86704],[-104.87799,38.866837],[-104.877829,38.866732],[-104.877656,38.866735],[-104.877614,38.866789],[-104.877614,38.866944],[-104.87766,38.867193],[-104.877733,38.867259],[-104.877917,38.867259],[-104.878025,38.867232],[-104.878033,38.867193]]]}},{"type":"Feature","properties":{"id":null,"name":"rockledge meadow","type":"meadow","fid":null,"auxiliary_storage_labeling_positionx":null,"auxiliary_storage_labeling_positiony":null,"kind":"meadow"},"geometry":{"type":"Polygon","coordinates":[[[-104.874449,38.872405],[-104.873991,38.871637],[-104.873838,38.87148],[-104.873519,38.871534],[-104.872915,38.871675],[-104.872915,38.87195],[-104.873179,38.872226],[-104.873505,38.872588],[-104.874019,38.872518],[-104.874408,38.872497],[-104.874449,38.872405]]]}},{"type":"Feature","properties":{"id":null,"name":"field parking lot","type":"parking lot","fid":null,"auxiliary_storage_labeling_positionx":null,"auxiliary_storage_labeling_positiony":null,"kind":"parking"},"geometry":{"type":"Polygon","coordinates":[[[-104.871075,38.876587],[-104.870824,38.875575],[-104.870349,38.875669],[-104.869857,38.875639],[-104.869824,38.875983],[-104.869983,38.876536],[-104.870409,38.87674],[-104.870824,38.876693],[-104.871075,38.876587]]]}}]}