{
"type": "FeatureCollection",
"name": "rraoiFront",
"crs": { "type": "name", "properties": { "name": "urn:ogc:def:crs:OGC:1.3:CRS84" } },
"features": [
{ "type": "Feature", "properties": { "full_id": "w881801840", "osm_id": "881801840", "osm_type": "way", "roof:shape": null, "construction": null, "animal_boarding": null, "dog": null, "layer": null, "intermittent": null, "supervised": null, "covered": null, "highway": null, "residential": null, "opening_hours:drive_through": null, "contact:website": null, "internet_access": null, "layer1": null, "power_supply": null, "shelter_type": null, "education": null, "social_facility": null, "barrier": null, "water": null, "boat": null, "historic": null, "description": null, "healthcare:speciality": null, "healthcare": null, "level": null, "drive_in": null, "club": null, "atm": null, "addr:country": null, "addr:unit": null, "office": null, "craft": null, "smoking": null, "outdoor_seating": null, "brand:wikipedia": null, "short_name": null, "operator:website": null, "drive_through": null, "denomination": null, "religion": null, "building_1": null, "old_name": null, "notes": null, "man_made": null, "wheelchair": null, "tourism": null, "name:en": null, "gnis:feature_id": null, "ele": null, "ref": null, "official_name": null, "building:levels": null, "branch": null, "shop": null, "alt_name": null, "takeaway": null, "phone": null, "cuisine": null, "check_date": null, "brand:wikidata": null, "brand": null, "sport": null, "motor_vehicle": null, "leisure": null, "horse": null, "foot": null, "bicycle": null, "capacity": null, "lit": null, "surface": "gravel", "smoothness": "bad", "parking": "surface", "park_ride": "no", "orientation": "perpendicular", "fee": "no", "capacity:women": null, "capacity:parent": null, "capacity:disabled": null, "amenity": "parking", "access": "yes", "wikipedia": null, "website": null, "start_date": null, "protection_title": null, "opening_hours": null, "addr:street": null, "addr:state": null, "addr:postcode": null, "addr:housenumber": null, "addr:city": null, "building": null, "protected": null, "protect_class": null, "ownership": null, "owner": null, "operator:wikipedia": null, "operator:wikidata": null, "operator:type": null, "operator:short": null, "operator": null, "landuse": null, "natural": null, "leaf_type": null, "wikidata": null, "type": null, "place": null, "name": "High Street Lot", "boundary": null, "admin_level": null }, "geometry": { "type": "MultiPolygon", "coordinates": [ [ [ [ -104.8830242, 38.8534069 ], [ -104.8831258, 38.8534306 ], [ -104.8831245, 38.8534944 ], [ -104.8839558, 38.8536452 ], [ -104.8840317, 38.8533461 ], [ -104.8839495, 38.8532502 ], [ -104.883631, 38.8531957 ], [ -104.8834279, 38.8531721 ], [ -104.8830588, 38.8532755 ], [ -104.8830242, 38.8534069 ] ] ] ] } },
{ "type": "Feature", "properties": { "full_id": "w508028046", "osm_id": "508028046", "osm_type": "way", "roof:shape": null, "construction": null, "animal_boarding": null, "dog": null, "layer": null, "intermittent": null, "supervised": null, "covered": null, "highway": null, "residential": null, "opening_hours:drive_through": null, "contact:website": null, "internet_access": null, "layer1": null, "power_supply": null, "shelter_type": null, "education": null, "social_facility": null, "barrier": null, "water": null, "boat": null, "historic": null, "description": null, "healthcare:speciality": null, "healthcare": null, "level": null, "drive_in": null, "club": null, "atm": null, "addr:country": null, "addr:unit": null, "office": null, "craft": null, "smoking": null, "outdoor_seating": null, "brand:wikipedia": null, "short_name": null, "operator:website": null, "drive_through": null, "denomination": null, "religion": null, "building_1": null, "old_name": null, "notes": null, "man_made": null, "wheelchair": null, "tourism": null, "name:en": null, "gnis:feature_id": null, "ele": null, "ref": null, "official_name": null, "building:levels": null, "branch": null, "shop": null, "alt_name": null, "takeaway": null, "phone": null, "cuisine": null, "check_date": null, "brand:wikidata": null, "brand": null, "sport": null, "motor_vehicle": null, "leisure": null, "horse": null, "foot": null, "bicycle": null, "capacity": null, "lit": null, "surface": null, "smoothness": null, "parking": null, "park_ride": null, "orientation": null, "fee": null, "capacity:women": null, "capacity:parent": null, "capacity:disabled": null, "amenity": null, "access": null, "wikipedia": null, "website": null, "start_date": null, "protection_title": null, "opening_hours": null, "addr:street": null, "addr:state": null, "addr:postcode": null, "addr:housenumber": null, "addr:city": null, "building": "shed", "protected": null, "protect_class": null, "ownership": null, "owner": null, "operator:wikipedia": null, "operator:wikidata": null, "operator:type": null, "operator:short": null, "operator": null, "landuse": null, "natural": null, "leaf_type": null, "wikidata": null, "type": null, "place": null, "name": null, "boundary": null, "admin_level": null }, "geometry": { "type": "MultiPolygon", "coordinates": [ [ [ [ -104.8803334, 38.8488509 ], [ -104.8803582, 38.8488101 ], [ -104.8803191, 38.8487956 ], [ -104.8802943, 38.8488365 ], [ -104.8803334, 38.8488509 ] ] ] ] } },
{ "type": "Feature", "properties": { "full_id": "w508028044", "osm_id": "508028044", "osm_type": "way", "roof:shape": null, "construction": null, "animal_boarding": null, "dog": null, "layer": null, "intermittent": null, "supervised": null, "covered": null, "highway": null, "residential": null, "opening_hours:drive_through": null, "contact:website": null, "internet_access": null, "layer1": null, "power_supply": null, "shelter_type": "weather_shelter", "education": null, "social_facility": null, "barrier": null, "water": null, "boat": null, "historic": null, "description": null, "healthcare:speciality": null, "healthcare": null, "level": null, "drive_in": null, "club": null, "atm": null, "addr:country": null, "addr:unit": null, "office": null, "craft": null, "smoking": null, "outdoor_seating": null, "brand:wikipedia": null, "short_name": null, "operator:website": null, "drive_through": null, "denomination": null, "religion": null, "building_1": null, "old_name": null, "notes": null, "man_made": null, "wheelchair": null, "tourism": null, "name:en": null, "gnis:feature_id": null, "ele": null, "ref": null, "official_name": null, "building:levels": null, "branch": null, "shop": null, "alt_name": null, "takeaway": null, "phone": null, "cuisine": null, "check_date": null, "brand:wikidata": null, "brand": null, "sport": null, "motor_vehicle": null, "leisure": null, "horse": null, "foot": null, "bicycle": null, "capacity": null, "lit": null, "surface": null, "smoothness": null, "parking": null, "park_ride": null, "orientation": null, "fee": null, "capacity:women": null, "capacity:parent": null, "capacity:disabled": null, "amenity": "shelter", "access": null, "wikipedia": null, "website": null, "start_date": null, "protection_title": null, "opening_hours": null, "addr:street": null, "addr:state": null, "addr:postcode": null, "addr:housenumber": null, "addr:city": null, "building": null, "protected": null, "protect_class": null, "ownership": null, "owner": null, "operator:wikipedia": null, "operator:wikidata": null, "operator:type": null, "operator:short": null, "operator": null, "landuse": null, "natural": null, "leaf_type": null, "wikidata": null, "type": null, "place": null, "name": null, "boundary": null, "admin_level": null }, "geometry": { "type": "MultiPolygon", "coordinates": [ [ [ [ -104.8802519, 38.8489255 ], [ -104.8802933, 38.8488524 ], [ -104.8802124, 38.8488246 ], [ -104.880171, 38.8488977 ], [ -104.8802519, 38.8489255 ] ] ] ] } },
{ "type": "Feature", "properties": { "full_id": "w37395532", "osm_id": "37395532", "osm_type": "way", "roof:shape": null, "construction": null, "animal_boarding": null, "dog": null, "layer": null, "intermittent": null, "supervised": null, "covered": null, "highway": null, "residential": null, "opening_hours:drive_through": null, "contact:website": null, "internet_access": null, "layer1": null, "power_supply": null, "shelter_type": null, "education": null, "social_facility": null, "barrier": null, "water": null, "boat": null, "historic": null, "description": null, "healthcare:speciality": null, "healthcare": null, "level": null, "drive_in": null, "club": null, "atm": null, "addr:country": null, "addr:unit": null, "office": null, "craft": null, "smoking": null, "outdoor_seating": null, "brand:wikipedia": null, "short_name": null, "operator:website": null, "drive_through": null, "denomination": null, "religion": null, "building_1": null, "old_name": null, "notes": null, "man_made": null, "wheelchair": null, "tourism": null, "name:en": null, "gnis:feature_id": null, "ele": null, "ref": null, "official_name": null, "building:levels": null, "branch": null, "shop": null, "alt_name": null, "takeaway": null, "phone": null, "cuisine": null, "check_date": null, "brand:wikidata": null, "brand": null, "sport": null, "motor_vehicle": null, "leisure": null, "horse": null, "foot": null, "bicycle": null, "capacity": null, "lit": null, "surface": null, "smoothness": null, "parking": null, "park_ride": null, "orientation": null, "fee": null, "capacity:women": null, "capacity:parent": null, "capacity:disabled": null, "amenity": null, "access": null, "wikipedia": null, "website": null, "start_date": null, "protection_title": null, "opening_hours": null, "addr:street": null, "addr:state": null, "addr:postcode": null, "addr:housenumber": null, "addr:city": null, "building": null, "protected": null, "protect_class": null, "ownership": null, "owner": null, "operator:wikipedia": null, "operator:wikidata": null, "operator:type": null, "operator:short": null, "operator": null, "landuse": null, "natural": "bare_rock", "leaf_type": null, "wikidata": null, "type": null, "place": null, "name": null, "boundary": null, "admin_level": null }, "geometry": { "type": "MultiPolygon", "coordinates": [ [ [ [ -104.8844037, 38.8427186 ], [ -104.8844104, 38.8426732 ], [ -104.8843447, 38.8426522 ], [ -104.8842455, 38.8426451 ], [ -104.8840399, 38.8429279 ], [ -104.8837944, 38.8433135 ], [ -104.8836999, 38.8432734 ], [ -104.8835454, 38.8433002 ], [ -104.8834339, 38.8433536 ], [ -104.8836399, 38.8434673 ], [ -104.8834596, 38.8438149 ], [ -104.8833824, 38.8440556 ], [ -104.8835798, 38.8441558 ], [ -104.8836742, 38.843962 ], [ -104.883863, 38.8436611 ], [ -104.8840347, 38.8434138 ], [ -104.8841463, 38.84324 ], [ -104.8843093, 38.8429525 ], [ -104.8844037, 38.8427186 ] ] ] ] } },
{ "type": "Feature", "properties": { "full_id": "w37395515", "osm_id": "37395515", "osm_type": "way", "roof:shape": null, "construction": null, "animal_boarding": null, "dog": null, "layer": null, "intermittent": null, "supervised": null, "covered": null, "highway": null, "residential": null, "opening_hours:drive_through": null, "contact:website": null, "internet_access": null, "layer1": null, "power_supply": null, "shelter_type": null, "education": null, "social_facility": null, "barrier": null, "water": null, "boat": null, "historic": null, "description": null, "healthcare:speciality": null, "healthcare": null, "level": null, "drive_in": null, "club": null, "atm": null, "addr:country": null, "addr:unit": null, "office": null, "craft": null, "smoking": null, "outdoor_seating": null, "brand:wikipedia": null, "short_name": null, "operator:website": null, "drive_through": null, "denomination": null, "religion": null, "building_1": null, "old_name": null, "notes": null, "man_made": null, "wheelchair": null, "tourism": null, "name:en": null, "gnis:feature_id": null, "ele": null, "ref": null, "official_name": null, "building:levels": null, "branch": null, "shop": null, "alt_name": null, "takeaway": null, "phone": null, "cuisine": null, "check_date": null, "brand:wikidata": null, "brand": null, "sport": null, "motor_vehicle": null, "leisure": null, "horse": null, "foot": null, "bicycle": null, "capacity": null, "lit": null, "surface": null, "smoothness": null, "parking": null, "park_ride": null, "orientation": null, "fee": null, "capacity:women": null, "capacity:parent": null, "capacity:disabled": null, "amenity": null, "access": null, "wikipedia": null, "website": null, "start_date": null, "protection_title": null, "opening_hours": null, "addr:street": null, "addr:state": null, "addr:postcode": null, "addr:housenumber": null, "addr:city": null, "building": null, "protected": null, "protect_class": null, "ownership": null, "owner": null, "operator:wikipedia": null, "operator:wikidata": null, "operator:type": null, "operator:short": null, "operator": null, "landuse": null, "natural": "bare_rock", "leaf_type": null, "wikidata": null, "type": null, "place": null, "name": null, "boundary": null, "admin_level": null }, "geometry": { "type": "MultiPolygon", "coordinates": [ [ [ [ -104.8817773, 38.8472509 ], [ -104.8819147, 38.8470303 ], [ -104.8820606, 38.8467963 ], [ -104.8821979, 38.8465758 ], [ -104.8823009, 38.8463284 ], [ -104.8824897, 38.8460142 ], [ -104.8826528, 38.8457602 ], [ -104.8827815, 38.8455129 ], [ -104.8829189, 38.8452522 ], [ -104.8830305, 38.8450182 ], [ -104.8831678, 38.8447709 ], [ -104.8832794, 38.8445436 ], [ -104.8833394, 38.8443698 ], [ -104.883142, 38.8442762 ], [ -104.8829875, 38.8445168 ], [ -104.882833, 38.8448578 ], [ -104.8827386, 38.845065 ], [ -104.8825841, 38.8452856 ], [ -104.8824233, 38.8455 ], [ -104.8823696, 38.845553 ], [ -104.8822151, 38.8458404 ], [ -104.8820777, 38.8460811 ], [ -104.8820005, 38.846295 ], [ -104.8819147, 38.8464822 ], [ -104.8817687, 38.8466292 ], [ -104.8816143, 38.8469367 ], [ -104.8815113, 38.8471506 ], [ -104.8813482, 38.847291 ], [ -104.881228, 38.8475718 ], [ -104.8811807, 38.8478128 ], [ -104.8811483, 38.8479718 ], [ -104.8810598, 38.8481128 ], [ -104.8809802, 38.848144 ], [ -104.880981, 38.8481776 ], [ -104.8809787, 38.8481953 ], [ -104.8809738, 38.84821 ], [ -104.8809714, 38.8482265 ], [ -104.8809734, 38.8482485 ], [ -104.8809794, 38.8482657 ], [ -104.8809873, 38.8482837 ], [ -104.8809985, 38.8482964 ], [ -104.8810106, 38.8483092 ], [ -104.8810365, 38.8483658 ], [ -104.88106, 38.848407 ], [ -104.8810854, 38.8484441 ], [ -104.8811115, 38.8484744 ], [ -104.8811453, 38.8485049 ], [ -104.8811757, 38.8485332 ], [ -104.8811944, 38.8485564 ], [ -104.8811833, 38.8486208 ], [ -104.8812131, 38.8486171 ], [ -104.8812278, 38.848585 ], [ -104.8812619, 38.8485301 ], [ -104.8812867, 38.8484767 ], [ -104.8814187, 38.8482445 ], [ -104.881348, 38.8480699 ], [ -104.8813926, 38.8479605 ], [ -104.8815148, 38.8477829 ], [ -104.8816185, 38.8476802 ], [ -104.8816617, 38.8475702 ], [ -104.881701, 38.8474809 ], [ -104.881741, 38.8473895 ], [ -104.8817773, 38.8472509 ] ] ] ] } },
{ "type": "Feature", "properties": { "full_id": "w187756994", "osm_id": "187756994", "osm_type": "way", "roof:shape": null, "construction": null, "animal_boarding": null, "dog": null, "layer": null, "intermittent": null, "supervised": null, "covered": null, "highway": null, "residential": null, "opening_hours:drive_through": null, "contact:website": null, "internet_access": null, "layer1": null, "power_supply": null, "shelter_type": null, "education": null, "social_facility": null, "barrier": null, "water": null, "boat": null, "historic": null, "description": null, "healthcare:speciality": null, "healthcare": null, "level": null, "drive_in": null, "club": null, "atm": null, "addr:country": null, "addr:unit": null, "office": null, "craft": null, "smoking": "no", "outdoor_seating": "yes", "brand:wikipedia": null, "short_name": null, "operator:website": null, "drive_through": null, "denomination": null, "religion": null, "building_1": null, "old_name": null, "notes": null, "man_made": null, "wheelchair": null, "tourism": null, "name:en": null, "gnis:feature_id": null, "ele": null, "ref": null, "official_name": null, "building:levels": null, "branch": null, "shop": null, "alt_name": null, "takeaway": "yes", "phone": "+1-719-471-4120", "cuisine": "barbecue", "check_date": null, "brand:wikidata": null, "brand": null, "sport": null, "motor_vehicle": null, "leisure": null, "horse": null, "foot": null, "bicycle": null, "capacity": null, "lit": null, "surface": null, "smoothness": null, "parking": null, "park_ride": null, "orientation": null, "fee": null, "capacity:women": null, "capacity:parent": null, "capacity:disabled": null, "amenity": "restaurant", "access": null, "wikipedia": null, "website": "https://rudysbbq.com/location/detail/colorado-springs-co", "start_date": null, "protection_title": null, "opening_hours": "Su-Th 07:00-21:00; Fr-Sa 07:00-22:00", "addr:street": "South 31st Street", "addr:state": "CO", "addr:postcode": "80904", "addr:housenumber": "315", "addr:city": "Colorado Springs", "building": "yes", "protected": null, "protect_class": null, "ownership": null, "owner": null, "operator:wikipedia": null, "operator:wikidata": null, "operator:type": null, "operator:short": null, "operator": null, "landuse": null, "natural": null, "leaf_type": null, "wikidata": null, "type": null, "place": null, "name": "Rudy's Country Store & Bar-B-Q", "boundary": null, "admin_level": null }, "geometry": { "type": "MultiPolygon", "coordinates": [ [ [ [ -104.8725049, 38.8497474 ], [ -104.8724098, 38.8498102 ], [ -104.8724954, 38.8498889 ], [ -104.872276, 38.8500338 ], [ -104.8720522, 38.8498283 ], [ -104.8722201, 38.8497175 ], [ -104.8723668, 38.8496206 ], [ -104.8725049, 38.8497474 ] ] ] ] } },
{ "type": "Feature", "properties": { "full_id": "w520436671", "osm_id": "520436671", "osm_type": "way", "roof:shape": null, "construction": null, "animal_boarding": null, "dog": null, "layer": null, "intermittent": null, "supervised": null, "covered": null, "highway": null, "residential": null, "opening_hours:drive_through": null, "contact:website": null, "internet_access": null, "layer1": null, "power_supply": null, "shelter_type": null, "education": null, "social_facility": null, "barrier": null, "water": null, "boat": null, "historic": null, "description": null, "healthcare:speciality": null, "healthcare": null, "level": null, "drive_in": null, "club": null, "atm": null, "addr:country": null, "addr:unit": null, "office": null, "craft": null, "smoking": null, "outdoor_seating": null, "brand:wikipedia": null, "short_name": null, "operator:website": null, "drive_through": null, "denomination": null, "religion": null, "building_1": null, "old_name": null, "notes": null, "man_made": null, "wheelchair": null, "tourism": null, "name:en": null, "gnis:feature_id": null, "ele": null, "ref": null, "official_name": null, "building:levels": null, "branch": null, "shop": null, "alt_name": null, "takeaway": null, "phone": null, "cuisine": null, "check_date": null, "brand:wikidata": null, "brand": null, "sport": null, "motor_vehicle": null, "leisure": null, "horse": null, "foot": null, "bicycle": null, "capacity": null, "lit": null, "surface": null, "smoothness": null, "parking": "surface", "park_ride": null, "orientation": null, "fee": null, "capacity:women": null, "capacity:parent": null, "capacity:disabled": null, "amenity": "parking", "access": "customers", "wikipedia": null, "website": null, "start_date": null, "protection_title": null, "opening_hours": null, "addr:street": null, "addr:state": null, "addr:postcode": null, "addr:housenumber": null, "addr:city": null, "building": null, "protected": null, "protect_class": null, "ownership": null, "owner": null, "operator:wikipedia": null, "operator:wikidata": null, "operator:type": null, "operator:short": null, "operator": null, "landuse": null, "natural": null, "leaf_type": null, "wikidata": null, "type": null, "place": null, "name": null, "boundary": null, "admin_level": null }, "geometry": { "type": "MultiPolygon", "coordinates": [ [ [ [ -104.8726854, 38.8502018 ], [ -104.8726787, 38.8504462 ], [ -104.8725928, 38.8504473 ], [ -104.8725915, 38.8504932 ], [ -104.8723152, 38.8504974 ], [ -104.8723112, 38.8504556 ], [ -104.8723099, 38.8503543 ], [ -104.8723152, 38.8503126 ], [ -104.8722643, 38.8502917 ], [ -104.8722589, 38.8501778 ], [ -104.8725285, 38.8501747 ], [ -104.8726237, 38.8501987 ], [ -104.8726854, 38.8502018 ] ] ] ] } },
{ "type": "Feature", "properties": { "full_id": "w520436670", "osm_id": "520436670", "osm_type": "way", "roof:shape": null, "construction": null, "animal_boarding": null, "dog": null, "layer": null, "intermittent": null, "supervised": null, "covered": null, "highway": null, "residential": null, "opening_hours:drive_through": null, "contact:website": null, "internet_access": null, "layer1": null, "power_supply": null, "shelter_type": null, "education": null, "social_facility": null, "barrier": null, "water": null, "boat": null, "historic": null, "description": null, "healthcare:speciality": null, "healthcare": null, "level": null, "drive_in": null, "club": null, "atm": null, "addr:country": null, "addr:unit": null, "office": null, "craft": null, "smoking": null, "outdoor_seating": null, "brand:wikipedia": null, "short_name": null, "operator:website": null, "drive_through": null, "denomination": null, "religion": null, "building_1": null, "old_name": null, "notes": null, "man_made": null, "wheelchair": null, "tourism": null, "name:en": null, "gnis:feature_id": null, "ele": null, "ref": null, "official_name": null, "building:levels": null, "branch": null, "shop": null, "alt_name": null, "takeaway": null, "phone": null, "cuisine": null, "check_date": null, "brand:wikidata": null, "brand": null, "sport": null, "motor_vehicle": null, "leisure": null, "horse": null, "foot": null, "bicycle": null, "capacity": null, "lit": null, "surface": null, "smoothness": null, "parking": "surface", "park_ride": null, "orientation": null, "fee": null, "capacity:women": null, "capacity:parent": null, "capacity:disabled": null, "amenity": "parking", "access": "customers", "wikipedia": null, "website": null, "start_date": null, "protection_title": null, "opening_hours": null, "addr:street": null, "addr:state": null, "addr:postcode": null, "addr:housenumber": null, "addr:city": null, "building": null, "protected": null, "protect_class": null, "ownership": null, "owner": null, "operator:wikipedia": null, "operator:wikidata": null, "operator:type": null, "operator:short": null, "operator": null, "landuse": null, "natural": null, "leaf_type": null, "wikidata": null, "type": null, "place": null, "name": null, "boundary": null, "admin_level": null }, "geometry": { "type": "MultiPolygon", "coordinates": [ [ [ [ -104.8724721, 38.8500159 ], [ -104.872613, 38.8500065 ], [ -104.872672, 38.8499877 ], [ -104.872672, 38.8497517 ], [ -104.8726425, 38.8496493 ], [ -104.8725794, 38.8496713 ], [ -104.872613, 38.8497506 ], [ -104.8726183, 38.8499084 ], [ -104.8725137, 38.849923 ], [ -104.8724748, 38.8499272 ], [ -104.8724721, 38.8500159 ] ] ] ] } },
{ "type": "Feature", "properties": { "full_id": "w36946956", "osm_id": "36946956", "osm_type": "way", "roof:shape": null, "construction": null, "animal_boarding": null, "dog": null, "layer": null, "intermittent": null, "supervised": null, "covered": null, "highway": null, "residential": null, "opening_hours:drive_through": null, "contact:website": null, "internet_access": null, "layer1": null, "power_supply": null, "shelter_type": null, "education": null, "social_facility": null, "barrier": null, "water": null, "boat": null, "historic": null, "description": null, "healthcare:speciality": null, "healthcare": null, "level": null, "drive_in": null, "club": null, "atm": null, "addr:country": null, "addr:unit": null, "office": null, "craft": null, "smoking": null, "outdoor_seating": null, "brand:wikipedia": null, "short_name": null, "operator:website": null, "drive_through": null, "denomination": null, "religion": null, "building_1": null, "old_name": null, "notes": null, "man_made": null, "wheelchair": null, "tourism": null, "name:en": null, "gnis:feature_id": null, "ele": null, "ref": null, "official_name": null, "building:levels": null, "branch": null, "shop": null, "alt_name": null, "takeaway": null, "phone": null, "cuisine": null, "check_date": null, "brand:wikidata": null, "brand": null, "sport": null, "motor_vehicle": null, "leisure": null, "horse": null, "foot": null, "bicycle": null, "capacity": "30", "lit": null, "surface": "gravel", "smoothness": "bad", "parking": "surface", "park_ride": "no", "orientation": "perpendicular", "fee": "no", "capacity:women": "no", "capacity:parent": "no", "capacity:disabled": null, "amenity": "parking", "access": "yes", "wikipedia": null, "website": null, "start_date": null, "protection_title": null, "opening_hours": null, "addr:street": null, "addr:state": null, "addr:postcode": null, "addr:housenumber": null, "addr:city": null, "building": null, "protected": null, "protect_class": null, "ownership": null, "owner": null, "operator:wikipedia": null, "operator:wikidata": null, "operator:type": null, "operator:short": null, "operator": null, "landuse": null, "natural": null, "leaf_type": null, "wikidata": null, "type": null, "place": null, "name": "Red Rock Open Space Lot2", "boundary": null, "admin_level": null }, "geometry": { "type": "MultiPolygon", "coordinates": [ [ [ [ -104.8783682, 38.8521781 ], [ -104.8782935, 38.8521495 ], [ -104.8782257, 38.8521192 ], [ -104.8781003, 38.8520697 ], [ -104.8780016, 38.8520676 ], [ -104.8779412, 38.8520424 ], [ -104.8781106, 38.8517888 ], [ -104.8783516, 38.851417 ], [ -104.8785953, 38.8515209 ], [ -104.8786846, 38.8515579 ], [ -104.8787389, 38.8515839 ], [ -104.8783682, 38.8521781 ] ] ] ] } },
{ "type": "Feature", "properties": { "full_id": "w1015487545", "osm_id": "1015487545", "osm_type": "way", "roof:shape": null, "construction": null, "animal_boarding": null, "dog": null, "layer": null, "intermittent": null, "supervised": null, "covered": null, "highway": null, "residential": null, "opening_hours:drive_through": null, "contact:website": null, "internet_access": null, "layer1": null, "power_supply": null, "shelter_type": null, "education": null, "social_facility": null, "barrier": null, "water": null, "boat": null, "historic": null, "description": null, "healthcare:speciality": null, "healthcare": null, "level": null, "drive_in": null, "club": null, "atm": null, "addr:country": null, "addr:unit": null, "office": null, "craft": null, "smoking": null, "outdoor_seating": null, "brand:wikipedia": null, "short_name": null, "operator:website": null, "drive_through": null, "denomination": null, "religion": null, "building_1": null, "old_name": null, "notes": null, "man_made": null, "wheelchair": null, "tourism": null, "name:en": null, "gnis:feature_id": null, "ele": null, "ref": null, "official_name": null, "building:levels": null, "branch": null, "shop": null, "alt_name": null, "takeaway": null, "phone": null, "cuisine": null, "check_date": null, "brand:wikidata": null, "brand": null, "sport": null, "motor_vehicle": null, "leisure": null, "horse": null, "foot": null, "bicycle": null, "capacity": null, "lit": null, "surface": null, "smoothness": null, "parking": null, "park_ride": null, "orientation": null, "fee": null, "capacity:women": null, "capacity:parent": null, "capacity:disabled": null, "amenity": null, "access": null, "wikipedia": null, "website": null, "start_date": null, "protection_title": null, "opening_hours": null, "addr:street": null, "addr:state": null, "addr:postcode": null, "addr:housenumber": null, "addr:city": null, "building": null, "protected": null, "protect_class": null, "ownership": null, "owner": null, "operator:wikipedia": null, "operator:wikidata": null, "operator:type": null, "operator:short": null, "operator": null, "landuse": null, "natural": "bare_rock", "leaf_type": null, "wikidata": null, "type": null, "place": null, "name": null, "boundary": null, "admin_level": null }, "geometry": { "type": "MultiPolygon", "coordinates": [ [ [ [ -104.8863184, 38.8381213 ], [ -104.8865109, 38.8381262 ], [ -104.8866794, 38.8380553 ], [ -104.8867938, 38.8380112 ], [ -104.8869278, 38.8378102 ], [ -104.8869408, 38.8377771 ], [ -104.8869472, 38.8376221 ], [ -104.886872, 38.8376088 ], [ -104.8867035, 38.8376522 ], [ -104.8864654, 38.8377852 ], [ -104.8861903, 38.8380587 ], [ -104.8863184, 38.8381213 ] ] ] ] } },
{ "type": "Feature", "properties": { "full_id": "w520436669", "osm_id": "520436669", "osm_type": "way", "roof:shape": null, "construction": null, "animal_boarding": null, "dog": null, "layer": null, "intermittent": null, "supervised": null, "covered": null, "highway": null, "residential": null, "opening_hours:drive_through": null, "contact:website": null, "internet_access": null, "layer1": null, "power_supply": null, "shelter_type": null, "education": null, "social_facility": null, "barrier": null, "water": null, "boat": null, "historic": null, "description": null, "healthcare:speciality": null, "healthcare": null, "level": null, "drive_in": null, "club": null, "atm": null, "addr:country": null, "addr:unit": null, "office": null, "craft": null, "smoking": null, "outdoor_seating": null, "brand:wikipedia": null, "short_name": null, "operator:website": null, "drive_through": null, "denomination": null, "religion": null, "building_1": null, "old_name": null, "notes": null, "man_made": null, "wheelchair": null, "tourism": null, "name:en": null, "gnis:feature_id": null, "ele": null, "ref": null, "official_name": null, "building:levels": null, "branch": null, "shop": null, "alt_name": null, "takeaway": null, "phone": null, "cuisine": null, "check_date": null, "brand:wikidata": null, "brand": null, "sport": null, "motor_vehicle": null, "leisure": null, "horse": null, "foot": null, "bicycle": null, "capacity": null, "lit": null, "surface": null, "smoothness": null, "parking": "surface", "park_ride": null, "orientation": null, "fee": null, "capacity:women": null, "capacity:parent": null, "capacity:disabled": null, "amenity": "parking", "access": "customers", "wikipedia": null, "website": null, "start_date": null, "protection_title": null, "opening_hours": null, "addr:street": null, "addr:state": null, "addr:postcode": null, "addr:housenumber": null, "addr:city": null, "building": null, "protected": null, "protect_class": null, "ownership": null, "owner": null, "operator:wikipedia": null, "operator:wikidata": null, "operator:type": null, "operator:short": null, "operator": null, "landuse": null, "natural": null, "leaf_type": null, "wikidata": null, "type": null, "place": null, "name": null, "boundary": null, "admin_level": null }, "geometry": { "type": "MultiPolygon", "coordinates": [ [ [ [ -104.8722509, 38.849619 ], [ -104.8722495, 38.8495512 ], [ -104.8720242, 38.8495543 ], [ -104.8720243, 38.8496229 ], [ -104.8718391, 38.8496285 ], [ -104.8718378, 38.8495522 ], [ -104.8715588, 38.8495564 ], [ -104.8715602, 38.8496055 ], [ -104.8714998, 38.8496034 ], [ -104.8715079, 38.8497256 ], [ -104.8715588, 38.8497318 ], [ -104.8716221, 38.849769 ], [ -104.8718029, 38.8499136 ], [ -104.8718525, 38.8498739 ], [ -104.8718901, 38.8498655 ], [ -104.8718807, 38.8498321 ], [ -104.8718204, 38.8498269 ], [ -104.871819, 38.8497538 ], [ -104.8718834, 38.8497444 ], [ -104.871988, 38.8498039 ], [ -104.8719867, 38.8498749 ], [ -104.8722106, 38.8500535 ], [ -104.8722468, 38.8500264 ], [ -104.8720323, 38.8498373 ], [ -104.8720522, 38.8498283 ], [ -104.8722201, 38.8497175 ], [ -104.8721972, 38.8496848 ], [ -104.8722509, 38.849619 ] ] ] ] } },
{ "type": "Feature", "properties": { "full_id": "w1015487163", "osm_id": "1015487163", "osm_type": "way", "roof:shape": null, "construction": null, "animal_boarding": null, "dog": null, "layer": null, "intermittent": null, "supervised": null, "covered": null, "highway": null, "residential": null, "opening_hours:drive_through": null, "contact:website": null, "internet_access": null, "layer1": null, "power_supply": null, "shelter_type": null, "education": null, "social_facility": null, "barrier": null, "water": null, "boat": null, "historic": null, "description": null, "healthcare:speciality": null, "healthcare": null, "level": null, "drive_in": null, "club": null, "atm": null, "addr:country": null, "addr:unit": null, "office": null, "craft": null, "smoking": null, "outdoor_seating": null, "brand:wikipedia": null, "short_name": null, "operator:website": null, "drive_through": null, "denomination": null, "religion": null, "building_1": null, "old_name": null, "notes": null, "man_made": null, "wheelchair": null, "tourism": null, "name:en": null, "gnis:feature_id": null, "ele": null, "ref": null, "official_name": null, "building:levels": null, "branch": null, "shop": null, "alt_name": null, "takeaway": null, "phone": null, "cuisine": null, "check_date": null, "brand:wikidata": null, "brand": null, "sport": null, "motor_vehicle": null, "leisure": null, "horse": null, "foot": null, "bicycle": null, "capacity": null, "lit": null, "surface": null, "smoothness": null, "parking": null, "park_ride": null, "orientation": null, "fee": null, "capacity:women": null, "capacity:parent": null, "capacity:disabled": null, "amenity": null, "access": null, "wikipedia": null, "website": null, "start_date": null, "protection_title": null, "opening_hours": null, "addr:street": null, "addr:state": null, "addr:postcode": null, "addr:housenumber": null, "addr:city": null, "building": null, "protected": null, "protect_class": null, "ownership": null, "owner": null, "operator:wikipedia": null, "operator:wikidata": null, "operator:type": null, "operator:short": null, "operator": null, "landuse": null, "natural": "bare_rock", "leaf_type": null, "wikidata": null, "type": null, "place": null, "name": null, "boundary": null, "admin_level": null }, "geometry": { "type": "MultiPolygon", "coordinates": [ [ [ [ -104.8856222, 38.8391409 ], [ -104.8857107, 38.8391589 ], [ -104.8857325, 38.8391408 ], [ -104.8857695, 38.8391213 ], [ -104.8858096, 38.8391544 ], [ -104.8858706, 38.8391835 ], [ -104.8859237, 38.8391996 ], [ -104.8859524, 38.8391593 ], [ -104.8860114, 38.839091 ], [ -104.8860479, 38.839103 ], [ -104.8860955, 38.8391395 ], [ -104.8861102, 38.8391628 ], [ -104.88614, 38.8391606 ], [ -104.8861821, 38.8391551 ], [ -104.8864446, 38.8387482 ], [ -104.886462, 38.8386838 ], [ -104.8864596, 38.8386147 ], [ -104.8864812, 38.8386157 ], [ -104.8865301, 38.838775 ], [ -104.886566, 38.8388335 ], [ -104.8866334, 38.8388769 ], [ -104.8866793, 38.8388202 ], [ -104.8866877, 38.8387811 ], [ -104.8867068, 38.8387462 ], [ -104.886721, 38.8387179 ], [ -104.8866983, 38.8386359 ], [ -104.8866739, 38.8385752 ], [ -104.8866285, 38.8385328 ], [ -104.8865366, 38.8384438 ], [ -104.8864778, 38.8384055 ], [ -104.8863716, 38.8383855 ], [ -104.8862804, 38.8383746 ], [ -104.8862136, 38.8383618 ], [ -104.8861227, 38.8383659 ], [ -104.8860441, 38.8384078 ], [ -104.8858591, 38.8386638 ], [ -104.8856222, 38.8391409 ] ] ] ] } },
{ "type": "Feature", "properties": { "full_id": "w36946800", "osm_id": "36946800", "osm_type": "way", "roof:shape": null, "construction": null, "animal_boarding": null, "dog": null, "layer": null, "intermittent": null, "supervised": null, "covered": null, "highway": null, "residential": null, "opening_hours:drive_through": null, "contact:website": null, "internet_access": null, "layer1": null, "power_supply": null, "shelter_type": null, "education": null, "social_facility": null, "barrier": null, "water": null, "boat": null, "historic": null, "description": null, "healthcare:speciality": null, "healthcare": null, "level": null, "drive_in": null, "club": null, "atm": null, "addr:country": null, "addr:unit": null, "office": null, "craft": null, "smoking": null, "outdoor_seating": null, "brand:wikipedia": null, "short_name": null, "operator:website": null, "drive_through": null, "denomination": null, "religion": null, "building_1": null, "old_name": null, "notes": null, "man_made": null, "wheelchair": null, "tourism": null, "name:en": null, "gnis:feature_id": null, "ele": null, "ref": null, "official_name": null, "building:levels": null, "branch": null, "shop": null, "alt_name": null, "takeaway": null, "phone": null, "cuisine": null, "check_date": null, "brand:wikidata": null, "brand": null, "sport": null, "motor_vehicle": null, "leisure": null, "horse": null, "foot": null, "bicycle": null, "capacity": null, "lit": "no", "surface": "asphalt", "smoothness": null, "parking": "surface", "park_ride": null, "orientation": null, "fee": "no", "capacity:women": null, "capacity:parent": null, "capacity:disabled": null, "amenity": "parking", "access": "yes", "wikipedia": null, "website": null, "start_date": null, "protection_title": null, "opening_hours": null, "addr:street": null, "addr:state": null, "addr:postcode": null, "addr:housenumber": null, "addr:city": null, "building": null, "protected": null, "protect_class": null, "ownership": null, "owner": null, "operator:wikipedia": null, "operator:wikidata": null, "operator:type": null, "operator:short": null, "operator": "City of Colorado Springs", "landuse": null, "natural": null, "leaf_type": null, "wikidata": null, "type": null, "place": null, "name": "South 31st Lot", "boundary": null, "admin_level": null }, "geometry": { "type": "MultiPolygon", "coordinates": [ [ [ [ -104.8733899, 38.8494666 ], [ -104.8732548, 38.8495144 ], [ -104.8732145, 38.8486575 ], [ -104.8730908, 38.8485915 ], [ -104.873089, 38.8484607 ], [ -104.873081, 38.847878 ], [ -104.8732269, 38.847878 ], [ -104.8732848, 38.8484566 ], [ -104.8733737, 38.8488026 ], [ -104.8734598, 38.8491549 ], [ -104.8733899, 38.8494666 ] ] ] ] } },
{ "type": "Feature", "properties": { "full_id": "w899570125", "osm_id": "899570125", "osm_type": "way", "roof:shape": null, "construction": null, "animal_boarding": null, "dog": null, "layer": null, "intermittent": null, "supervised": null, "covered": null, "highway": null, "residential": null, "opening_hours:drive_through": null, "contact:website": null, "internet_access": null, "layer1": null, "power_supply": null, "shelter_type": null, "education": null, "social_facility": null, "barrier": null, "water": null, "boat": null, "historic": null, "description": null, "healthcare:speciality": null, "healthcare": null, "level": null, "drive_in": null, "club": null, "atm": null, "addr:country": null, "addr:unit": null, "office": null, "craft": null, "smoking": null, "outdoor_seating": null, "brand:wikipedia": null, "short_name": null, "operator:website": null, "drive_through": null, "denomination": null, "religion": null, "building_1": null, "old_name": null, "notes": null, "man_made": null, "wheelchair": null, "tourism": null, "name:en": null, "gnis:feature_id": null, "ele": null, "ref": null, "official_name": null, "building:levels": null, "branch": null, "shop": null, "alt_name": null, "takeaway": null, "phone": null, "cuisine": null, "check_date": null, "brand:wikidata": null, "brand": null, "sport": null, "motor_vehicle": null, "leisure": null, "horse": null, "foot": null, "bicycle": null, "capacity": null, "lit": null, "surface": null, "smoothness": null, "parking": null, "park_ride": null, "orientation": null, "fee": null, "capacity:women": null, "capacity:parent": null, "capacity:disabled": null, "amenity": null, "access": null, "wikipedia": null, "website": null, "start_date": null, "protection_title": null, "opening_hours": null, "addr:street": null, "addr:state": null, "addr:postcode": null, "addr:housenumber": null, "addr:city": null, "building": null, "protected": null, "protect_class": null, "ownership": null, "owner": null, "operator:wikipedia": null, "operator:wikidata": null, "operator:type": null, "operator:short": null, "operator": null, "landuse": null, "natural": "bare_rock", "leaf_type": null, "wikidata": null, "type": null, "place": null, "name": null, "boundary": null, "admin_level": null }, "geometry": { "type": "MultiPolygon", "coordinates": [ [ [ [ -104.8831286, 38.841526 ], [ -104.8833768, 38.8410656 ], [ -104.8842605, 38.8400774 ], [ -104.8841987, 38.8400362 ], [ -104.8839143, 38.8400707 ], [ -104.8838644, 38.8401769 ], [ -104.8837955, 38.8401936 ], [ -104.8837339, 38.8401401 ], [ -104.8836594, 38.8400581 ], [ -104.8834705, 38.8400496 ], [ -104.8832886, 38.840089 ], [ -104.8832256, 38.8402897 ], [ -104.8831737, 38.8404595 ], [ -104.8830139, 38.8406285 ], [ -104.8827941, 38.8407634 ], [ -104.8827799, 38.8410115 ], [ -104.8828973, 38.8411174 ], [ -104.8829852, 38.8412687 ], [ -104.8831286, 38.841526 ] ] ] ] } },
{ "type": "Feature", "properties": { "full_id": "w36945929", "osm_id": "36945929", "osm_type": "way", "roof:shape": null, "construction": null, "animal_boarding": null, "dog": null, "layer": null, "intermittent": null, "supervised": null, "covered": null, "highway": null, "residential": null, "opening_hours:drive_through": null, "contact:website": null, "internet_access": null, "layer1": null, "power_supply": null, "shelter_type": null, "education": null, "social_facility": null, "barrier": null, "water": null, "boat": null, "historic": null, "description": null, "healthcare:speciality": null, "healthcare": null, "level": null, "drive_in": null, "club": null, "atm": null, "addr:country": null, "addr:unit": null, "office": null, "craft": null, "smoking": null, "outdoor_seating": null, "brand:wikipedia": null, "short_name": null, "operator:website": null, "drive_through": null, "denomination": null, "religion": null, "building_1": null, "old_name": null, "notes": null, "man_made": null, "wheelchair": null, "tourism": null, "name:en": null, "gnis:feature_id": null, "ele": null, "ref": null, "official_name": null, "building:levels": null, "branch": null, "shop": null, "alt_name": null, "takeaway": null, "phone": null, "cuisine": null, "check_date": null, "brand:wikidata": null, "brand": null, "sport": null, "motor_vehicle": null, "leisure": null, "horse": null, "foot": null, "bicycle": null, "capacity": null, "lit": null, "surface": "gravel", "smoothness": "intermediate", "parking": "surface", "park_ride": "no", "orientation": "perpendicular", "fee": "no", "capacity:women": "no", "capacity:parent": "no", "capacity:disabled": "yes", "amenity": "parking", "access": "yes", "wikipedia": null, "website": null, "start_date": null, "protection_title": null, "opening_hours": null, "addr:street": null, "addr:state": null, "addr:postcode": null, "addr:housenumber": null, "addr:city": null, "building": null, "protected": null, "protect_class": null, "ownership": null, "owner": null, "operator:wikipedia": null, "operator:wikidata": null, "operator:type": null, "operator:short": null, "operator": null, "landuse": null, "natural": null, "leaf_type": null, "wikidata": null, "type": null, "place": null, "name": "Red Rock Open Space Lot1", "boundary": null, "admin_level": null }, "geometry": { "type": "MultiPolygon", "coordinates": [ [ [ [ -104.8812172, 38.8537065 ], [ -104.8809685, 38.8537325 ], [ -104.8808099, 38.8537331 ], [ -104.8806449, 38.8537276 ], [ -104.8804046, 38.8537093 ], [ -104.8801424, 38.853677 ], [ -104.8799238, 38.8536375 ], [ -104.8793823, 38.8534817 ], [ -104.8793219, 38.8534511 ], [ -104.879283, 38.8534111 ], [ -104.8792747, 38.8533669 ], [ -104.8792834, 38.8533262 ], [ -104.8793112, 38.8532849 ], [ -104.8793591, 38.8532526 ], [ -104.8794277, 38.8532437 ], [ -104.8794941, 38.8532547 ], [ -104.8797803, 38.8533527 ], [ -104.8799161, 38.8533901 ], [ -104.8800898, 38.8534319 ], [ -104.8802335, 38.8534545 ], [ -104.8806505, 38.85349 ], [ -104.8808485, 38.8534939 ], [ -104.8809784, 38.853489 ], [ -104.8812055, 38.8534656 ], [ -104.8812634, 38.853472 ], [ -104.8813185, 38.8534967 ], [ -104.8813479, 38.853527 ], [ -104.8813573, 38.8535696 ], [ -104.8813498, 38.8536153 ], [ -104.8813243, 38.8536583 ], [ -104.881288, 38.8536858 ], [ -104.8812172, 38.8537065 ] ] ] ] } },
{ "type": "Feature", "properties": { "full_id": "w37395542", "osm_id": "37395542", "osm_type": "way", "roof:shape": null, "construction": null, "animal_boarding": null, "dog": null, "layer": null, "intermittent": null, "supervised": null, "covered": null, "highway": null, "residential": null, "opening_hours:drive_through": null, "contact:website": null, "internet_access": null, "layer1": null, "power_supply": null, "shelter_type": null, "education": null, "social_facility": null, "barrier": null, "water": null, "boat": null, "historic": null, "description": null, "healthcare:speciality": null, "healthcare": null, "level": null, "drive_in": null, "club": null, "atm": null, "addr:country": null, "addr:unit": null, "office": null, "craft": null, "smoking": null, "outdoor_seating": null, "brand:wikipedia": null, "short_name": null, "operator:website": null, "drive_through": null, "denomination": null, "religion": null, "building_1": null, "old_name": null, "notes": null, "man_made": null, "wheelchair": null, "tourism": null, "name:en": null, "gnis:feature_id": null, "ele": null, "ref": null, "official_name": null, "building:levels": null, "branch": null, "shop": null, "alt_name": null, "takeaway": null, "phone": null, "cuisine": null, "check_date": null, "brand:wikidata": null, "brand": null, "sport": null, "motor_vehicle": null, "leisure": null, "horse": null, "foot": null, "bicycle": null, "capacity": null, "lit": null, "surface": null, "smoothness": null, "parking": null, "park_ride": null, "orientation": null, "fee": null, "capacity:women": null, "capacity:parent": null, "capacity:disabled": null, "amenity": null, "access": null, "wikipedia": null, "website": null, "start_date": null, "protection_title": null, "opening_hours": null, "addr:street": null, "addr:state": null, "addr:postcode": null, "addr:housenumber": null, "addr:city": null, "building": null, "protected": null, "protect_class": null, "ownership": null, "owner": null, "operator:wikipedia": null, "operator:wikidata": null, "operator:type": null, "operator:short": null, "operator": null, "landuse": null, "natural": "bare_rock", "leaf_type": null, "wikidata": null, "type": null, "place": null, "name": null, "boundary": null, "admin_level": null }, "geometry": { "type": "MultiPolygon", "coordinates": [ [ [ [ -104.8844896, 38.8409002 ], [ -104.8846065, 38.8410895 ], [ -104.8845228, 38.841209 ], [ -104.8844692, 38.8413698 ], [ -104.8843455, 38.8415601 ], [ -104.8842207, 38.8417859 ], [ -104.8840526, 38.842073 ], [ -104.8839141, 38.8423296 ], [ -104.8838029, 38.842391 ], [ -104.8837944, 38.8422573 ], [ -104.8838373, 38.8420835 ], [ -104.8838888, 38.841923 ], [ -104.8840003, 38.841776 ], [ -104.8841205, 38.8416422 ], [ -104.8842235, 38.8414885 ], [ -104.8842664, 38.8413481 ], [ -104.8843351, 38.8411877 ], [ -104.8844123, 38.8409938 ], [ -104.8844896, 38.8409002 ] ] ] ] } },
{ "type": "Feature", "properties": { "full_id": "w36945883", "osm_id": "36945883", "osm_type": "way", "roof:shape": null, "construction": null, "animal_boarding": null, "dog": null, "layer": null, "intermittent": null, "supervised": null, "covered": null, "highway": null, "residential": null, "opening_hours:drive_through": null, "contact:website": null, "internet_access": null, "layer1": null, "power_supply": null, "shelter_type": null, "education": null, "social_facility": null, "barrier": null, "water": null, "boat": null, "historic": null, "description": null, "healthcare:speciality": null, "healthcare": null, "level": null, "drive_in": null, "club": null, "atm": null, "addr:country": null, "addr:unit": null, "office": null, "craft": null, "smoking": null, "outdoor_seating": null, "brand:wikipedia": null, "short_name": null, "operator:website": null, "drive_through": null, "denomination": null, "religion": null, "building_1": null, "old_name": null, "notes": null, "man_made": null, "wheelchair": null, "tourism": null, "name:en": null, "gnis:feature_id": null, "ele": null, "ref": null, "official_name": null, "building:levels": null, "branch": null, "shop": null, "alt_name": null, "takeaway": null, "phone": null, "cuisine": null, "check_date": null, "brand:wikidata": null, "brand": null, "sport": null, "motor_vehicle": null, "leisure": null, "horse": null, "foot": null, "bicycle": null, "capacity": null, "lit": null, "surface": null, "smoothness": null, "parking": null, "park_ride": null, "orientation": null, "fee": null, "capacity:women": null, "capacity:parent": null, "capacity:disabled": null, "amenity": null, "access": null, "wikipedia": null, "website": null, "start_date": null, "protection_title": null, "opening_hours": null, "addr:street": null, "addr:state": null, "addr:postcode": null, "addr:housenumber": null, "addr:city": null, "building": null, "protected": null, "protect_class": null, "ownership": null, "owner": null, "operator:wikipedia": null, "operator:wikidata": null, "operator:type": null, "operator:short": null, "operator": null, "landuse": null, "natural": "water", "leaf_type": null, "wikidata": null, "type": null, "place": null, "name": null, "boundary": null, "admin_level": null }, "geometry": { "type": "MultiPolygon", "coordinates": [ [ [ [ -104.8811833, 38.8486208 ], [ -104.8810745, 38.8486424 ], [ -104.8809443, 38.8486836 ], [ -104.88077, 38.8487556 ], [ -104.8806951, 38.8486698 ], [ -104.8806801, 38.8486484 ], [ -104.8806636, 38.8486343 ], [ -104.8806414, 38.8486261 ], [ -104.8806144, 38.8486262 ], [ -104.8805848, 38.8486341 ], [ -104.8805318, 38.8486496 ], [ -104.8805011, 38.8486513 ], [ -104.8804837, 38.8486487 ], [ -104.8804668, 38.8486391 ], [ -104.880457, 38.8486252 ], [ -104.8804555, 38.8486072 ], [ -104.8804569, 38.8485757 ], [ -104.8804587, 38.848518 ], [ -104.8804766, 38.8484271 ], [ -104.8804981, 38.8483889 ], [ -104.8805282, 38.848347 ], [ -104.8805667, 38.8482959 ], [ -104.8805907, 38.8482548 ], [ -104.8806523, 38.8481365 ], [ -104.880687, 38.8481019 ], [ -104.8807147, 38.8480849 ], [ -104.8807478, 38.8480759 ], [ -104.8807841, 38.8480725 ], [ -104.8808111, 38.8480715 ], [ -104.8808655, 38.8480787 ], [ -104.8809025, 38.8480899 ], [ -104.8809384, 38.8481039 ], [ -104.8809637, 38.8481235 ], [ -104.8809802, 38.848144 ], [ -104.880981, 38.8481776 ], [ -104.8809787, 38.8481953 ], [ -104.8809738, 38.84821 ], [ -104.8809714, 38.8482265 ], [ -104.8809734, 38.8482485 ], [ -104.8809794, 38.8482657 ], [ -104.8809873, 38.8482837 ], [ -104.8809985, 38.8482964 ], [ -104.8810106, 38.8483092 ], [ -104.8810365, 38.8483658 ], [ -104.88106, 38.848407 ], [ -104.8810854, 38.8484441 ], [ -104.8811115, 38.8484744 ], [ -104.8811453, 38.8485049 ], [ -104.8811757, 38.8485332 ], [ -104.8811944, 38.8485564 ], [ -104.8811833, 38.8486208 ] ] ] ] } },
{ "type": "Feature", "properties": { "full_id": "w1156328953", "osm_id": "1156328953", "osm_type": "way", "roof:shape": null, "construction": null, "animal_boarding": null, "dog": null, "layer": null, "intermittent": null, "supervised": null, "covered": null, "highway": null, "residential": null, "opening_hours:drive_through": null, "contact:website": null, "internet_access": null, "layer1": null, "power_supply": null, "shelter_type": null, "education": null, "social_facility": null, "barrier": null, "water": null, "boat": null, "historic": null, "description": null, "healthcare:speciality": null, "healthcare": null, "level": null, "drive_in": null, "club": null, "atm": null, "addr:country": null, "addr:unit": null, "office": null, "craft": null, "smoking": null, "outdoor_seating": null, "brand:wikipedia": null, "short_name": null, "operator:website": null, "drive_through": null, "denomination": null, "religion": null, "building_1": null, "old_name": null, "notes": null, "man_made": null, "wheelchair": null, "tourism": null, "name:en": null, "gnis:feature_id": null, "ele": null, "ref": null, "official_name": null, "building:levels": null, "branch": null, "shop": null, "alt_name": null, "takeaway": null, "phone": null, "cuisine": null, "check_date": null, "brand:wikidata": null, "brand": null, "sport": null, "motor_vehicle": null, "leisure": null, "horse": null, "foot": null, "bicycle": null, "capacity": null, "lit": null, "surface": null, "smoothness": null, "parking": null, "park_ride": null, "orientation": null, "fee": null, "capacity:women": null, "capacity:parent": null, "capacity:disabled": null, "amenity": null, "access": null, "wikipedia": null, "website": null, "start_date": null, "protection_title": null, "opening_hours": null, "addr:street": "South 31st Street", "addr:state": "CO", "addr:postcode": null, "addr:housenumber": "529", "addr:city": "Colorado Springs", "building": "industrial", "protected": null, "protect_class": null, "ownership": null, "owner": null, "operator:wikipedia": null, "operator:wikidata": null, "operator:type": null, "operator:short": null, "operator": null, "landuse": null, "natural": null, "leaf_type": null, "wikidata": null, "type": null, "place": null, "name": "Stewart Building", "boundary": null, "admin_level": null }, "geometry": { "type": "MultiPolygon", "coordinates": [ [ [ [ -104.8725138, 38.8478369 ], [ -104.872512, 38.8480625 ], [ -104.872638, 38.8480631 ], [ -104.8726398, 38.8478375 ], [ -104.8725138, 38.8478369 ] ] ] ] } },
{ "type": "Feature", "properties": { "full_id": "w37395534", "osm_id": "37395534", "osm_type": "way", "roof:shape": null, "construction": null, "animal_boarding": null, "dog": null, "layer": null, "intermittent": null, "supervised": null, "covered": null, "highway": null, "residential": null, "opening_hours:drive_through": null, "contact:website": null, "internet_access": null, "layer1": null, "power_supply": null, "shelter_type": null, "education": null, "social_facility": null, "barrier": null, "water": null, "boat": null, "historic": null, "description": null, "healthcare:speciality": null, "healthcare": null, "level": null, "drive_in": null, "club": null, "atm": null, "addr:country": null, "addr:unit": null, "office": null, "craft": null, "smoking": null, "outdoor_seating": null, "brand:wikipedia": null, "short_name": null, "operator:website": null, "drive_through": null, "denomination": null, "religion": null, "building_1": null, "old_name": null, "notes": null, "man_made": null, "wheelchair": null, "tourism": null, "name:en": null, "gnis:feature_id": null, "ele": null, "ref": null, "official_name": null, "building:levels": null, "branch": null, "shop": null, "alt_name": null, "takeaway": null, "phone": null, "cuisine": null, "check_date": null, "brand:wikidata": null, "brand": null, "sport": null, "motor_vehicle": null, "leisure": null, "horse": null, "foot": null, "bicycle": null, "capacity": null, "lit": null, "surface": null, "smoothness": null, "parking": null, "park_ride": null, "orientation": null, "fee": null, "capacity:women": null, "capacity:parent": null, "capacity:disabled": null, "amenity": null, "access": null, "wikipedia": null, "website": null, "start_date": null, "protection_title": null, "opening_hours": null, "addr:street": null, "addr:state": null, "addr:postcode": null, "addr:housenumber": null, "addr:city": null, "building": null, "protected": null, "protect_class": null, "ownership": null, "owner": null, "operator:wikipedia": null, "operator:wikidata": null, "operator:type": null, "operator:short": null, "operator": null, "landuse": null, "natural": "bare_rock", "leaf_type": null, "wikidata": null, "type": null, "place": null, "name": null, "boundary": null, "admin_level": null }, "geometry": { "type": "MultiPolygon", "coordinates": [ [ [ [ -104.8845153, 38.8421837 ], [ -104.8846355, 38.8420032 ], [ -104.8847471, 38.8418027 ], [ -104.884924, 38.8414698 ], [ -104.884972, 38.8412307 ], [ -104.8850863, 38.84106 ], [ -104.8852385, 38.8409324 ], [ -104.8854232, 38.840868 ], [ -104.8856101, 38.8407727 ], [ -104.885722, 38.8406715 ], [ -104.8857364, 38.8405126 ], [ -104.8857364, 38.8403755 ], [ -104.8855514, 38.8402745 ], [ -104.8852634, 38.8402901 ], [ -104.8850414, 38.8403528 ], [ -104.8849712, 38.8405429 ], [ -104.884773, 38.8407925 ], [ -104.8846631, 38.8410107 ], [ -104.8846065, 38.8410895 ], [ -104.8846401, 38.8412921 ], [ -104.8847385, 38.8415286 ], [ -104.8846183, 38.8417225 ], [ -104.8845239, 38.841923 ], [ -104.8844037, 38.8421035 ], [ -104.8842063, 38.8422773 ], [ -104.8841033, 38.8424712 ], [ -104.8843008, 38.8426116 ], [ -104.884378, 38.8424979 ], [ -104.8844295, 38.8423442 ], [ -104.8845153, 38.8421837 ] ] ] ] } },
{ "type": "Feature", "properties": { "full_id": "w36945847", "osm_id": "36945847", "osm_type": "way", "roof:shape": null, "construction": null, "animal_boarding": null, "dog": null, "layer": null, "intermittent": null, "supervised": null, "covered": null, "highway": null, "residential": null, "opening_hours:drive_through": null, "contact:website": null, "internet_access": null, "layer1": null, "power_supply": null, "shelter_type": null, "education": null, "social_facility": null, "barrier": null, "water": null, "boat": null, "historic": null, "description": null, "healthcare:speciality": null, "healthcare": null, "level": null, "drive_in": null, "club": null, "atm": null, "addr:country": null, "addr:unit": null, "office": null, "craft": null, "smoking": null, "outdoor_seating": null, "brand:wikipedia": null, "short_name": null, "operator:website": null, "drive_through": null, "denomination": null, "religion": null, "building_1": null, "old_name": null, "notes": null, "man_made": null, "wheelchair": null, "tourism": null, "name:en": null, "gnis:feature_id": null, "ele": null, "ref": null, "official_name": null, "building:levels": null, "branch": null, "shop": null, "alt_name": null, "takeaway": null, "phone": null, "cuisine": null, "check_date": null, "brand:wikidata": null, "brand": null, "sport": null, "motor_vehicle": null, "leisure": null, "horse": null, "foot": null, "bicycle": null, "capacity": null, "lit": null, "surface": null, "smoothness": null, "parking": null, "park_ride": null, "orientation": null, "fee": null, "capacity:women": null, "capacity:parent": null, "capacity:disabled": null, "amenity": null, "access": null, "wikipedia": null, "website": null, "start_date": null, "protection_title": null, "opening_hours": null, "addr:street": null, "addr:state": null, "addr:postcode": null, "addr:housenumber": null, "addr:city": null, "building": null, "protected": null, "protect_class": null, "ownership": null, "owner": null, "operator:wikipedia": null, "operator:wikidata": null, "operator:type": null, "operator:short": null, "operator": null, "landuse": null, "natural": "water", "leaf_type": null, "wikidata": null, "type": null, "place": null, "name": null, "boundary": null, "admin_level": null }, "geometry": { "type": "MultiPolygon", "coordinates": [ [ [ [ -104.8813699, 38.8497186 ], [ -104.8813326, 38.8497244 ], [ -104.8812932, 38.8497225 ], [ -104.8812452, 38.8497121 ], [ -104.8812089, 38.8496966 ], [ -104.8811743, 38.8496731 ], [ -104.8811471, 38.8496384 ], [ -104.8811061, 38.8495625 ], [ -104.8810816, 38.8494866 ], [ -104.8810705, 38.8494413 ], [ -104.8810685, 38.8493957 ], [ -104.8810677, 38.8493643 ], [ -104.8810601, 38.8493408 ], [ -104.8810385, 38.8493205 ], [ -104.8810087, 38.8493085 ], [ -104.8809774, 38.8493085 ], [ -104.8809441, 38.8493207 ], [ -104.8809087, 38.8493486 ], [ -104.8808932, 38.849386 ], [ -104.8808854, 38.8494224 ], [ -104.8808771, 38.8494459 ], [ -104.8808594, 38.849461 ], [ -104.8808304, 38.8494692 ], [ -104.880797, 38.8494693 ], [ -104.8807613, 38.8494568 ], [ -104.8807021, 38.8494293 ], [ -104.8806569, 38.8494126 ], [ -104.880615, 38.8494061 ], [ -104.8805507, 38.8493984 ], [ -104.8804651, 38.8493814 ], [ -104.8804058, 38.8493719 ], [ -104.8803686, 38.8493514 ], [ -104.880345, 38.849324 ], [ -104.8803251, 38.8492751 ], [ -104.8803165, 38.8492487 ], [ -104.8803157, 38.8492219 ], [ -104.8803218, 38.8491897 ], [ -104.8803548, 38.849174 ], [ -104.880396, 38.8491445 ], [ -104.880442, 38.8491112 ], [ -104.8805045, 38.8490715 ], [ -104.8805572, 38.8490328 ], [ -104.8806231, 38.8489865 ], [ -104.880679, 38.8489376 ], [ -104.8807155, 38.8488967 ], [ -104.8807606, 38.8488255 ], [ -104.8808352, 38.8488142 ], [ -104.8809023, 38.848801 ], [ -104.8809732, 38.8487823 ], [ -104.8811661, 38.8487182 ], [ -104.8812189, 38.8486984 ], [ -104.8812611, 38.8486814 ], [ -104.8812959, 38.8486637 ], [ -104.8813172, 38.8486389 ], [ -104.881321, 38.8486115 ], [ -104.8813081, 38.848582 ], [ -104.8812619, 38.8485301 ], [ -104.8812867, 38.8484767 ], [ -104.8814187, 38.8482445 ], [ -104.8814488, 38.8481844 ], [ -104.881479, 38.8481463 ], [ -104.8815206, 38.848108 ], [ -104.8815689, 38.8480777 ], [ -104.8817155, 38.848005 ], [ -104.8819531, 38.8478389 ], [ -104.8819869, 38.8478288 ], [ -104.8820176, 38.8478287 ], [ -104.882044, 38.8478367 ], [ -104.8820713, 38.8478487 ], [ -104.882093, 38.847865 ], [ -104.8821013, 38.8478864 ], [ -104.8820967, 38.8479144 ], [ -104.8820788, 38.8479589 ], [ -104.8820649, 38.847998 ], [ -104.8820562, 38.8480314 ], [ -104.8820443, 38.848057 ], [ -104.8820273, 38.8480828 ], [ -104.8819836, 38.848132 ], [ -104.8819623, 38.8481578 ], [ -104.881945, 38.8481834 ], [ -104.8819313, 38.8482071 ], [ -104.8819112, 38.8482582 ], [ -104.881898, 38.8483079 ], [ -104.8818803, 38.8483668 ], [ -104.8818485, 38.8484726 ], [ -104.8818417, 38.8485194 ], [ -104.8818208, 38.8485671 ], [ -104.8817943, 38.8486116 ], [ -104.8817663, 38.8486626 ], [ -104.8817499, 38.8487216 ], [ -104.88174, 38.8487701 ], [ -104.8817473, 38.8488077 ], [ -104.8817589, 38.8488408 ], [ -104.8817545, 38.8488865 ], [ -104.8817434, 38.8489367 ], [ -104.8817349, 38.848998 ], [ -104.8817239, 38.849049 ], [ -104.8817128, 38.849083 ], [ -104.8816781, 38.849134 ], [ -104.8816438, 38.8491782 ], [ -104.8816213, 38.8492275 ], [ -104.8816208, 38.8492637 ], [ -104.8816112, 38.8493112 ], [ -104.881596, 38.8493641 ], [ -104.8815717, 38.8494172 ], [ -104.8815298, 38.8494667 ], [ -104.8815003, 38.8495168 ], [ -104.8814537, 38.8495671 ], [ -104.8814352, 38.8495953 ], [ -104.8814283, 38.8496228 ], [ -104.8814276, 38.8496497 ], [ -104.8814179, 38.8496744 ], [ -104.8813925, 38.8497012 ], [ -104.8813699, 38.8497186 ] ] ] ] } },
{ "type": "Feature", "properties": { "full_id": "w1156328952", "osm_id": "1156328952", "osm_type": "way", "roof:shape": null, "construction": null, "animal_boarding": null, "dog": null, "layer": null, "intermittent": null, "supervised": null, "covered": null, "highway": null, "residential": null, "opening_hours:drive_through": null, "contact:website": null, "internet_access": null, "layer1": null, "power_supply": null, "shelter_type": null, "education": null, "social_facility": null, "barrier": null, "water": null, "boat": null, "historic": null, "description": null, "healthcare:speciality": null, "healthcare": null, "level": null, "drive_in": null, "club": null, "atm": null, "addr:country": null, "addr:unit": null, "office": null, "craft": null, "smoking": null, "outdoor_seating": null, "brand:wikipedia": null, "short_name": null, "operator:website": null, "drive_through": null, "denomination": null, "religion": null, "building_1": null, "old_name": null, "notes": null, "man_made": null, "wheelchair": null, "tourism": null, "name:en": null, "gnis:feature_id": null, "ele": null, "ref": null, "official_name": null, "building:levels": null, "branch": null, "shop": null, "alt_name": null, "takeaway": null, "phone": null, "cuisine": null, "check_date": null, "brand:wikidata": null, "brand": null, "sport": null, "motor_vehicle": null, "leisure": null, "horse": null, "foot": null, "bicycle": null, "capacity": null, "lit": null, "surface": null, "smoothness": null, "parking": null, "park_ride": null, "orientation": null, "fee": null, "capacity:women": null, "capacity:parent": null, "capacity:disabled": null, "amenity": null, "access": null, "wikipedia": null, "website": null, "start_date": null, "protection_title": null, "opening_hours": null, "addr:street": null, "addr:state": null, "addr:postcode": null, "addr:housenumber": null, "addr:city": null, "building": "yes", "protected": null, "protect_class": null, "ownership": null, "owner": null, "operator:wikipedia": null, "operator:wikidata": null, "operator:type": null, "operator:short": null, "operator": null, "landuse": null, "natural": null, "leaf_type": null, "wikidata": null, "type": null, "place": null, "name": null, "boundary": null, "admin_level": null }, "geometry": { "type": "MultiPolygon", "coordinates": [ [ [ [ -104.8722062, 38.8479096 ], [ -104.8722043, 38.8479973 ], [ -104.8722955, 38.8479985 ], [ -104.8722974, 38.8479108 ], [ -104.8722062, 38.8479096 ] ] ] ] } },
{ "type": "Feature", "properties": { "full_id": "w187756978", "osm_id": "187756978", "osm_type": "way", "roof:shape": null, "construction": null, "animal_boarding": null, "dog": null, "layer": null, "intermittent": null, "supervised": null, "covered": null, "highway": null, "residential": null, "opening_hours:drive_through": null, "contact:website": null, "internet_access": null, "layer1": null, "power_supply": null, "shelter_type": null, "education": null, "social_facility": null, "barrier": null, "water": null, "boat": null, "historic": null, "description": null, "healthcare:speciality": null, "healthcare": null, "level": null, "drive_in": null, "club": null, "atm": null, "addr:country": null, "addr:unit": null, "office": null, "craft": null, "smoking": null, "outdoor_seating": null, "brand:wikipedia": null, "short_name": null, "operator:website": null, "drive_through": null, "denomination": null, "religion": null, "building_1": null, "old_name": null, "notes": null, "man_made": null, "wheelchair": null, "tourism": null, "name:en": null, "gnis:feature_id": null, "ele": null, "ref": null, "official_name": null, "building:levels": null, "branch": null, "shop": null, "alt_name": null, "takeaway": null, "phone": null, "cuisine": null, "check_date": null, "brand:wikidata": null, "brand": null, "sport": null, "motor_vehicle": null, "leisure": null, "horse": null, "foot": null, "bicycle": null, "capacity": null, "lit": null, "surface": null, "smoothness": null, "parking": null, "park_ride": null, "orientation": null, "fee": null, "capacity:women": null, "capacity:parent": null, "capacity:disabled": null, "amenity": null, "access": null, "wikipedia": null, "website": null, "start_date": null, "protection_title": null, "opening_hours": null, "addr:street": null, "addr:state": null, "addr:postcode": null, "addr:housenumber": null, "addr:city": null, "building": "yes", "protected": null, "protect_class": null, "ownership": null, "owner": null, "operator:wikipedia": null, "operator:wikidata": null, "operator:type": null, "operator:short": null, "operator": null, "landuse": null, "natural": null, "leaf_type": null, "wikidata": null, "type": null, "place": null, "name": null, "boundary": null, "admin_level": null }, "geometry": { "type": "MultiPolygon", "coordinates": [ [ [ [ -104.8724551, 38.8489701 ], [ -104.8721644, 38.8489701 ], [ -104.8721644, 38.8492802 ], [ -104.8724472, 38.8492802 ], [ -104.8724472, 38.8492405 ], [ -104.8725545, 38.8492405 ], [ -104.8725544, 38.8490118 ], [ -104.8724551, 38.8490118 ], [ -104.8724551, 38.8489701 ] ] ] ] } },
{ "type": "Feature", "properties": { "full_id": "w187757029", "osm_id": "187757029", "osm_type": "way", "roof:shape": null, "construction": null, "animal_boarding": null, "dog": null, "layer": null, "intermittent": null, "supervised": null, "covered": null, "highway": null, "residential": null, "opening_hours:drive_through": null, "contact:website": null, "internet_access": null, "layer1": null, "power_supply": null, "shelter_type": null, "education": null, "social_facility": null, "barrier": null, "water": null, "boat": null, "historic": null, "description": null, "healthcare:speciality": null, "healthcare": null, "level": null, "drive_in": null, "club": null, "atm": null, "addr:country": null, "addr:unit": null, "office": null, "craft": null, "smoking": null, "outdoor_seating": null, "brand:wikipedia": null, "short_name": null, "operator:website": null, "drive_through": null, "denomination": null, "religion": null, "building_1": null, "old_name": null, "notes": null, "man_made": null, "wheelchair": null, "tourism": null, "name:en": null, "gnis:feature_id": null, "ele": null, "ref": null, "official_name": null, "building:levels": null, "branch": null, "shop": null, "alt_name": null, "takeaway": null, "phone": null, "cuisine": null, "check_date": null, "brand:wikidata": null, "brand": null, "sport": null, "motor_vehicle": null, "leisure": null, "horse": null, "foot": null, "bicycle": null, "capacity": null, "lit": null, "surface": null, "smoothness": null, "parking": null, "park_ride": null, "orientation": null, "fee": null, "capacity:women": null, "capacity:parent": null, "capacity:disabled": null, "amenity": "fuel", "access": null, "wikipedia": null, "website": null, "start_date": null, "protection_title": null, "opening_hours": null, "addr:street": "South 31st Street", "addr:state": "CO", "addr:postcode": "80904", "addr:housenumber": null, "addr:city": "Colorado Springs", "building": "yes", "protected": null, "protect_class": null, "ownership": null, "owner": null, "operator:wikipedia": null, "operator:wikidata": null, "operator:type": null, "operator:short": null, "operator": null, "landuse": null, "natural": null, "leaf_type": null, "wikidata": null, "type": null, "place": null, "name": "Rudy'S", "boundary": null, "admin_level": null }, "geometry": { "type": "MultiPolygon", "coordinates": [ [ [ [ -104.8721466, 38.8501027 ], [ -104.8719652, 38.8499368 ], [ -104.8718725, 38.8499982 ], [ -104.8720539, 38.8501642 ], [ -104.8721466, 38.8501027 ] ] ] ] } },
{ "type": "Feature", "properties": { "full_id": "w36949218", "osm_id": "36949218", "osm_type": "way", "roof:shape": null, "construction": null, "animal_boarding": null, "dog": null, "layer": null, "intermittent": null, "supervised": null, "covered": null, "highway": null, "residential": null, "opening_hours:drive_through": null, "contact:website": null, "internet_access": null, "layer1": null, "power_supply": null, "shelter_type": null, "education": null, "social_facility": null, "barrier": null, "water": null, "boat": null, "historic": null, "description": null, "healthcare:speciality": null, "healthcare": null, "level": null, "drive_in": null, "club": null, "atm": null, "addr:country": null, "addr:unit": null, "office": null, "craft": null, "smoking": null, "outdoor_seating": null, "brand:wikipedia": null, "short_name": null, "operator:website": null, "drive_through": null, "denomination": null, "religion": null, "building_1": null, "old_name": null, "notes": null, "man_made": null, "wheelchair": null, "tourism": null, "name:en": null, "gnis:feature_id": null, "ele": null, "ref": null, "official_name": null, "building:levels": null, "branch": null, "shop": null, "alt_name": null, "takeaway": null, "phone": null, "cuisine": null, "check_date": null, "brand:wikidata": null, "brand": null, "sport": "cycling", "motor_vehicle": "no", "leisure": "track", "horse": "no", "foot": "no", "bicycle": "designated", "capacity": null, "lit": null, "surface": null, "smoothness": null, "parking": null, "park_ride": null, "orientation": null, "fee": null, "capacity:women": null, "capacity:parent": null, "capacity:disabled": null, "amenity": null, "access": null, "wikipedia": null, "website": null, "start_date": null, "protection_title": null, "opening_hours": "Mo-Su 06:00-20:00; Sa 06:00-20:00; PH open", "addr:street": null, "addr:state": null, "addr:postcode": null, "addr:housenumber": null, "addr:city": null, "building": null, "protected": null, "protect_class": null, "ownership": null, "owner": null, "operator:wikipedia": null, "operator:wikidata": null, "operator:type": null, "operator:short": null, "operator": null, "landuse": "recreation_ground", "natural": null, "leaf_type": null, "wikidata": null, "type": null, "place": null, "name": "Free Ride Area", "boundary": null, "admin_level": null }, "geometry": { "type": "MultiPolygon", "coordinates": [ [ [ [ -104.8789873, 38.8530176 ], [ -104.8789853, 38.8531472 ], [ -104.8789707, 38.8531898 ], [ -104.8789236, 38.8531916 ], [ -104.8788008, 38.8531514 ], [ -104.8787161, 38.8531332 ], [ -104.8786145, 38.8530795 ], [ -104.8785281, 38.8529983 ], [ -104.8785052, 38.8529256 ], [ -104.8788116, 38.8529746 ], [ -104.8788608, 38.8529596 ], [ -104.8789012, 38.852929 ], [ -104.8789259, 38.8528695 ], [ -104.8789455, 38.8527759 ], [ -104.8790167, 38.8527768 ], [ -104.8789873, 38.8530176 ] ] ] ] } },
{ "type": "Feature", "properties": { "full_id": "w187756938", "osm_id": "187756938", "osm_type": "way", "roof:shape": null, "construction": null, "animal_boarding": null, "dog": null, "layer": null, "intermittent": null, "supervised": null, "covered": null, "highway": null, "residential": null, "opening_hours:drive_through": null, "contact:website": null, "internet_access": null, "layer1": null, "power_supply": null, "shelter_type": null, "education": null, "social_facility": null, "barrier": null, "water": null, "boat": null, "historic": null, "description": null, "healthcare:speciality": null, "healthcare": null, "level": null, "drive_in": null, "club": null, "atm": null, "addr:country": null, "addr:unit": null, "office": null, "craft": null, "smoking": null, "outdoor_seating": null, "brand:wikipedia": null, "short_name": null, "operator:website": null, "drive_through": null, "denomination": null, "religion": null, "building_1": null, "old_name": null, "notes": null, "man_made": null, "wheelchair": null, "tourism": null, "name:en": null, "gnis:feature_id": null, "ele": null, "ref": null, "official_name": null, "building:levels": null, "branch": null, "shop": null, "alt_name": null, "takeaway": null, "phone": null, "cuisine": null, "check_date": null, "brand:wikidata": null, "brand": null, "sport": null, "motor_vehicle": null, "leisure": null, "horse": null, "foot": null, "bicycle": null, "capacity": null, "lit": null, "surface": null, "smoothness": null, "parking": null, "park_ride": null, "orientation": null, "fee": null, "capacity:women": null, "capacity:parent": null, "capacity:disabled": null, "amenity": null, "access": null, "wikipedia": null, "website": null, "start_date": null, "protection_title": null, "opening_hours": null, "addr:street": "South 31st Street", "addr:state": "CO", "addr:postcode": null, "addr:housenumber": "465", "addr:city": null, "building": "yes", "protected": null, "protect_class": null, "ownership": null, "owner": null, "operator:wikipedia": null, "operator:wikidata": null, "operator:type": null, "operator:short": null, "operator": null, "landuse": null, "natural": null, "leaf_type": null, "wikidata": null, "type": null, "place": null, "name": null, "boundary": null, "admin_level": null }, "geometry": { "type": "MultiPolygon", "coordinates": [ [ [ [ -104.8726038, 38.8483822 ], [ -104.8722599, 38.8483823 ], [ -104.8722599, 38.8487024 ], [ -104.8726039, 38.8487024 ], [ -104.8726038, 38.8483822 ] ] ] ] } },
{ "type": "Feature", "properties": { "full_id": "w51064202", "osm_id": "51064202", "osm_type": "way", "roof:shape": null, "construction": null, "animal_boarding": null, "dog": null, "layer": null, "intermittent": null, "supervised": null, "covered": null, "highway": null, "residential": null, "opening_hours:drive_through": null, "contact:website": null, "internet_access": null, "layer1": null, "power_supply": null, "shelter_type": null, "education": null, "social_facility": null, "barrier": null, "water": null, "boat": null, "historic": null, "description": null, "healthcare:speciality": null, "healthcare": null, "level": null, "drive_in": null, "club": null, "atm": null, "addr:country": null, "addr:unit": null, "office": null, "craft": null, "smoking": null, "outdoor_seating": null, "brand:wikipedia": null, "short_name": null, "operator:website": null, "drive_through": null, "denomination": null, "religion": null, "building_1": null, "old_name": null, "notes": null, "man_made": null, "wheelchair": "no", "tourism": null, "name:en": null, "gnis:feature_id": null, "ele": null, "ref": null, "official_name": null, "building:levels": null, "branch": null, "shop": null, "alt_name": null, "takeaway": null, "phone": null, "cuisine": null, "check_date": null, "brand:wikidata": null, "brand": null, "sport": null, "motor_vehicle": null, "leisure": "dog_park", "horse": null, "foot": null, "bicycle": null, "capacity": null, "lit": null, "surface": null, "smoothness": null, "parking": null, "park_ride": null, "orientation": null, "fee": null, "capacity:women": null, "capacity:parent": null, "capacity:disabled": null, "amenity": null, "access": null, "wikipedia": null, "website": "https://redrockcanyonopenspace.org/recreation/trails/", "start_date": null, "protection_title": null, "opening_hours": "dawn-dusk", "addr:street": null, "addr:state": null, "addr:postcode": null, "addr:housenumber": null, "addr:city": null, "building": null, "protected": null, "protect_class": null, "ownership": null, "owner": null, "operator:wikipedia": null, "operator:wikidata": null, "operator:type": null, "operator:short": null, "operator": null, "landuse": null, "natural": null, "leaf_type": null, "wikidata": null, "type": null, "place": null, "name": "Off Leash Dog Area", "boundary": null, "admin_level": null }, "geometry": { "type": "MultiPolygon", "coordinates": [ [ [ [ -104.8832675, 38.8522314 ], [ -104.8831063, 38.852352 ], [ -104.8826135, 38.8525436 ], [ -104.8824208, 38.8525837 ], [ -104.8821099, 38.8528651 ], [ -104.8819477, 38.8528114 ], [ -104.8816929, 38.8525314 ], [ -104.8813865, 38.8527528 ], [ -104.8810063, 38.8530767 ], [ -104.8806375, 38.8529439 ], [ -104.8803842, 38.8529401 ], [ -104.8802417, 38.8529039 ], [ -104.8800668, 38.8527822 ], [ -104.8800136, 38.8526319 ], [ -104.8801337, 38.8524536 ], [ -104.880211, 38.8522696 ], [ -104.8803345, 38.8523494 ], [ -104.8806401, 38.8522703 ], [ -104.8807835, 38.8522842 ], [ -104.8812962, 38.8521855 ], [ -104.8812707, 38.8520699 ], [ -104.8814321, 38.8516122 ], [ -104.881627, 38.8512869 ], [ -104.8817663, 38.8510307 ], [ -104.8820436, 38.8511441 ], [ -104.8823977, 38.8511077 ], [ -104.8825425, 38.8510927 ], [ -104.8829275, 38.8509355 ], [ -104.8830522, 38.851112 ], [ -104.8832752, 38.851448 ], [ -104.8833917, 38.8516435 ], [ -104.8833334, 38.8520616 ], [ -104.8832675, 38.8522314 ] ] ] ] } }
]
}
